{"type":"FeatureCollection","features":[{"type":"Feature","geometry":{"type":"Polygon","coordinates":[[[-81.2225643352252,41.3518246134228],[-81.2228482269489,41.3505269205835],[-81.2237076947203,41.3505251324252],[-81.223742826175,41.3505250596654],[-81.2236877816793,41.3518851532074],[-81.223656111164,41.3518843347599],[-81.2235836964989,41.3518824635868],[-81.2235799249912,41.3519037971606],[-81.2235707023773,41.351924166345],[-81.2235563830956,41.3519427883119],[-81.2235375174608,41.3519589473818],[-81.2235148305145,41.3519720225287],[-81.2234891941612,41.3519815112478],[-81.2234615936581,41.3519870488678],[-81.2234330897501,41.3519884225664],[-81.2230726703504,41.3519791081186],[-81.2230029775315,41.3519750062415],[-81.222934024362,41.3519663430429],[-81.2228663356161,41.3519531844548],[-81.2228004264443,41.3519356306219],[-81.2227367984524,41.351913815139],[-81.2226759358839,41.3518879040346],[-81.2226183019341,41.3518580945068],[-81.2225643352252,41.3518246134228]]]},"properties":{"source_county":"Geauga","jurisdiction":"Auburn Township","parcel_id":"01-006630","owner_name":"SIRNA CRAIG R & ANNE MARIE","property_address":"19029 RAVENNA RD","property_city":"AUBURN TOWNSHIP","property_zip":"44023"}},{"type":"Feature","geometry":{"type":"Polygon","coordinates":[[[-81.2234699111264,41.3559847829291],[-81.2235063610132,41.3559847310538],[-81.2234815733913,41.3565305822436],[-81.2234451220068,41.3565306340979],[-81.2210881158397,41.3565339514914],[-81.2211055407692,41.3561527898336],[-81.2211130692502,41.3559880961233],[-81.2234699111264,41.3559847829291]]]},"properties":{"source_county":"Geauga","jurisdiction":"Auburn Township","parcel_id":"01-007000","owner_name":"TURNER THERESA A","property_address":"18865 RAVENNA RD","property_city":"AUBURN TOWNSHIP","property_zip":"44023"}},{"type":"Feature","geometry":{"type":"Polygon","coordinates":[[[-81.2189756922533,41.3743939451695],[-81.2204772103482,41.3716607934173],[-81.2205155072608,41.3716632762213],[-81.2234810703807,41.3718555464073],[-81.231426828028,41.37237032427],[-81.2314178667798,41.3728304745126],[-81.2313906469165,41.3742282287434],[-81.22838201914,41.3742757572928],[-81.2271663740966,41.3743124024609],[-81.2266197479951,41.3743288763424],[-81.2259687788681,41.3743484914596],[-81.2248707940968,41.3743815668432],[-81.2239780872134,41.3743870342593],[-81.2230853801815,41.3743924947925],[-81.2221926730012,41.3743979484428],[-81.2213983461616,41.3744027959257],[-81.220676893497,41.3744071932882],[-81.2190022471836,41.3744173829718],[-81.2189638274684,41.3744155386143],[-81.2189756922533,41.3743939451695]]]},"properties":{"source_county":"Geauga","jurisdiction":"Auburn Township","parcel_id":"01-027200","owner_name":"TWO FISH REAL ESTATE LLC","property_address":"18268 RAVENNA RD","property_city":"AUBURN TOWNSHIP","property_zip":"44023"}},{"type":"Feature","geometry":{"type":"Polygon","coordinates":[[[-81.2153838770289,41.3529440082379],[-81.2186632628725,41.3529578481916],[-81.218636123484,41.3539971524444],[-81.2184213390886,41.3540012465851],[-81.2153546065972,41.3539873258104],[-81.2153566119673,41.3539206956979],[-81.2153838770289,41.3529440082379]]]},"properties":{"source_county":"Geauga","jurisdiction":"Auburn Township","parcel_id":"01-028410","owner_name":"KAVALECZ SARAH M","property_address":"18929 RAVENNA RD","property_city":"AUBURN TOWNSHIP","property_zip":"44023"}},{"type":"Feature","geometry":{"type":"Polygon","coordinates":[[[-81.2185964717032,41.3555155673993],[-81.2186338908401,41.3540826564666],[-81.2218109108344,41.3540895763787],[-81.222281618251,41.354394622157],[-81.2235415535837,41.3544071465889],[-81.2235779838135,41.3544075078354],[-81.2235281603671,41.3555047056991],[-81.2234917089919,41.3555047863794],[-81.2191381618427,41.3555143733177],[-81.2185964717032,41.3555155673993]]]},"properties":{"source_county":"Geauga","jurisdiction":"Auburn Township","parcel_id":"01-038900","owner_name":"BODDY MATTHEW J & KRISTIN N","property_address":"18919 RAVENNA RD","property_city":"AUBURN TOWNSHIP","property_zip":"44023"}},{"type":"Feature","geometry":{"type":"Polygon","coordinates":[[[-81.223576985089,41.3536268808844],[-81.2236134160814,41.3536272421331],[-81.2235801594866,41.3543596154628],[-81.2235437281058,41.3543592533034],[-81.2223935311941,41.3543478169203],[-81.2224268762862,41.3536154447604],[-81.223576985089,41.3536268808844]]]},"properties":{"source_county":"Geauga","jurisdiction":"Auburn Township","parcel_id":"01-047050","owner_name":"DAUGHERTY JOSEPH V & ANGELA M","property_address":"18961 RAVENNA RD","property_city":"AUBURN TOWNSHIP","property_zip":"44023"}},{"type":"Feature","geometry":{"type":"Polygon","coordinates":[[[-81.223423800159,41.3578139745442],[-81.2234304394789,41.3578144160937],[-81.2241248387498,41.3578463063],[-81.2239283296454,41.3581765761238],[-81.2234679730354,41.3581759441226],[-81.2234313993438,41.3581762152679],[-81.2234289239947,41.3581524684521],[-81.2234255261477,41.3581014574695],[-81.2234247362617,41.3580503857525],[-81.2234211991348,41.3579321870489],[-81.223423800159,41.3578139745442]]]},"properties":{"source_county":"Geauga","jurisdiction":"Auburn Township","parcel_id":"01-063570","owner_name":"SNOWBIRD REAL ESTATE AND INVESTMENTS LLC & PDLBD PROPERTIES LLC","property_address":"18812 RAVENNA RD","property_city":"AUBURN TOWNSHIP","property_zip":"44023"}},{"type":"Feature","geometry":{"type":"Polygon","coordinates":[[[-81.2160116733155,41.3505409175747],[-81.2179589242592,41.3496306471265],[-81.2217572502363,41.3497628228204],[-81.2221160748174,41.3497709829003],[-81.2221118459502,41.3499449403706],[-81.2221004583924,41.3503928748694],[-81.2237116505921,41.3504149200271],[-81.2237472634926,41.3504154073141],[-81.223742826175,41.3505250596654],[-81.2237076947203,41.3505251324252],[-81.2228482269489,41.3505269205835],[-81.2160116733155,41.3505409175747]]]},"properties":{"source_county":"Geauga","jurisdiction":"Auburn Township","parcel_id":"01-084810","owner_name":"FORD ERIC ROBERT","property_address":" RAVENNA RD","property_city":"AUBURN TOWNSHIP","property_zip":"44023"}},{"type":"Feature","geometry":{"type":"Polygon","coordinates":[[[-81.2237279339039,41.3499612174326],[-81.2237647176441,41.3499615870492],[-81.2237576420424,41.3501589688335],[-81.2237472634926,41.3504154073141],[-81.2237116505921,41.3504149200271],[-81.2221004583924,41.3503928748694],[-81.2221118459502,41.3499449403706],[-81.2237279339039,41.3499612174326]]]},"properties":{"source_county":"Geauga","jurisdiction":"Auburn Township","parcel_id":"01-084821","owner_name":"WEBSTER JOHN & ANN MARIE","property_address":" RAVENNA RD","property_city":"AUBURN TOWNSHIP","property_zip":"44023"}},{"type":"Feature","geometry":{"type":"Polygon","coordinates":[[[-81.2136925144528,41.3547471097188],[-81.2137179074362,41.3538930458526],[-81.2153557983238,41.3539206821641],[-81.2153566119673,41.3539206956979],[-81.2153546065972,41.3539873258104],[-81.2184213390886,41.3540012465851],[-81.2183982304564,41.3547699991666],[-81.2153317939645,41.3547556086772],[-81.2136925144528,41.3547471097188]]]},"properties":{"source_county":"Geauga","jurisdiction":"Auburn Township","parcel_id":"01-087840","owner_name":"KRAVIC ROBERT TOD & DEBORAH TOD","property_address":"18927 RAVENNA RD","property_city":"AUBURN TOWNSHIP","property_zip":"44023"}},{"type":"Feature","geometry":{"type":"Polygon","coordinates":[[[-81.2116649673018,41.3582014934634],[-81.2117319633709,41.3557030093617],[-81.2136694564022,41.3557310261447],[-81.2153084820834,41.3557552918526],[-81.2153139046599,41.355522747407],[-81.2185964717032,41.3555155673993],[-81.2191381618427,41.3555143733177],[-81.2190840509333,41.3567012970923],[-81.2196202822165,41.3567005562487],[-81.2234376481683,41.3566952123045],[-81.2234740984492,41.3566951604394],[-81.2234241777022,41.3577944188192],[-81.2234210165362,41.3579224065498],[-81.2234247362617,41.3580503857525],[-81.2234255261477,41.3581014574695],[-81.2234289239947,41.3581524684521],[-81.2234313993438,41.3581762152679],[-81.2234231625223,41.3581761748545],[-81.2233214584188,41.3581745641131],[-81.2152395632547,41.3581913903507],[-81.2152387122321,41.3581913908105],[-81.2116649673018,41.3582014934634]]]},"properties":{"source_county":"Geauga","jurisdiction":"Auburn Township","parcel_id":"01-088800","owner_name":"CARCIOPPOLO JOSEPH A TRUSTEE","property_address":"18845 RAVENNA RD","property_city":"AUBURN TOWNSHIP","property_zip":"44023"}},{"type":"Feature","geometry":{"type":"Polygon","coordinates":[[[-81.2184213390886,41.3540012465851],[-81.218636123484,41.3539971524444],[-81.2186338908401,41.3540826564666],[-81.2185964717032,41.3555155673993],[-81.2153139046599,41.355522747407],[-81.2153317939645,41.3547556086772],[-81.2183982304564,41.3547699991666],[-81.2184213390886,41.3540012465851]]]},"properties":{"source_county":"Geauga","jurisdiction":"Auburn Township","parcel_id":"01-092840","owner_name":"GIBB KENNETH R & HEATHER M","property_address":"18925 RAVENNA RD","property_city":"AUBURN TOWNSHIP","property_zip":"44023"}},{"type":"Feature","geometry":{"type":"Polygon","coordinates":[[[-81.2190840509333,41.3567012970923],[-81.2191381618427,41.3555143733177],[-81.2234917089919,41.3555047863794],[-81.2235281603671,41.3555047056991],[-81.2235063610132,41.3559847310538],[-81.2234699111264,41.3559847829291],[-81.2211130692502,41.3559880961233],[-81.2211055407692,41.3561527898336],[-81.220690004326,41.3561533694983],[-81.2205172702479,41.3560139419205],[-81.2196514177408,41.3560151439518],[-81.2196202822165,41.3567005562487],[-81.2190840509333,41.3567012970923]]]},"properties":{"source_county":"Geauga","jurisdiction":"Auburn Township","parcel_id":"01-117214","owner_name":"ADLER MALONEY MACHELLE R TOD","property_address":"18891 RAVENNA RD","property_city":"AUBURN TOWNSHIP","property_zip":"44023"}},{"type":"Feature","geometry":{"type":"Polygon","coordinates":[[[-81.2196202822165,41.3567005562487],[-81.2196514177408,41.3560151439518],[-81.2205172702479,41.3560139419205],[-81.220690004326,41.3561533694983],[-81.2211055407692,41.3561527898336],[-81.2210881158397,41.3565339514914],[-81.2234451220068,41.3565306340979],[-81.2234815733913,41.3565305822436],[-81.2234740984492,41.3566951604394],[-81.2234376481683,41.3566952123045],[-81.2196202822165,41.3567005562487]]]},"properties":{"source_county":"Geauga","jurisdiction":"Auburn Township","parcel_id":"01-117648","owner_name":"ROGALSKI JOSEPH A & JUDITH G","property_address":"18861 RAVENNA RD","property_city":"AUBURN TOWNSHIP","property_zip":"44023"}},{"type":"Feature","geometry":{"type":"Polygon","coordinates":[[[-81.2154043687056,41.3522136277108],[-81.2154438994577,41.3508063202913],[-81.2160116733155,41.3505409175747],[-81.2228482269489,41.3505269205835],[-81.2225643352252,41.3518246134228],[-81.222775012429,41.3519673755865],[-81.2228289812447,41.3520008564705],[-81.2228866173361,41.3520306656055],[-81.22294748205,41.3520565761198],[-81.2230111121596,41.3520783908132],[-81.2230770233891,41.3520959436578],[-81.2231447141003,41.3521091010617],[-81.2232136691108,41.352117762886],[-81.2232833636147,41.3521218632069],[-81.2234268615581,41.3521255713805],[-81.2234553653545,41.352124197514],[-81.2234829657128,41.3521186597798],[-81.2235086019068,41.3521091710018],[-81.2235312886971,41.3520960958492],[-81.2235501541962,41.3520799368209],[-81.2235644733765,41.3520613149335],[-81.2235736959339,41.352040945855],[-81.2235774674364,41.3520196123995],[-81.2236498834299,41.35202148449],[-81.2236822301174,41.3520223203012],[-81.2236489239258,41.3528452570559],[-81.223612481691,41.3528451892684],[-81.2235798632874,41.3528450924977],[-81.2154891449734,41.3528208467049],[-81.215389453064,41.3527447325367],[-81.2154043687056,41.3522136277108]]]},"properties":{"source_county":"Geauga","jurisdiction":"Auburn Township","parcel_id":"01-118099","owner_name":"SIRNA CRAIG R & ANNE MARIE","property_address":"19009 RAVENNA RD","property_city":"AUBURN TOWNSHIP","property_zip":"44023"}},{"type":"Feature","geometry":{"type":"Polygon","coordinates":[[[-81.222775012429,41.3519673755865],[-81.2225643352252,41.3518246134228],[-81.2226183019341,41.3518580945068],[-81.2226759358839,41.3518879040346],[-81.2227367984524,41.351913815139],[-81.2228004264443,41.3519356306219],[-81.2228663356161,41.3519531844548],[-81.222934024362,41.3519663430429],[-81.2230029775315,41.3519750062415],[-81.2230726703504,41.3519791081186],[-81.2234330897501,41.3519884225664],[-81.2234615936581,41.3519870488678],[-81.2234891941612,41.3519815112478],[-81.2235148305145,41.3519720225287],[-81.2235375174608,41.3519589473818],[-81.2235563830956,41.3519427883119],[-81.2235707023773,41.351924166345],[-81.2235799249912,41.3519037971606],[-81.2235836964989,41.3518824635868],[-81.223656111164,41.3518843347599],[-81.2236877816618,41.3518851541078],[-81.2236822301174,41.3520223203012],[-81.2236498834299,41.35202148449],[-81.2235774674364,41.3520196123995],[-81.2235736959339,41.352040945855],[-81.2235644733765,41.3520613149335],[-81.2235501541962,41.3520799368209],[-81.2235312886971,41.3520960958492],[-81.2235086019068,41.3521091710018],[-81.2234829657128,41.3521186597798],[-81.2234553653545,41.352124197514],[-81.2234268615581,41.3521255713805],[-81.2232833636147,41.3521218632069],[-81.2232136691108,41.352117762886],[-81.2231447141003,41.3521091010617],[-81.2230770233891,41.3520959436578],[-81.2230111121596,41.3520783908132],[-81.22294748205,41.3520565761198],[-81.2228866173361,41.3520306656055],[-81.2228289812447,41.3520008564705],[-81.222775012429,41.3519673755865]]]},"properties":{"source_county":"Geauga","jurisdiction":"Auburn Township","parcel_id":"01-118174","owner_name":"SIRNA CRAIG R & ANNE MARIE","property_address":" RAVENNA RD","property_city":"AUBURN TOWNSHIP","property_zip":"44023"}},{"type":"Feature","geometry":{"type":"Polygon","coordinates":[[[-81.2136925144528,41.3547471097188],[-81.2153317939645,41.3547556086772],[-81.2153139046599,41.355522747407],[-81.2153084820834,41.3557552918526],[-81.2136694564022,41.3557310261447],[-81.2136925144528,41.3547471097188]]]},"properties":{"source_county":"Geauga","jurisdiction":"Auburn Township","parcel_id":"01-118232","owner_name":"KRAVIC ROBERT TOD & DEBORAH TOD","property_address":" RAVENNA RD","property_city":"AUBURN TOWNSHIP","property_zip":"44023"}},{"type":"Feature","geometry":{"type":"Polygon","coordinates":[[[-81.2186632628725,41.3529578481916],[-81.2187721955452,41.3529582913767],[-81.218673379215,41.3539977044864],[-81.218636123484,41.3539971524444],[-81.2186632628725,41.3529578481916]]]},"properties":{"source_county":"Geauga","jurisdiction":"Auburn Township","parcel_id":"01-118284","owner_name":"RETYCH RONALD C & THOMPSON SUSAN P","property_address":" RAVENNA RD","property_city":"AUBURN TOWNSHIP","property_zip":"44023"}},{"type":"Feature","geometry":{"type":"Polygon","coordinates":[[[-81.2242902481819,41.3620898099926],[-81.2256122322123,41.3620838097128],[-81.2256209197604,41.3635058384617],[-81.2256209206486,41.3635059159184],[-81.2245778301178,41.3635106546122],[-81.2245412818158,41.3635108201557],[-81.2245335004154,41.3634351364549],[-81.2245232968647,41.3633596162762],[-81.2245106771155,41.3632843036107],[-81.2244956485274,41.3632092423291],[-81.2242531722968,41.362089977727],[-81.2242902481819,41.3620898099926]]]},"properties":{"source_county":"Geauga","jurisdiction":"Auburn Township","parcel_id":"01-118775","owner_name":"KAMINSKI JOHN F & ADAMIC LYNN","property_address":"11595 BARTHOLOMEW RD","property_city":"AUBURN TOWNSHIP","property_zip":"44023"}},{"type":"Feature","geometry":{"type":"Polygon","coordinates":[[[-81.2249862522594,41.3599306450106],[-81.224841081568,41.3615003553443],[-81.22416235976,41.3614993396194],[-81.2241252084581,41.361499284043],[-81.2238095424097,41.3600420968283],[-81.2238457913423,41.3600376758544],[-81.2239171004634,41.3600289891696],[-81.2239157708874,41.3600128795255],[-81.2239186382756,41.3599968839958],[-81.223925592433,41.3599816172803],[-81.2239363661122,41.3599676660708],[-81.2239505452847,41.359955566504],[-81.2239675850515,41.3599457835594],[-81.2239868305837,41.3599386931895],[-81.224007542287,41.3599345678727],[-81.2240684017767,41.3599281061373],[-81.2241295589892,41.359923509107],[-81.2241909133182,41.3599207843442],[-81.224252363833,41.3599199363312],[-81.224616643998,41.3599204754935],[-81.2248015646649,41.3599231558511],[-81.2249862522594,41.3599306450106]]]},"properties":{"source_county":"Geauga","jurisdiction":"Auburn Township","parcel_id":"01-118789","owner_name":"LYNCH CHRISTOPHER S & POGORELEC ELANNA N","property_address":"11600 FROSTWOOD DR","property_city":"AUBURN TOWNSHIP","property_zip":"44023"}},{"type":"Feature","geometry":{"type":"Polygon","coordinates":[[[-81.2238473347627,41.3597038619629],[-81.2237753934965,41.3597126199794],[-81.2237391279909,41.3597170416475],[-81.223497209475,41.3586002324872],[-81.2234890268136,41.3585624561471],[-81.2234704598051,41.3584662709178],[-81.2234546591273,41.3583698055444],[-81.2234416321649,41.3582731051856],[-81.223431385004,41.3581762151097],[-81.2234679730354,41.3581759441226],[-81.2239283296454,41.3581765761238],[-81.2245814057782,41.3581775784747],[-81.2245814039302,41.3581780431366],[-81.2245770019038,41.3597557420476],[-81.2242527941434,41.3597552616875],[-81.2241824800802,41.3597562322653],[-81.2241122760785,41.3597593501591],[-81.2240422976119,41.3597646102406],[-81.223972659783,41.3597720038577],[-81.2239512775719,41.3597730055481],[-81.2239300468342,41.3597708451309],[-81.2239097834442,41.3597656056287],[-81.2238912661011,41.3597574883896],[-81.2238752064053,41.3597468053502],[-81.2238622215114,41.3597339670477],[-81.2238528104122,41.3597194668433],[-81.2238473347627,41.3597038619629]]]},"properties":{"source_county":"Geauga","jurisdiction":"Auburn Township","parcel_id":"01-118790","owner_name":"MASETTA LAURA & MASETTA SNELSON AUDRA","property_address":"11595 FROSTWOOD DR","property_city":"AUBURN TOWNSHIP","property_zip":"44023"}},{"type":"Feature","geometry":{"type":"Polygon","coordinates":[[[-81.2245770019038,41.3597557420476],[-81.2245814039302,41.3581780431366],[-81.2245814057782,41.3581775784747],[-81.2255760026738,41.3581790284305],[-81.2255759351535,41.3581794284305],[-81.2253053848763,41.3597889701675],[-81.2251239234075,41.3597739732802],[-81.2249419107169,41.359763429652],[-81.2247595392681,41.3597573504317],[-81.2245770019038,41.3597557420476]]]},"properties":{"source_county":"Geauga","jurisdiction":"Auburn Township","parcel_id":"01-118876","owner_name":"CLARK MARTIN D & CHRISTINE W","property_address":"11585 FROSTWOOD DR","property_city":"AUBURN TOWNSHIP","property_zip":"44023"}},{"type":"Feature","geometry":{"type":"Polygon","coordinates":[[[-81.2236068682227,41.352968795185],[-81.223643310316,41.3529688737785],[-81.2236134160814,41.3536272421331],[-81.223576985089,41.3536268808844],[-81.2224268762862,41.3536154447604],[-81.2224281709662,41.3535870278342],[-81.2210086218719,41.3532450329777],[-81.2210214598155,41.3529632039948],[-81.2236068682227,41.352968795185]]]},"properties":{"source_county":"Geauga","jurisdiction":"Auburn Township","parcel_id":"01-118879","owner_name":"BELLAR JAMES E & BARRETT APRIL E","property_address":"18979 RAVENNA RD","property_city":"AUBURN TOWNSHIP","property_zip":"44023"}},{"type":"Feature","geometry":{"type":"Polygon","coordinates":[[[-81.2189373023104,41.3743920461992],[-81.2189756922533,41.3743939451695],[-81.2189638274684,41.3744155386143],[-81.2187461641573,41.3748114487584],[-81.216815188858,41.3753889297283],[-81.2167999897443,41.3753628630159],[-81.2167812874827,41.3753381225421],[-81.2167592833206,41.3753149745239],[-81.2167342140343,41.3752936680428],[-81.2167063493811,41.3752744323638],[-81.2166759891966,41.3752574744698],[-81.2166434601685,41.3752429768335],[-81.2166091123214,41.3752310954542],[-81.2170456907769,41.3744076711062],[-81.2189373023104,41.3743920461992]]]},"properties":{"source_county":"Geauga","jurisdiction":"Auburn Township","parcel_id":"01-119042","owner_name":"SURI BROOK & HALE DAVID R","property_address":"18180 SEDGE CT","property_city":"AUBURN TOWNSHIP","property_zip":"44023"}},{"type":"Feature","geometry":{"type":"Polygon","coordinates":[[[-81.222281618251,41.354394622157],[-81.2218109108344,41.3540895763787],[-81.2186338908401,41.3540826564666],[-81.218636123484,41.3539971524444],[-81.218673379215,41.3539977044864],[-81.2187721955452,41.3529582913767],[-81.2210214598155,41.3529632039948],[-81.2210086218719,41.3532450329777],[-81.2224281709662,41.3535870278342],[-81.2224268762862,41.3536154447604],[-81.2223935311941,41.3543478169203],[-81.2235437281058,41.3543592533034],[-81.2235801594866,41.3543596154628],[-81.2235779838135,41.3544075078354],[-81.2235415535837,41.3544071465889],[-81.222281618251,41.354394622157]]]},"properties":{"source_county":"Geauga","jurisdiction":"Auburn Township","parcel_id":"01-119129","owner_name":"BELLAR JAMES E & BARRETT APRIL E","property_address":" RAVENNA RD","property_city":"AUBURN TOWNSHIP","property_zip":"44023"}},{"type":"Feature","geometry":{"type":"Polygon","coordinates":[[[-81.2150742069847,41.3717349930079],[-81.2150184321658,41.3744243811535],[-81.2144074335101,41.3744294114863],[-81.2137946471658,41.3744344520558],[-81.213401272807,41.3744376863164],[-81.212166597771,41.3744478297242],[-81.2114633562871,41.3744536006038],[-81.2096467401448,41.3744511359236],[-81.2067601062694,41.3744625581331],[-81.2068100090955,41.3717731487638],[-81.2150742069847,41.3717349930079]]]},"properties":{"source_county":"Geauga","jurisdiction":"Auburn Township","parcel_id":"01-708906","owner_name":"CITY OF AKRON OHIO THE","property_address":" SHAW RD","property_city":"AUBURN TOWNSHIP","property_zip":"44023"}},{"type":"Feature","geometry":{"type":"Polygon","coordinates":[[[-81.2234738020739,41.3707318212972],[-81.2234841565346,41.3707135850788],[-81.2234736832598,41.3707136343956],[-81.2210310060662,41.3707250205976],[-81.2209923370664,41.3707230714721],[-81.2220153695099,41.3688991519073],[-81.2220575741954,41.3688952303582],[-81.2233740644018,41.3688843575638],[-81.2234618474479,41.3688836325467],[-81.2314960213603,41.3688169503376],[-81.231453222044,41.3710149479645],[-81.2234757225993,41.3710288221578],[-81.2233049898641,41.3710291133782],[-81.2234738020739,41.3707318212972]]]},"properties":{"source_county":"Geauga","jurisdiction":"Auburn Township","parcel_id":"01-708928","owner_name":"CITY OF AKRON","property_address":"18408 RAVENNA RD","property_city":"AUBURN TOWNSHIP","property_zip":"44023"}},{"type":"Feature","geometry":{"type":"Polygon","coordinates":[[[-81.2234757225993,41.3710288221578],[-81.231453222044,41.3710149479645],[-81.231426828028,41.37237032427],[-81.2234810703807,41.3718555464073],[-81.2205155072608,41.3716632762213],[-81.2204772103482,41.3716607934173],[-81.2208183112822,41.3710398658842],[-81.2208581192055,41.3710396942595],[-81.2233049898641,41.3710291133782],[-81.2234757225993,41.3710288221578]]]},"properties":{"source_county":"Geauga","jurisdiction":"Auburn Township","parcel_id":"01-708929","owner_name":"CITY OF AKRON","property_address":" RAVENNA RD","property_city":"AUBURN TOWNSHIP","property_zip":"44023"}},{"type":"Feature","geometry":{"type":"Polygon","coordinates":[[[-81.2070793333933,41.3582309877504],[-81.2071978340816,41.3528091735239],[-81.2153873317369,41.3528205379846],[-81.2153838770289,41.3529440082379],[-81.2153566119673,41.3539206956979],[-81.2153557983238,41.3539206821641],[-81.2137179074362,41.3538930458526],[-81.2136925144528,41.3547471097188],[-81.2136694564022,41.3557310261447],[-81.2117319633709,41.3557030093617],[-81.2116649673018,41.3582014934634],[-81.2070793333933,41.3582309877504]]]},"properties":{"source_county":"Geauga","jurisdiction":"Auburn Township","parcel_id":"01-708932","owner_name":"CITY OF AKRON OHIO THE","property_address":" RAVENNA RD","property_city":"AUBURN TOWNSHIP","property_zip":"44023"}},{"type":"Feature","geometry":{"type":"Polygon","coordinates":[[[-81.2197109254197,41.3667182929505],[-81.219855290221,41.3659773128536],[-81.2208012895012,41.366057822019],[-81.2207820775795,41.3661783206796],[-81.2214559827334,41.3662348085242],[-81.2219055919607,41.3662309579949],[-81.2223337239111,41.366307489114],[-81.2224038685429,41.3664267255419],[-81.2231459721616,41.3669263130099],[-81.222407542119,41.3682151661441],[-81.2195891659063,41.3673432389264],[-81.2197109254197,41.3667182929505]]]},"properties":{"source_county":"Geauga","jurisdiction":"Auburn Township","parcel_id":"01-708944","owner_name":"CITY OF AKRON OHIO THE","property_address":" RAVENNA RD","property_city":"AUBURN TOWNSHIP","property_zip":"44023"}},{"type":"Feature","geometry":{"type":"Polygon","coordinates":[[[-81.215170532044,41.3670873038072],[-81.2197109254197,41.3667182929505],[-81.2195891659063,41.3673432389264],[-81.222407542119,41.3682151661441],[-81.2220153695099,41.3688991519073],[-81.2210853699885,41.3705543123615],[-81.2150980965957,41.3705824158759],[-81.2068313939242,41.3706205437552],[-81.2068611825199,41.3690150318234],[-81.2068854579402,41.3677065500772],[-81.2151584180588,41.3676718860003],[-81.215170532044,41.3670873038072]]]},"properties":{"source_county":"Geauga","jurisdiction":"Auburn Township","parcel_id":"01-708955","owner_name":"CITY OF AKRON OHIO THE","property_address":" RAVENNA RD","property_city":"AUBURN TOWNSHIP","property_zip":"44023"}},{"type":"Feature","geometry":{"type":"Polygon","coordinates":[[[-81.2069034089957,41.3667390184828],[-81.2068854579402,41.3677065500772],[-81.2068611825199,41.3690150318234],[-81.2060596284477,41.3690202086514],[-81.2052977166009,41.369025123563],[-81.2069034089957,41.3667390184828]]]},"properties":{"source_county":"Geauga","jurisdiction":"Auburn Township","parcel_id":"01-708959","owner_name":"CITY OF AKRON OHIO THE","property_address":" SHAW RD","property_city":"AUBURN TOWNSHIP","property_zip":"44023"}},{"type":"Feature","geometry":{"type":"Polygon","coordinates":[[[-81.2068611825199,41.3690150318234],[-81.2068313939242,41.3706205437552],[-81.2068100090955,41.3717731487638],[-81.2060084486658,41.3717768180235],[-81.2060596284477,41.3690202086514],[-81.2068611825199,41.3690150318234]]]},"properties":{"source_county":"Geauga","jurisdiction":"Auburn Township","parcel_id":"01-708960","owner_name":"CITY OF AKRON 81","property_address":" SHAW RD","property_city":"AUBURN TOWNSHIP","property_zip":"44023"}},{"type":"Feature","geometry":{"type":"Polygon","coordinates":[[[-81.2234608687721,41.3586011726188],[-81.223497209475,41.3586002324872],[-81.2237391279909,41.3597170416475],[-81.2238095424097,41.3600420968283],[-81.2239775599052,41.3608177141776],[-81.2239409692099,41.3608179853124],[-81.2234154644312,41.3608218807713],[-81.2152163011947,41.3608823538454],[-81.207020069484,41.3609421782301],[-81.2070536483222,41.3594060549905],[-81.2152253386861,41.3593665723895],[-81.2152297639229,41.3586168177539],[-81.2234218567607,41.3586012475693],[-81.2234608687721,41.3586011726188]]]},"properties":{"source_county":"Geauga","jurisdiction":"Auburn Township","parcel_id":"01-708962","owner_name":"CITY OF AKRON OHIO THE","property_address":"18753 RAVENNA RD","property_city":"AUBURN TOWNSHIP","property_zip":"44023"}},{"type":"Feature","geometry":{"type":"Polygon","coordinates":[[[-81.2068100090955,41.3717731487638],[-81.2067601062694,41.3744625581331],[-81.2059585227599,41.3744657327536],[-81.2060084486658,41.3717768180235],[-81.2068100090955,41.3717731487638]]]},"properties":{"source_county":"Geauga","jurisdiction":"Auburn Township","parcel_id":"01-708973","owner_name":"CITY OF AKRON OHIO THE","property_address":" SHAW RD","property_city":"AUBURN TOWNSHIP","property_zip":"44023"}},{"type":"Feature","geometry":{"type":"Polygon","coordinates":[[[-81.2150980965957,41.3705824158759],[-81.2150742069847,41.3717349930079],[-81.2068100090955,41.3717731487638],[-81.2068313939242,41.3706205437552],[-81.2150980965957,41.3705824158759]]]},"properties":{"source_county":"Geauga","jurisdiction":"Auburn Township","parcel_id":"01-708974","owner_name":"CITY OF AKRON OHIO THE","property_address":" SHAW RD","property_city":"AUBURN TOWNSHIP","property_zip":"44023"}},{"type":"Feature","geometry":{"type":"Polygon","coordinates":[[[-81.2210853699885,41.3705543123615],[-81.2209923370664,41.3707230714721],[-81.2189756922533,41.3743939451695],[-81.2189373023104,41.3743920461992],[-81.2170456907769,41.3744076711062],[-81.2154976479222,41.374420435017],[-81.2150184321658,41.3744243811535],[-81.2150742069847,41.3717349930079],[-81.2150980965957,41.3705824158759],[-81.2210853699885,41.3705543123615]]]},"properties":{"source_county":"Geauga","jurisdiction":"Auburn Township","parcel_id":"01-708975","owner_name":"CITY OF AKRON OHIO THE","property_address":" RAVENNA RD","property_city":"AUBURN TOWNSHIP","property_zip":"44023"}},{"type":"Feature","geometry":{"type":"Polygon","coordinates":[[[-81.2207820775795,41.3661783206796],[-81.2208012895012,41.366057822019],[-81.2235110454138,41.3662890951044],[-81.2234458013798,41.3664027701207],[-81.2231459721616,41.3669263130099],[-81.2224038685429,41.3664267255419],[-81.2223337239111,41.366307489114],[-81.2219055919607,41.3662309579949],[-81.2214559827334,41.3662348085242],[-81.2207820775795,41.3661783206796]]]},"properties":{"source_county":"Geauga","jurisdiction":"Auburn Township","parcel_id":"01-708976","owner_name":"CITY OF AKRON OHIO THE","property_address":" RAVENNA RD","property_city":"AUBURN TOWNSHIP","property_zip":"44023"}},{"type":"Feature","geometry":{"type":"Polygon","coordinates":[[[-81.2010475146075,41.3569689358563],[-81.2030525284497,41.3569592396801],[-81.2030245521645,41.3582632907931],[-81.2010194985283,41.358272986481],[-81.2010475146075,41.3569689358563]]]},"properties":{"source_county":"Geauga","jurisdiction":"Auburn Township","parcel_id":"01-708980","owner_name":"CITY OF AKRON","property_address":" SHAW RD","property_city":"AUBURN TOWNSHIP","property_zip":"44023"}},{"type":"Feature","geometry":{"type":"Polygon","coordinates":[[[-81.2234736832598,41.3707136343956],[-81.2234841565346,41.3707135850788],[-81.2234738020739,41.3707318212972],[-81.2233049898641,41.3710291133782],[-81.2208581192055,41.3710396942595],[-81.2208183112822,41.3710398658842],[-81.2209923370664,41.3707230714721],[-81.2210310060662,41.3707250205976],[-81.2234736832598,41.3707136343956]]]},"properties":{"source_county":"Geauga","jurisdiction":"Auburn Township","parcel_id":"01-709010","owner_name":"CITY OF AKRON","property_address":" RAVENNA RD","property_city":"AUBURN TOWNSHIP","property_zip":"44023"}},{"type":"Feature","geometry":{"type":"Polygon","coordinates":[[[-81.203200165998,41.3494409985128],[-81.207272467793,41.3493939238718],[-81.207255651518,41.3501634709139],[-81.2071978340816,41.3528091735239],[-81.2031569183209,41.3528034192769],[-81.203200165998,41.3494409985128]]]},"properties":{"source_county":"Geauga","jurisdiction":"Auburn Township","parcel_id":"01-709014","owner_name":"CITY OF AKRON THE","property_address":" FOX RD","property_city":"AUBURN TOWNSHIP","property_zip":"44023"}},{"type":"Feature","geometry":{"type":"Polygon","coordinates":[[[-81.2010194985283,41.358272986481],[-81.2030245521645,41.3582632907931],[-81.2029192259973,41.3636542845875],[-81.2009139415605,41.3636673907744],[-81.2010194985283,41.358272986481]]]},"properties":{"source_county":"Geauga","jurisdiction":"Auburn Township","parcel_id":"01-709015","owner_name":"CITY OF AKRON THE","property_address":" SHAW RD","property_city":"AUBURN TOWNSHIP","property_zip":"44023"}},{"type":"Feature","geometry":{"type":"Polygon","coordinates":[[[-81.223612481691,41.3528451892684],[-81.2236489239258,41.3528452570559],[-81.223643310316,41.3529688737785],[-81.2236068682227,41.352968795185],[-81.2210214598155,41.3529632039948],[-81.2187721955452,41.3529582913767],[-81.2186632628725,41.3529578481916],[-81.2153838770289,41.3529440082379],[-81.2153873317369,41.3528205379846],[-81.2154891449734,41.3528208467049],[-81.2235798632874,41.3528450924977],[-81.223612481691,41.3528451892684]]]},"properties":{"source_county":"Geauga","jurisdiction":"Auburn Township","parcel_id":"01-709016","owner_name":"CITY OF AKRON THE","property_address":" RAVENNA RD","property_city":"AUBURN TOWNSHIP","property_zip":"44023"}},{"type":"Feature","geometry":{"type":"Polygon","coordinates":[[[-81.2069034089957,41.3667390184828],[-81.206961360812,41.3636277604993],[-81.207020069484,41.3609421782301],[-81.2152163011947,41.3608823538454],[-81.2234154644312,41.3608218807713],[-81.2239409692099,41.3608179853124],[-81.2239775599052,41.3608177141776],[-81.2244956485274,41.3632092423291],[-81.224514894305,41.363307897298],[-81.2245299793735,41.363406962314],[-81.2245408885517,41.3635063378042],[-81.2245476108554,41.3636059238834],[-81.2245501395088,41.3637056204539],[-81.2245484719512,41.3638053273068],[-81.2245426098396,41.3639049442223],[-81.2245325590472,41.3640043710707],[-81.2245183296576,41.3641035079125],[-81.2244999359548,41.3642022550997],[-81.2244773964086,41.3643005133754],[-81.2244507336566,41.3643981839736],[-81.2244199744811,41.3644951687185],[-81.2243851497823,41.3645913701237],[-81.2243462945477,41.3646866914892],[-81.2243034478164,41.3647810369996],[-81.2241857934797,41.3650261438741],[-81.2240653226151,41.3652704731181],[-81.2239420442469,41.3655140063663],[-81.2238159676104,41.3657567253127],[-81.2235110454138,41.3662890951044],[-81.2208012895012,41.366057822019],[-81.219855290221,41.3659773128536],[-81.2197109254197,41.3667182929505],[-81.215170532044,41.3670873038072],[-81.2151584180588,41.3676718860003],[-81.2068854579402,41.3677065500772],[-81.2069034089957,41.3667390184828]]]},"properties":{"source_county":"Geauga","jurisdiction":"Auburn Township","parcel_id":"01-709017","owner_name":"CITY OF AKRON OHIO THE","property_address":"18661 RAVENNA RD","property_city":"AUBURN TOWNSHIP","property_zip":"44023"}},{"type":"Feature","geometry":{"type":"Polygon","coordinates":[[[-81.1989323389527,41.3577205587573],[-81.1989694709043,41.3563346233503],[-81.1989817374237,41.3558767542429],[-81.1989927122862,41.3554670906012],[-81.1990064992042,41.3549524550897],[-81.1990207257955,41.3544213965839],[-81.1990561582386,41.3528126334567],[-81.2031569183209,41.3528034192769],[-81.2071978340816,41.3528091735239],[-81.2070793333933,41.3582309877504],[-81.2030245521645,41.3582632907931],[-81.2030525284497,41.3569592396801],[-81.2010475146075,41.3569689358563],[-81.2010194985283,41.358272986481],[-81.1989172664266,41.3582831590052],[-81.1989323389527,41.3577205587573]]]},"properties":{"source_county":"Geauga","jurisdiction":"Auburn Township","parcel_id":"01-709018","owner_name":"CITY OF AKRON THE","property_address":" SHAW RD","property_city":"AUBURN TOWNSHIP","property_zip":"44023"}},{"type":"Feature","geometry":{"type":"Polygon","coordinates":[[[-81.2233949790168,41.3581757289317],[-81.2234231625223,41.3581761748545],[-81.2234313718591,41.3581762149648],[-81.2234416247506,41.3582731049768],[-81.22345465581,41.3583698053031],[-81.2234704589568,41.3584662707284],[-81.2234890268136,41.3585624561471],[-81.223497209475,41.3586002324872],[-81.2234608687721,41.3586011726188],[-81.2234218567607,41.3586012475693],[-81.2152297639229,41.3586168177539],[-81.2152253386861,41.3593665723895],[-81.2070536483222,41.3594060549905],[-81.207020069484,41.3609421782301],[-81.206961360812,41.3636277604993],[-81.2029192259973,41.3636542845875],[-81.2030245521645,41.3582632907931],[-81.2070793333933,41.3582309877504],[-81.2116649673018,41.3582014934634],[-81.2152387122321,41.3581913908105],[-81.2152395632547,41.3581913903507],[-81.2233214584188,41.3581745641131],[-81.2233949790168,41.3581757289317]]]},"properties":{"source_county":"Geauga","jurisdiction":"Auburn Township","parcel_id":"01-709019","owner_name":"CITY OF AKRON OHIO THE","property_address":" RAVENNA RD","property_city":"AUBURN TOWNSHIP","property_zip":"44023"}},{"type":"Feature","geometry":{"type":"Polygon","coordinates":[[[-81.208823352673,41.3501657271916],[-81.2154616209348,41.3501748538873],[-81.2154043687056,41.3522136277108],[-81.215389453064,41.3527447325367],[-81.2153873317369,41.3528205379846],[-81.2071978340816,41.3528091735239],[-81.207255651518,41.3501634709139],[-81.208823352673,41.3501657271916]]]},"properties":{"source_county":"Geauga","jurisdiction":"Auburn Township","parcel_id":"01-709021","owner_name":"CITY OF AKRON THE","property_address":" RAVENNA RD","property_city":"AUBURN TOWNSHIP","property_zip":"44023"}},{"type":"Feature","geometry":{"type":"Polygon","coordinates":[[[-81.2153873317369,41.3528205379846],[-81.215389453064,41.3527447325367],[-81.2154891449734,41.3528208467049],[-81.2153873317369,41.3528205379846]]]},"properties":{"source_county":"Geauga","jurisdiction":"Auburn Township","parcel_id":"01-709028","owner_name":"CITY OF AKRON THE","property_address":" RAVENNA RD","property_city":"AUBURN TOWNSHIP","property_zip":"44023"}},{"type":"Feature","geometry":{"type":"Polygon","coordinates":[[[-81.2225643352268,41.3518246134257],[-81.2228482269505,41.3505269205863],[-81.223707694722,41.350525132428],[-81.2237428261767,41.3505250596683],[-81.2236877816809,41.3518851532102],[-81.2236561111657,41.3518843347628],[-81.2235836965005,41.3518824635896],[-81.2235811230974,41.3518995817],[-81.2235750274439,41.3519161856919],[-81.2235655596426,41.3519318666932],[-81.2235529528353,41.3519462385597],[-81.2235375174624,41.3519589473847],[-81.2235196336183,41.3519696802136],[-81.2234997416916,41.3519781727503],[-81.2234783315205,41.3519842158662],[-81.2234559303306,41.3519876607493],[-81.2234330897517,41.3519884225693],[-81.2230726703521,41.3519791081214],[-81.2229930694765,41.3519740467456],[-81.2229145329565,41.3519630384185],[-81.2228378413214,41.351946192546],[-81.2227637567641,41.3519236765494],[-81.2226930155653,41.3518957142021],[-81.2226263207753,41.3518625834052],[-81.2225643352268,41.3518246134257]]]},"properties":{"source_county":"Geauga","jurisdiction":"Auburn Township","parcel_id":"01-006630","owner_name":"SIRNA CRAIG R & ANNE MARIE","property_address":"19029 RAVENNA RD","property_city":"AUBURN TOWNSHIP","property_zip":"44023"}},{"type":"Feature","geometry":{"type":"Polygon","coordinates":[[[-81.2234699111281,41.355984782932],[-81.2235063610149,41.3559847310567],[-81.223481573393,41.3565305822464],[-81.2234451220085,41.3565306341007],[-81.2210881158414,41.3565339514943],[-81.2211055407709,41.3561527898364],[-81.2211130692519,41.3559880961261],[-81.2234699111281,41.355984782932]]]},"properties":{"source_county":"Geauga","jurisdiction":"Auburn Township","parcel_id":"01-007000","owner_name":"TURNER THERESA A","property_address":"18865 RAVENNA RD","property_city":"AUBURN TOWNSHIP","property_zip":"44023"}},{"type":"Feature","geometry":{"type":"Polygon","coordinates":[[[-81.2189756922549,41.3743939451724],[-81.2204772103498,41.3716607934202],[-81.2205155072625,41.3716632762241],[-81.2234810703823,41.3718555464102],[-81.2314268280296,41.3723703242729],[-81.2314178667815,41.3728304745154],[-81.2313906469182,41.3742282287462],[-81.2283820191417,41.3742757572956],[-81.2271663740983,41.3743124024637],[-81.2266197479968,41.3743288763452],[-81.2259687788697,41.3743484914624],[-81.2248707940985,41.3743815668461],[-81.223978087215,41.3743870342622],[-81.2230853801831,41.3743924947953],[-81.2221926730028,41.3743979484456],[-81.2213983461633,41.3744027959285],[-81.2206768934986,41.374407193291],[-81.2190022471853,41.3744173829746],[-81.2189638274701,41.3744155386171],[-81.2189756922549,41.3743939451724]]]},"properties":{"source_county":"Geauga","jurisdiction":"Auburn Township","parcel_id":"01-027200","owner_name":"TWO FISH REAL ESTATE LLC","property_address":"18268 RAVENNA RD","property_city":"AUBURN TOWNSHIP","property_zip":"44023"}},{"type":"Feature","geometry":{"type":"Polygon","coordinates":[[[-81.2153838770305,41.3529440082408],[-81.2186632628741,41.3529578481944],[-81.2186361234857,41.3539971524472],[-81.2184213390903,41.354001246588],[-81.2153546065988,41.3539873258132],[-81.215356611969,41.3539206957007],[-81.2153838770305,41.3529440082408]]]},"properties":{"source_county":"Geauga","jurisdiction":"Auburn Township","parcel_id":"01-028410","owner_name":"KAVALECZ SARAH M","property_address":"18929 RAVENNA RD","property_city":"AUBURN TOWNSHIP","property_zip":"44023"}},{"type":"Feature","geometry":{"type":"Polygon","coordinates":[[[-81.2185964717048,41.3555155674021],[-81.2186338908419,41.3540826564695],[-81.2218109108361,41.3540895763815],[-81.2222816182527,41.3543946221598],[-81.2235415535854,41.3544071465917],[-81.2235779838152,41.3544075078383],[-81.2235281603688,41.3555047057019],[-81.2234917089936,41.3555047863823],[-81.2191381618444,41.3555143733205],[-81.2185964717048,41.3555155674021]]]},"properties":{"source_county":"Geauga","jurisdiction":"Auburn Township","parcel_id":"01-038900","owner_name":"BODDY MATTHEW J & KRISTIN N","property_address":"18919 RAVENNA RD","property_city":"AUBURN TOWNSHIP","property_zip":"44023"}},{"type":"Feature","geometry":{"type":"Polygon","coordinates":[[[-81.2235769850907,41.3536268808873],[-81.2236134160831,41.3536272421359],[-81.2235801594883,41.3543596154656],[-81.2235437281075,41.3543592533062],[-81.2223935311957,41.3543478169232],[-81.2224268762879,41.3536154447632],[-81.2235769850907,41.3536268808873]]]},"properties":{"source_county":"Geauga","jurisdiction":"Auburn Township","parcel_id":"01-047050","owner_name":"DAUGHERTY JOSEPH V & ANGELA M","property_address":"18961 RAVENNA RD","property_city":"AUBURN TOWNSHIP","property_zip":"44023"}},{"type":"Feature","geometry":{"type":"Polygon","coordinates":[[[-81.2234238001607,41.3578139745471],[-81.2234304394807,41.3578144160966],[-81.2241248387514,41.3578463063028],[-81.2239283296471,41.3581765761267],[-81.223467973037,41.3581759441255],[-81.2234313993455,41.3581762152707],[-81.2234289239964,41.3581524684549],[-81.2234255261494,41.3581014574724],[-81.2234247362633,41.3580503857554],[-81.2234211991364,41.3579321870517],[-81.2234238001607,41.3578139745471]]]},"properties":{"source_county":"Geauga","jurisdiction":"Auburn Township","parcel_id":"01-063570","owner_name":"SNOWBIRD REAL ESTATE AND INVESTMENTS LLC & PDLBD PROPERTIES LLC","property_address":"18812 RAVENNA RD","property_city":"AUBURN TOWNSHIP","property_zip":"44023"}},{"type":"Feature","geometry":{"type":"Polygon","coordinates":[[[-81.2160116733171,41.3505409175775],[-81.2179589242608,41.3496306471293],[-81.2217572502379,41.3497628228232],[-81.2221160748191,41.3497709829031],[-81.2221118459519,41.3499449403735],[-81.2221004583941,41.3503928748722],[-81.2237116505938,41.3504149200299],[-81.2237472634943,41.3504154073169],[-81.2237428261767,41.3505250596683],[-81.223707694722,41.350525132428],[-81.2228482269505,41.3505269205863],[-81.2160116733171,41.3505409175775]]]},"properties":{"source_county":"Geauga","jurisdiction":"Auburn Township","parcel_id":"01-084810","owner_name":"FORD ERIC ROBERT","property_address":" RAVENNA RD","property_city":"AUBURN TOWNSHIP","property_zip":"44023"}},{"type":"Feature","geometry":{"type":"Polygon","coordinates":[[[-81.2237279339056,41.3499612174355],[-81.2237647176458,41.3499615870521],[-81.2237576420441,41.3501589688363],[-81.2237472634943,41.3504154073169],[-81.2237116505938,41.3504149200299],[-81.2221004583941,41.3503928748722],[-81.2221118459519,41.3499449403735],[-81.2237279339056,41.3499612174355]]]},"properties":{"source_county":"Geauga","jurisdiction":"Auburn Township","parcel_id":"01-084821","owner_name":"WEBSTER JOHN & ANN MARIE","property_address":" RAVENNA RD","property_city":"AUBURN TOWNSHIP","property_zip":"44023"}},{"type":"Feature","geometry":{"type":"Polygon","coordinates":[[[-81.2136925144545,41.3547471097217],[-81.2137179074378,41.3538930458555],[-81.2153557983255,41.3539206821669],[-81.215356611969,41.3539206957007],[-81.2153546065988,41.3539873258132],[-81.2184213390903,41.354001246588],[-81.218398230458,41.3547699991695],[-81.2153317939661,41.35475560868],[-81.2136925144545,41.3547471097217]]]},"properties":{"source_county":"Geauga","jurisdiction":"Auburn Township","parcel_id":"01-087840","owner_name":"KRAVIC ROBERT TOD & DEBORAH TOD","property_address":"18927 RAVENNA RD","property_city":"AUBURN TOWNSHIP","property_zip":"44023"}},{"type":"Feature","geometry":{"type":"Polygon","coordinates":[[[-81.2116649673035,41.3582014934661],[-81.2117319633725,41.3557030093645],[-81.2136694564038,41.3557310261475],[-81.2153084820851,41.3557552918555],[-81.2153139046615,41.3555227474099],[-81.2185964717048,41.3555155674021],[-81.2191381618444,41.3555143733205],[-81.219084050935,41.3567012970952],[-81.2196202822182,41.3567005562516],[-81.2234376481699,41.3566952123074],[-81.2234740984509,41.3566951604422],[-81.2234241777039,41.357794418822],[-81.2234210165379,41.3579224065527],[-81.2234247362633,41.3580503857554],[-81.2234255261494,41.3581014574724],[-81.2234289239964,41.3581524684549],[-81.2234313993455,41.3581762152707],[-81.2234231625239,41.3581761748574],[-81.2233214584205,41.3581745641159],[-81.2152395632564,41.3581913903535],[-81.2152387122338,41.3581913908134],[-81.2116649673035,41.3582014934661]]]},"properties":{"source_county":"Geauga","jurisdiction":"Auburn Township","parcel_id":"01-088800","owner_name":"CARCIOPPOLO JOSEPH A TRUSTEE","property_address":"18845 RAVENNA RD","property_city":"AUBURN TOWNSHIP","property_zip":"44023"}},{"type":"Feature","geometry":{"type":"Polygon","coordinates":[[[-81.2184213390903,41.354001246588],[-81.2186361234857,41.3539971524472],[-81.2186338908419,41.3540826564695],[-81.2185964717048,41.3555155674021],[-81.2153139046615,41.3555227474099],[-81.2153317939661,41.35475560868],[-81.218398230458,41.3547699991695],[-81.2184213390903,41.354001246588]]]},"properties":{"source_county":"Geauga","jurisdiction":"Auburn Township","parcel_id":"01-092840","owner_name":"GIBB KENNETH R & HEATHER M","property_address":"18925 RAVENNA RD","property_city":"AUBURN TOWNSHIP","property_zip":"44023"}},{"type":"Feature","geometry":{"type":"Polygon","coordinates":[[[-81.219084050935,41.3567012970952],[-81.2191381618444,41.3555143733205],[-81.2234917089936,41.3555047863823],[-81.2235281603688,41.3555047057019],[-81.2235063610149,41.3559847310567],[-81.2234699111281,41.355984782932],[-81.2211130692519,41.3559880961261],[-81.2211055407709,41.3561527898364],[-81.2206900043277,41.3561533695011],[-81.2205172702496,41.3560139419233],[-81.2196514177425,41.3560151439547],[-81.2196202822182,41.3567005562516],[-81.219084050935,41.3567012970952]]]},"properties":{"source_county":"Geauga","jurisdiction":"Auburn Township","parcel_id":"01-117214","owner_name":"ADLER MALONEY MACHELLE R TOD","property_address":"18891 RAVENNA RD","property_city":"AUBURN TOWNSHIP","property_zip":"44023"}},{"type":"Feature","geometry":{"type":"Polygon","coordinates":[[[-81.2196202822182,41.3567005562516],[-81.2196514177425,41.3560151439547],[-81.2205172702496,41.3560139419233],[-81.2206900043277,41.3561533695011],[-81.2211055407709,41.3561527898364],[-81.2210881158414,41.3565339514943],[-81.2234451220085,41.3565306341007],[-81.223481573393,41.3565305822464],[-81.2234740984509,41.3566951604422],[-81.2234376481699,41.3566952123074],[-81.2196202822182,41.3567005562516]]]},"properties":{"source_county":"Geauga","jurisdiction":"Auburn Township","parcel_id":"01-117648","owner_name":"ROGALSKI JOSEPH A & JUDITH G","property_address":"18861 RAVENNA RD","property_city":"AUBURN TOWNSHIP","property_zip":"44023"}},{"type":"Feature","geometry":{"type":"Polygon","coordinates":[[[-81.2154043687073,41.3522136277136],[-81.2154438994594,41.3508063202941],[-81.2160116733171,41.3505409175775],[-81.2228482269505,41.3505269205863],[-81.2225643352268,41.3518246134257],[-81.2227750124307,41.3519673755894],[-81.2228370003904,41.3520053453247],[-81.2229036976314,41.3520384756246],[-81.2229744412746,41.3520664372163],[-81.2230485282219,41.3520889521968],[-81.2231252221445,41.3521057967954],[-81.2232037608016,41.3521168035977],[-81.2232833636164,41.3521218632098],[-81.2234268615598,41.3521255713834],[-81.2234497020526,41.3521248094248],[-81.2234721031328,41.3521213644371],[-81.2234935131802,41.352115321252],[-81.2235134049785,41.3521068286813],[-81.2235312886987,41.352096095852],[-81.2235467239607,41.3520833870569],[-81.2235593306774,41.352069015246],[-81.2235687984145,41.3520533343204],[-81.2235748940347,41.3520367304175],[-81.223577467438,41.3520196124024],[-81.2236498834316,41.3520214844929],[-81.2236822301191,41.352022320304],[-81.2236489239274,41.3528452570588],[-81.2236124816927,41.3528451892712],[-81.2235798632891,41.3528450925005],[-81.2154891449751,41.3528208467077],[-81.2153894530657,41.3527447325396],[-81.2154043687073,41.3522136277136]]]},"properties":{"source_county":"Geauga","jurisdiction":"Auburn Township","parcel_id":"01-118099","owner_name":"SIRNA CRAIG R & ANNE MARIE","property_address":"19009 RAVENNA RD","property_city":"AUBURN TOWNSHIP","property_zip":"44023"}},{"type":"Feature","geometry":{"type":"Polygon","coordinates":[[[-81.2227750124307,41.3519673755894],[-81.2225643352268,41.3518246134257],[-81.2226263207753,41.3518625834052],[-81.2226930155653,41.3518957142021],[-81.2227637567641,41.3519236765494],[-81.2228378413214,41.351946192546],[-81.2229145329565,41.3519630384185],[-81.2229930694765,41.3519740467456],[-81.2230726703521,41.3519791081214],[-81.2234330897517,41.3519884225693],[-81.2234559303306,41.3519876607493],[-81.2234783315205,41.3519842158662],[-81.2234997416916,41.3519781727503],[-81.2235196336183,41.3519696802136],[-81.2235375174624,41.3519589473847],[-81.2235529528353,41.3519462385597],[-81.2235655596426,41.3519318666932],[-81.2235750274439,41.3519161856919],[-81.2235811230974,41.3518995817],[-81.2235836965005,41.3518824635896],[-81.2236561111657,41.3518843347628],[-81.2236877816634,41.3518851541106],[-81.2236822301191,41.352022320304],[-81.2236498834316,41.3520214844929],[-81.223577467438,41.3520196124024],[-81.2235748940347,41.3520367304175],[-81.2235687984145,41.3520533343204],[-81.2235593306774,41.352069015246],[-81.2235467239607,41.3520833870569],[-81.2235312886987,41.352096095852],[-81.2235134049785,41.3521068286813],[-81.2234935131802,41.352115321252],[-81.2234721031328,41.3521213644371],[-81.2234497020526,41.3521248094248],[-81.2234268615598,41.3521255713834],[-81.2232833636164,41.3521218632098],[-81.2232037608016,41.3521168035977],[-81.2231252221445,41.3521057967954],[-81.2230485282219,41.3520889521968],[-81.2229744412746,41.3520664372163],[-81.2229036976314,41.3520384756246],[-81.2228370003904,41.3520053453247],[-81.2227750124307,41.3519673755894]]]},"properties":{"source_county":"Geauga","jurisdiction":"Auburn Township","parcel_id":"01-118174","owner_name":"SIRNA CRAIG R & ANNE MARIE","property_address":" RAVENNA RD","property_city":"AUBURN TOWNSHIP","property_zip":"44023"}},{"type":"Feature","geometry":{"type":"Polygon","coordinates":[[[-81.2136925144545,41.3547471097217],[-81.2153317939661,41.35475560868],[-81.2153139046615,41.3555227474099],[-81.2153084820851,41.3557552918555],[-81.2136694564038,41.3557310261475],[-81.2136925144545,41.3547471097217]]]},"properties":{"source_county":"Geauga","jurisdiction":"Auburn Township","parcel_id":"01-118232","owner_name":"KRAVIC ROBERT TOD & DEBORAH TOD","property_address":" RAVENNA RD","property_city":"AUBURN TOWNSHIP","property_zip":"44023"}},{"type":"Feature","geometry":{"type":"Polygon","coordinates":[[[-81.2186632628741,41.3529578481944],[-81.2187721955469,41.3529582913795],[-81.2186733792167,41.3539977044893],[-81.2186361234857,41.3539971524472],[-81.2186632628741,41.3529578481944]]]},"properties":{"source_county":"Geauga","jurisdiction":"Auburn Township","parcel_id":"01-118284","owner_name":"RETYCH RONALD C & THOMPSON SUSAN P","property_address":" RAVENNA RD","property_city":"AUBURN TOWNSHIP","property_zip":"44023"}},{"type":"Feature","geometry":{"type":"Polygon","coordinates":[[[-81.2242902481836,41.3620898099954],[-81.225612232214,41.3620838097157],[-81.2256209197621,41.3635058384645],[-81.2256209206504,41.3635059159213],[-81.2245778301195,41.363510654615],[-81.2245412818175,41.3635108201586],[-81.2245303680964,41.3634099427212],[-81.2245151517414,41.3633093820675],[-81.2244956485291,41.3632092423319],[-81.2242531722985,41.3620899777299],[-81.2242902481836,41.3620898099954]]]},"properties":{"source_county":"Geauga","jurisdiction":"Auburn Township","parcel_id":"01-118775","owner_name":"KAMINSKI JOHN F & ADAMIC LYNN","property_address":"11595 BARTHOLOMEW RD","property_city":"AUBURN TOWNSHIP","property_zip":"44023"}},{"type":"Feature","geometry":{"type":"Polygon","coordinates":[[[-81.2249862522611,41.3599306450134],[-81.2248410815696,41.3615003553471],[-81.2241623597616,41.3614993396222],[-81.2241252084598,41.3614992840458],[-81.2238095424114,41.3600420968312],[-81.2238457913439,41.3600376758573],[-81.223917100465,41.3600289891725],[-81.2239157003535,41.3600161122271],[-81.2239169911465,41.3600032287997],[-81.2239209410588,41.3599906561232],[-81.2239274528288,41.359978703779],[-81.2239363661138,41.3599676660736],[-81.2239474614381,41.3599578147917],[-81.2239604655973,41.3599493925046],[-81.2239750583855,41.3599426065965],[-81.2239908804799,41.3599376241588],[-81.2240075422887,41.3599345678756],[-81.2240887593953,41.3599263661705],[-81.2241704462005,41.3599214842314],[-81.2242523638347,41.359919936334],[-81.2246166439997,41.3599204754963],[-81.2248015646666,41.3599231558539],[-81.2249862522611,41.3599306450134]]]},"properties":{"source_county":"Geauga","jurisdiction":"Auburn Township","parcel_id":"01-118789","owner_name":"LYNCH CHRISTOPHER S & POGORELEC ELANNA N","property_address":"11600 FROSTWOOD DR","property_city":"AUBURN TOWNSHIP","property_zip":"44023"}},{"type":"Feature","geometry":{"type":"Polygon","coordinates":[[[-81.2238473347644,41.3597038619658],[-81.2237753934982,41.3597126199822],[-81.2237391279926,41.3597170416503],[-81.2234972094767,41.3586002324901],[-81.2234890268152,41.35856245615],[-81.2234648851527,41.3584341446957],[-81.2234456658944,41.3583053619586],[-81.2234313850057,41.3581762151126],[-81.223467973037,41.3581759441255],[-81.2239283296471,41.3581765761267],[-81.2245814057799,41.3581775784775],[-81.2245814039319,41.3581780431395],[-81.2245770019054,41.3597557420504],[-81.2242527941451,41.3597552616903],[-81.2241590608109,41.359757033156],[-81.2240655915949,41.3597626193238],[-81.2239726597847,41.3597720038605],[-81.2239536609888,41.3597730507537],[-81.2239347095386,41.3597715961319],[-81.2239163812563,41.3597676841926],[-81.2238992330296,41.3597614337961],[-81.2238837858909,41.3597530348551],[-81.2238705091863,41.3597427425634],[-81.2238598063145,41.3597308696424],[-81.2238520024704,41.3597177768392],[-81.2238473347644,41.3597038619658]]]},"properties":{"source_county":"Geauga","jurisdiction":"Auburn Township","parcel_id":"01-118790","owner_name":"MASETTA LAURA & MASETTA SNELSON AUDRA","property_address":"11595 FROSTWOOD DR","property_city":"AUBURN TOWNSHIP","property_zip":"44023"}},{"type":"Feature","geometry":{"type":"Polygon","coordinates":[[[-81.2245770019054,41.3597557420504],[-81.2245814039319,41.3581780431395],[-81.2245814057799,41.3581775784775],[-81.2255760026755,41.3581790284333],[-81.2255759351552,41.3581794284334],[-81.225305384878,41.3597889701704],[-81.2251239234091,41.3597739732831],[-81.2249419107185,41.3597634296548],[-81.2247595392698,41.3597573504345],[-81.2245770019054,41.3597557420504]]]},"properties":{"source_county":"Geauga","jurisdiction":"Auburn Township","parcel_id":"01-118876","owner_name":"CLARK MARTIN D & CHRISTINE W","property_address":"11585 FROSTWOOD DR","property_city":"AUBURN TOWNSHIP","property_zip":"44023"}},{"type":"Feature","geometry":{"type":"Polygon","coordinates":[[[-81.2236068682243,41.3529687951878],[-81.2236433103178,41.3529688737814],[-81.2236134160831,41.3536272421359],[-81.2235769850907,41.3536268808873],[-81.2224268762879,41.3536154447632],[-81.2224281709679,41.353587027837],[-81.2210086218735,41.3532450329806],[-81.2210214598172,41.3529632039976],[-81.2236068682243,41.3529687951878]]]},"properties":{"source_county":"Geauga","jurisdiction":"Auburn Township","parcel_id":"01-118879","owner_name":"BELLAR JAMES E & BARRETT APRIL E","property_address":"18979 RAVENNA RD","property_city":"AUBURN TOWNSHIP","property_zip":"44023"}},{"type":"Feature","geometry":{"type":"Polygon","coordinates":[[[-81.218937302312,41.374392046202],[-81.2189756922549,41.3743939451724],[-81.2189638274701,41.3744155386171],[-81.218746164159,41.3748114487612],[-81.2168151888597,41.3753889297312],[-81.2167941357157,41.3753544553659],[-81.2167669710097,41.3753224978351],[-81.216734214036,41.3752936680456],[-81.2166964909896,41.3752685171128],[-81.2166545229955,41.3752475258258],[-81.216609112323,41.375231095457],[-81.2170456907786,41.3744076711091],[-81.218937302312,41.374392046202]]]},"properties":{"source_county":"Geauga","jurisdiction":"Auburn Township","parcel_id":"01-119042","owner_name":"SURI BROOK & HALE DAVID R","property_address":"18180 SEDGE CT","property_city":"AUBURN TOWNSHIP","property_zip":"44023"}},{"type":"Feature","geometry":{"type":"Polygon","coordinates":[[[-81.2222816182527,41.3543946221598],[-81.2218109108361,41.3540895763815],[-81.2186338908419,41.3540826564695],[-81.2186361234857,41.3539971524472],[-81.2186733792167,41.3539977044893],[-81.2187721955469,41.3529582913795],[-81.2210214598172,41.3529632039976],[-81.2210086218735,41.3532450329806],[-81.2224281709679,41.353587027837],[-81.2224268762879,41.3536154447632],[-81.2223935311957,41.3543478169232],[-81.2235437281075,41.3543592533062],[-81.2235801594883,41.3543596154656],[-81.2235779838152,41.3544075078383],[-81.2235415535854,41.3544071465917],[-81.2222816182527,41.3543946221598]]]},"properties":{"source_county":"Geauga","jurisdiction":"Auburn Township","parcel_id":"01-119129","owner_name":"BELLAR JAMES E & BARRETT APRIL E","property_address":" RAVENNA RD","property_city":"AUBURN TOWNSHIP","property_zip":"44023"}},{"type":"Feature","geometry":{"type":"Polygon","coordinates":[[[-81.2150742069864,41.3717349930107],[-81.2150184321674,41.3744243811563],[-81.2144074335118,41.3744294114891],[-81.2137946471674,41.3744344520587],[-81.2134012728087,41.3744376863193],[-81.2121665977726,41.374447829727],[-81.2114633562888,41.3744536006066],[-81.2096467401465,41.3744511359265],[-81.2067601062711,41.3744625581359],[-81.2068100090972,41.3717731487666],[-81.2150742069864,41.3717349930107]]]},"properties":{"source_county":"Geauga","jurisdiction":"Auburn Township","parcel_id":"01-708906","owner_name":"CITY OF AKRON OHIO THE","property_address":" SHAW RD","property_city":"AUBURN TOWNSHIP","property_zip":"44023"}},{"type":"Feature","geometry":{"type":"Polygon","coordinates":[[[-81.2234738020755,41.3707318213],[-81.2234841565362,41.3707135850816],[-81.2234736832616,41.3707136343984],[-81.2210310060679,41.3707250206005],[-81.2209923370681,41.3707230714749],[-81.2220153695116,41.3688991519102],[-81.222057574197,41.3688952303611],[-81.2233740644035,41.3688843575666],[-81.2234618474495,41.3688836325495],[-81.2314960213619,41.3688169503404],[-81.2314532220457,41.3710149479673],[-81.2234757226009,41.3710288221607],[-81.2233049898659,41.371029113381],[-81.2234738020755,41.3707318213]]]},"properties":{"source_county":"Geauga","jurisdiction":"Auburn Township","parcel_id":"01-708928","owner_name":"CITY OF AKRON","property_address":"18408 RAVENNA RD","property_city":"AUBURN TOWNSHIP","property_zip":"44023"}},{"type":"Feature","geometry":{"type":"Polygon","coordinates":[[[-81.2234757226009,41.3710288221607],[-81.2314532220457,41.3710149479673],[-81.2314268280296,41.3723703242729],[-81.2234810703823,41.3718555464102],[-81.2205155072625,41.3716632762241],[-81.2204772103498,41.3716607934202],[-81.2208183112839,41.3710398658871],[-81.2208581192072,41.3710396942623],[-81.2233049898659,41.371029113381],[-81.2234757226009,41.3710288221607]]]},"properties":{"source_county":"Geauga","jurisdiction":"Auburn Township","parcel_id":"01-708929","owner_name":"CITY OF AKRON","property_address":" RAVENNA RD","property_city":"AUBURN TOWNSHIP","property_zip":"44023"}},{"type":"Feature","geometry":{"type":"Polygon","coordinates":[[[-81.207079333395,41.3582309877532],[-81.2071978340833,41.3528091735267],[-81.2153873317386,41.3528205379875],[-81.2153838770305,41.3529440082408],[-81.215356611969,41.3539206957007],[-81.2153557983255,41.3539206821669],[-81.2137179074378,41.3538930458555],[-81.2136925144545,41.3547471097217],[-81.2136694564038,41.3557310261475],[-81.2117319633725,41.3557030093645],[-81.2116649673035,41.3582014934661],[-81.207079333395,41.3582309877532]]]},"properties":{"source_county":"Geauga","jurisdiction":"Auburn Township","parcel_id":"01-708932","owner_name":"CITY OF AKRON OHIO THE","property_address":" RAVENNA RD","property_city":"AUBURN TOWNSHIP","property_zip":"44023"}},{"type":"Feature","geometry":{"type":"Polygon","coordinates":[[[-81.2197109254214,41.3667182929534],[-81.2198552902227,41.3659773128565],[-81.2208012895028,41.3660578220218],[-81.2207820775811,41.3661783206824],[-81.2214559827351,41.3662348085271],[-81.2219055919624,41.3662309579978],[-81.2223337239127,41.3663074891168],[-81.2224038685446,41.3664267255448],[-81.2231459721633,41.3669263130127],[-81.2224075421206,41.3682151661469],[-81.219589165908,41.3673432389293],[-81.2197109254214,41.3667182929534]]]},"properties":{"source_county":"Geauga","jurisdiction":"Auburn Township","parcel_id":"01-708944","owner_name":"CITY OF AKRON OHIO THE","property_address":" RAVENNA RD","property_city":"AUBURN TOWNSHIP","property_zip":"44023"}},{"type":"Feature","geometry":{"type":"Polygon","coordinates":[[[-81.2151705320456,41.36708730381],[-81.2197109254214,41.3667182929534],[-81.219589165908,41.3673432389293],[-81.2224075421206,41.3682151661469],[-81.2220153695116,41.3688991519102],[-81.2210853699901,41.3705543123643],[-81.2150980965973,41.3705824158787],[-81.2068313939258,41.3706205437581],[-81.2068611825216,41.3690150318263],[-81.2068854579419,41.36770655008],[-81.2151584180604,41.3676718860032],[-81.2151705320456,41.36708730381]]]},"properties":{"source_county":"Geauga","jurisdiction":"Auburn Township","parcel_id":"01-708955","owner_name":"CITY OF AKRON OHIO THE","property_address":" RAVENNA RD","property_city":"AUBURN TOWNSHIP","property_zip":"44023"}},{"type":"Feature","geometry":{"type":"Polygon","coordinates":[[[-81.2069034089974,41.3667390184856],[-81.2068854579419,41.36770655008],[-81.2068611825216,41.3690150318263],[-81.2060596284494,41.3690202086542],[-81.2052977166025,41.3690251235658],[-81.2069034089974,41.3667390184856]]]},"properties":{"source_county":"Geauga","jurisdiction":"Auburn Township","parcel_id":"01-708959","owner_name":"CITY OF AKRON OHIO THE","property_address":" SHAW RD","property_city":"AUBURN TOWNSHIP","property_zip":"44023"}},{"type":"Feature","geometry":{"type":"Polygon","coordinates":[[[-81.2068611825216,41.3690150318263],[-81.2068313939258,41.3706205437581],[-81.2068100090972,41.3717731487666],[-81.2060084486675,41.3717768180264],[-81.2060596284494,41.3690202086542],[-81.2068611825216,41.3690150318263]]]},"properties":{"source_county":"Geauga","jurisdiction":"Auburn Township","parcel_id":"01-708960","owner_name":"CITY OF AKRON 81","property_address":" SHAW RD","property_city":"AUBURN TOWNSHIP","property_zip":"44023"}},{"type":"Feature","geometry":{"type":"Polygon","coordinates":[[[-81.2234608687737,41.3586011726216],[-81.2234972094767,41.3586002324901],[-81.2237391279926,41.3597170416503],[-81.2238095424114,41.3600420968312],[-81.2239775599069,41.3608177141804],[-81.2239409692116,41.3608179853153],[-81.2234154644329,41.3608218807742],[-81.2152163011964,41.3608823538482],[-81.2070200694857,41.360942178233],[-81.2070536483238,41.3594060549934],[-81.2152253386877,41.3593665723923],[-81.2152297639246,41.3586168177568],[-81.2234218567624,41.3586012475722],[-81.2234608687737,41.3586011726216]]]},"properties":{"source_county":"Geauga","jurisdiction":"Auburn Township","parcel_id":"01-708962","owner_name":"CITY OF AKRON OHIO THE","property_address":"18753 RAVENNA RD","property_city":"AUBURN TOWNSHIP","property_zip":"44023"}},{"type":"Feature","geometry":{"type":"Polygon","coordinates":[[[-81.2068100090972,41.3717731487666],[-81.2067601062711,41.3744625581359],[-81.2059585227616,41.3744657327564],[-81.2060084486675,41.3717768180264],[-81.2068100090972,41.3717731487666]]]},"properties":{"source_county":"Geauga","jurisdiction":"Auburn Township","parcel_id":"01-708973","owner_name":"CITY OF AKRON OHIO THE","property_address":" SHAW RD","property_city":"AUBURN TOWNSHIP","property_zip":"44023"}},{"type":"Feature","geometry":{"type":"Polygon","coordinates":[[[-81.2150980965973,41.3705824158787],[-81.2150742069864,41.3717349930107],[-81.2068100090972,41.3717731487666],[-81.2068313939258,41.3706205437581],[-81.2150980965973,41.3705824158787]]]},"properties":{"source_county":"Geauga","jurisdiction":"Auburn Township","parcel_id":"01-708974","owner_name":"CITY OF AKRON OHIO THE","property_address":" SHAW RD","property_city":"AUBURN TOWNSHIP","property_zip":"44023"}},{"type":"Feature","geometry":{"type":"Polygon","coordinates":[[[-81.2210853699901,41.3705543123643],[-81.2209923370681,41.3707230714749],[-81.2189756922549,41.3743939451724],[-81.218937302312,41.374392046202],[-81.2170456907786,41.3744076711091],[-81.2154976479239,41.3744204350199],[-81.2150184321674,41.3744243811563],[-81.2150742069864,41.3717349930107],[-81.2150980965973,41.3705824158787],[-81.2210853699901,41.3705543123643]]]},"properties":{"source_county":"Geauga","jurisdiction":"Auburn Township","parcel_id":"01-708975","owner_name":"CITY OF AKRON OHIO THE","property_address":" RAVENNA RD","property_city":"AUBURN TOWNSHIP","property_zip":"44023"}},{"type":"Feature","geometry":{"type":"Polygon","coordinates":[[[-81.2207820775811,41.3661783206824],[-81.2208012895028,41.3660578220218],[-81.2235110454155,41.3662890951072],[-81.2234458013815,41.3664027701235],[-81.2231459721633,41.3669263130127],[-81.2224038685446,41.3664267255448],[-81.2223337239127,41.3663074891168],[-81.2219055919624,41.3662309579978],[-81.2214559827351,41.3662348085271],[-81.2207820775811,41.3661783206824]]]},"properties":{"source_county":"Geauga","jurisdiction":"Auburn Township","parcel_id":"01-708976","owner_name":"CITY OF AKRON OHIO THE","property_address":" RAVENNA RD","property_city":"AUBURN TOWNSHIP","property_zip":"44023"}},{"type":"Feature","geometry":{"type":"Polygon","coordinates":[[[-81.2010475146091,41.3569689358592],[-81.2030525284514,41.356959239683],[-81.2030245521662,41.3582632907959],[-81.20101949853,41.3582729864839],[-81.2010475146091,41.3569689358592]]]},"properties":{"source_county":"Geauga","jurisdiction":"Auburn Township","parcel_id":"01-708980","owner_name":"CITY OF AKRON","property_address":" SHAW RD","property_city":"AUBURN TOWNSHIP","property_zip":"44023"}},{"type":"Feature","geometry":{"type":"Polygon","coordinates":[[[-81.2234736832616,41.3707136343984],[-81.2234841565362,41.3707135850816],[-81.2234738020755,41.3707318213],[-81.2233049898659,41.371029113381],[-81.2208581192072,41.3710396942623],[-81.2208183112839,41.3710398658871],[-81.2209923370681,41.3707230714749],[-81.2210310060679,41.3707250206005],[-81.2234736832616,41.3707136343984]]]},"properties":{"source_county":"Geauga","jurisdiction":"Auburn Township","parcel_id":"01-709010","owner_name":"CITY OF AKRON","property_address":" RAVENNA RD","property_city":"AUBURN TOWNSHIP","property_zip":"44023"}},{"type":"Feature","geometry":{"type":"Polygon","coordinates":[[[-81.2032001659997,41.3494409985157],[-81.2072724677947,41.3493939238746],[-81.2072556515196,41.3501634709168],[-81.2071978340833,41.3528091735267],[-81.2031569183225,41.3528034192798],[-81.2032001659997,41.3494409985157]]]},"properties":{"source_county":"Geauga","jurisdiction":"Auburn Township","parcel_id":"01-709014","owner_name":"CITY OF AKRON THE","property_address":" FOX RD","property_city":"AUBURN TOWNSHIP","property_zip":"44023"}},{"type":"Feature","geometry":{"type":"Polygon","coordinates":[[[-81.20101949853,41.3582729864839],[-81.2030245521662,41.3582632907959],[-81.2029192259989,41.3636542845903],[-81.2009139415621,41.3636673907772],[-81.20101949853,41.3582729864839]]]},"properties":{"source_county":"Geauga","jurisdiction":"Auburn Township","parcel_id":"01-709015","owner_name":"CITY OF AKRON THE","property_address":" SHAW RD","property_city":"AUBURN TOWNSHIP","property_zip":"44023"}},{"type":"Feature","geometry":{"type":"Polygon","coordinates":[[[-81.2236124816927,41.3528451892712],[-81.2236489239274,41.3528452570588],[-81.2236433103178,41.3529688737814],[-81.2236068682243,41.3529687951878],[-81.2210214598172,41.3529632039976],[-81.2187721955469,41.3529582913795],[-81.2186632628741,41.3529578481944],[-81.2153838770305,41.3529440082408],[-81.2153873317386,41.3528205379875],[-81.2154891449751,41.3528208467077],[-81.2235798632891,41.3528450925005],[-81.2236124816927,41.3528451892712]]]},"properties":{"source_county":"Geauga","jurisdiction":"Auburn Township","parcel_id":"01-709016","owner_name":"CITY OF AKRON THE","property_address":" RAVENNA RD","property_city":"AUBURN TOWNSHIP","property_zip":"44023"}},{"type":"Feature","geometry":{"type":"Polygon","coordinates":[[[-81.2069034089974,41.3667390184856],[-81.2069613608137,41.3636277605021],[-81.2070200694857,41.360942178233],[-81.2152163011964,41.3608823538482],[-81.2234154644329,41.3608218807742],[-81.2239409692116,41.3608179853153],[-81.2239775599069,41.3608177141804],[-81.2244956485291,41.3632092423319],[-81.2245222679562,41.3633528819977],[-81.2245400696863,41.3634972934669],[-81.2245490158086,41.3636421696694],[-81.2245490872416,41.3637872025446],[-81.2245402837746,41.3639320836971],[-81.2245226240689,41.364076505052],[-81.2244961456178,41.3642201595101],[-81.2244609046683,41.3643627416008],[-81.2244169761014,41.3645039481321],[-81.2243644532734,41.3646434788351],[-81.2243034478181,41.3647810370024],[-81.2241459490328,41.3651076742698],[-81.2239834484171,41.365432918195],[-81.2238159676121,41.3657567253155],[-81.2235110454155,41.3662890951072],[-81.2208012895028,41.3660578220218],[-81.2198552902227,41.3659773128565],[-81.2197109254214,41.3667182929534],[-81.2151705320456,41.36708730381],[-81.2151584180604,41.3676718860032],[-81.2068854579419,41.36770655008],[-81.2069034089974,41.3667390184856]]]},"properties":{"source_county":"Geauga","jurisdiction":"Auburn Township","parcel_id":"01-709017","owner_name":"CITY OF AKRON OHIO THE","property_address":"18661 RAVENNA RD","property_city":"AUBURN TOWNSHIP","property_zip":"44023"}},{"type":"Feature","geometry":{"type":"Polygon","coordinates":[[[-81.1989323389543,41.3577205587602],[-81.1989694709059,41.3563346233532],[-81.1989817374253,41.3558767542458],[-81.1989927122879,41.3554670906041],[-81.1990064992059,41.3549524550925],[-81.1990207257971,41.3544213965868],[-81.1990561582403,41.3528126334595],[-81.2031569183225,41.3528034192798],[-81.2071978340833,41.3528091735267],[-81.207079333395,41.3582309877532],[-81.2030245521662,41.3582632907959],[-81.2030525284514,41.356959239683],[-81.2010475146091,41.3569689358592],[-81.20101949853,41.3582729864839],[-81.1989172664283,41.358283159008],[-81.1989323389543,41.3577205587602]]]},"properties":{"source_county":"Geauga","jurisdiction":"Auburn Township","parcel_id":"01-709018","owner_name":"CITY OF AKRON THE","property_address":" SHAW RD","property_city":"AUBURN TOWNSHIP","property_zip":"44023"}},{"type":"Feature","geometry":{"type":"Polygon","coordinates":[[[-81.2233949790185,41.3581757289346],[-81.2234231625239,41.3581761748574],[-81.2234313718608,41.3581762149676],[-81.223445660027,41.3583053617328],[-81.2234648836619,41.3584341444764],[-81.2234890268152,41.35856245615],[-81.2234972094767,41.3586002324901],[-81.2234608687737,41.3586011726216],[-81.2234218567624,41.3586012475722],[-81.2152297639246,41.3586168177568],[-81.2152253386877,41.3593665723923],[-81.2070536483238,41.3594060549934],[-81.2070200694857,41.360942178233],[-81.2069613608137,41.3636277605021],[-81.2029192259989,41.3636542845903],[-81.2030245521662,41.3582632907959],[-81.207079333395,41.3582309877532],[-81.2116649673035,41.3582014934661],[-81.2152387122338,41.3581913908134],[-81.2152395632564,41.3581913903535],[-81.2233214584205,41.3581745641159],[-81.2233949790185,41.3581757289346]]]},"properties":{"source_county":"Geauga","jurisdiction":"Auburn Township","parcel_id":"01-709019","owner_name":"CITY OF AKRON OHIO THE","property_address":" RAVENNA RD","property_city":"AUBURN TOWNSHIP","property_zip":"44023"}},{"type":"Feature","geometry":{"type":"Polygon","coordinates":[[[-81.2088233526747,41.3501657271944],[-81.2154616209365,41.3501748538901],[-81.2154043687073,41.3522136277136],[-81.2153894530657,41.3527447325396],[-81.2153873317386,41.3528205379875],[-81.2071978340833,41.3528091735267],[-81.2072556515196,41.3501634709168],[-81.2088233526747,41.3501657271944]]]},"properties":{"source_county":"Geauga","jurisdiction":"Auburn Township","parcel_id":"01-709021","owner_name":"CITY OF AKRON THE","property_address":" RAVENNA RD","property_city":"AUBURN TOWNSHIP","property_zip":"44023"}},{"type":"Feature","geometry":{"type":"Polygon","coordinates":[[[-81.2153873317386,41.3528205379875],[-81.2153894530657,41.3527447325396],[-81.2154891449751,41.3528208467077],[-81.2153873317386,41.3528205379875]]]},"properties":{"source_county":"Geauga","jurisdiction":"Auburn Township","parcel_id":"01-709028","owner_name":"CITY OF AKRON THE","property_address":" RAVENNA RD","property_city":"AUBURN TOWNSHIP","property_zip":"44023"}}]}