{"type":"FeatureCollection","features":[{"type":"Feature","geometry":{"type":"Polygon","coordinates":[[[-81.2219266823046,41.347503017354],[-81.2238529990208,41.3474987716126],[-81.2238359484392,41.3479744610621],[-81.2237992624146,41.3479737323134],[-81.2218581717578,41.3479352046264],[-81.2218776927025,41.3475031301114],[-81.2219266823046,41.347503017354]]]},"properties":{"source_county":"Geauga","jurisdiction":"Auburn Township","parcel_id":"01-047950","owner_name":"SCHNELL MARY E","property_address":"19191 RAVENNA RD","property_city":"AUBURN TOWNSHIP","property_zip":"44023"}},{"type":"Feature","geometry":{"type":"Polygon","coordinates":[[[-81.2237601111609,41.3490646576089],[-81.2237968616672,41.3490648665566],[-81.2237647176441,41.3499615870492],[-81.2237279339039,41.3499612174326],[-81.2221118459502,41.3499449403706],[-81.2221160748174,41.3497709829003],[-81.2221337573503,41.3490554222635],[-81.2237601111609,41.3490646576089]]]},"properties":{"source_county":"Geauga","jurisdiction":"Auburn Township","parcel_id":"01-063560","owner_name":"YINGLING AMANDA & PATRICK","property_address":"19121 RAVENNA RD","property_city":"AUBURN TOWNSHIP","property_zip":"44023"}},{"type":"Feature","geometry":{"type":"Polygon","coordinates":[[[-81.2179589242592,41.3496306471265],[-81.2196396275333,41.348844930694],[-81.2237658118699,41.3489058203332],[-81.2238025438873,41.3489063613789],[-81.2237968616672,41.3490648665566],[-81.2237601111609,41.3490646576089],[-81.2221337573503,41.3490554222635],[-81.2217704264473,41.349053283928],[-81.2217572502363,41.3497628228204],[-81.2179589242592,41.3496306471265]]]},"properties":{"source_county":"Geauga","jurisdiction":"Auburn Township","parcel_id":"01-084822","owner_name":"FORD ERIC ROBERT","property_address":"19145 RAVENNA RD","property_city":"AUBURN TOWNSHIP","property_zip":"44023"}},{"type":"Feature","geometry":{"type":"Polygon","coordinates":[[[-81.2217704264473,41.349053283928],[-81.2221337573503,41.3490554222635],[-81.2221160748174,41.3497709829003],[-81.2217572502363,41.3497628228204],[-81.2217704264473,41.349053283928]]]},"properties":{"source_county":"Geauga","jurisdiction":"Auburn Township","parcel_id":"01-117283","owner_name":"YINGLING AMANDA & PATRICK","property_address":" RAVENNA RD","property_city":"AUBURN TOWNSHIP","property_zip":"44023"}},{"type":"Feature","geometry":{"type":"Polygon","coordinates":[[[-81.2237890744391,41.3492821021549],[-81.2238284126875,41.3481846680036],[-81.2238645346378,41.3481854031294],[-81.2251323775303,41.3482112026247],[-81.2251020943394,41.34905651812],[-81.2245906531561,41.3490585591858],[-81.2245820636681,41.349298239361],[-81.2238251504115,41.3492828358785],[-81.2237890744391,41.3492821021549]]]},"properties":{"source_county":"Geauga","jurisdiction":"Auburn Township","parcel_id":"01-117285","owner_name":"19142 RAVENNA ROAD LLC","property_address":"19142 RAVENNA RD","property_city":"AUBURN TOWNSHIP","property_zip":"44023"}},{"type":"Feature","geometry":{"type":"Polygon","coordinates":[[[-81.2154616209348,41.3501748538873],[-81.2155006851679,41.3487837063362],[-81.2196396275333,41.348844930694],[-81.2179589242592,41.3496306471265],[-81.2160116733155,41.3505409175747],[-81.2154438994577,41.3508063202913],[-81.2154616209348,41.3501748538873]]]},"properties":{"source_county":"Geauga","jurisdiction":"Auburn Township","parcel_id":"01-708931","owner_name":"CITY OF AKRON","property_address":" RAVENNA RD","property_city":"AUBURN TOWNSHIP","property_zip":"44023"}},{"type":"Feature","geometry":{"type":"Polygon","coordinates":[[[-81.207255651518,41.3501634709139],[-81.207272467793,41.3493939238718],[-81.203200165998,41.3494409985128],[-81.2032138598497,41.3483761720157],[-81.2032190468667,41.3475425127891],[-81.2072058941712,41.3475343498417],[-81.2088976061019,41.3475308442945],[-81.208823352673,41.3501657271916],[-81.207255651518,41.3501634709139]]]},"properties":{"source_county":"Geauga","jurisdiction":"Auburn Township","parcel_id":"01-708934","owner_name":"CITY OF AKRON OHIO THE","property_address":" FOX RD","property_city":"AUBURN TOWNSHIP","property_zip":"44023"}},{"type":"Feature","geometry":{"type":"Polygon","coordinates":[[[-81.2155362583923,41.3475168523147],[-81.2218776927025,41.3475031301114],[-81.2218581717578,41.3479352046264],[-81.2237992624146,41.3479737323134],[-81.2238359484567,41.3479744601617],[-81.2238025438873,41.3489063613789],[-81.2237658118699,41.3489058203332],[-81.2196396275333,41.348844930694],[-81.2155006851679,41.3487837063362],[-81.2155326051441,41.3476469629969],[-81.2155362583923,41.3475168523147]]]},"properties":{"source_county":"Geauga","jurisdiction":"Auburn Township","parcel_id":"01-708988","owner_name":"CITY OF AKRON","property_address":"19153 RAVENNA RD","property_city":"AUBURN TOWNSHIP","property_zip":"44023"}},{"type":"Feature","geometry":{"type":"Polygon","coordinates":[[[-81.2155349689848,41.3475168497106],[-81.2155362583923,41.3475168523147],[-81.2155326051441,41.3476469629969],[-81.2155006851679,41.3487837063362],[-81.2154616209348,41.3501748538873],[-81.208823352673,41.3501657271916],[-81.2088976061019,41.3475308442945],[-81.2155349689848,41.3475168497106]]]},"properties":{"source_county":"Geauga","jurisdiction":"Auburn Township","parcel_id":"01-708989","owner_name":"CITY OF AKRON","property_address":" RAVENNA RD","property_city":"AUBURN TOWNSHIP","property_zip":"44023"}},{"type":"Feature","geometry":{"type":"Polygon","coordinates":[[[-81.2237576420424,41.3501589688335],[-81.2237890744391,41.3492821021549],[-81.2238251504115,41.3492828358785],[-81.2245820636681,41.349298239361],[-81.2245906531561,41.3490585591858],[-81.2251020943394,41.34905651812],[-81.2282228740258,41.3490440127975],[-81.2281836110696,41.3501414464214],[-81.2237937058303,41.3501590008993],[-81.2237576420424,41.3501589688335]]]},"properties":{"source_county":"Geauga","jurisdiction":"Auburn Township","parcel_id":"01-709009","owner_name":"FRIENDSHIP ALLIANCE CHURCH OF THE CHRISTIAN & MIS AL","property_address":"19126 RAVENNA RD","property_city":"AUBURN TOWNSHIP","property_zip":"44023"}},{"type":"Feature","geometry":{"type":"Polygon","coordinates":[[[-81.2219266823062,41.3475030173569],[-81.2238529990225,41.3474987716154],[-81.223835948441,41.3479744610649],[-81.2237992624163,41.3479737323163],[-81.2218581717595,41.3479352046292],[-81.2218776927042,41.3475031301143],[-81.2219266823062,41.3475030173569]]]},"properties":{"source_county":"Geauga","jurisdiction":"Auburn Township","parcel_id":"01-047950","owner_name":"SCHNELL MARY E","property_address":"19191 RAVENNA RD","property_city":"AUBURN TOWNSHIP","property_zip":"44023"}},{"type":"Feature","geometry":{"type":"Polygon","coordinates":[[[-81.2237601111626,41.3490646576118],[-81.2237968616689,41.3490648665594],[-81.2237647176458,41.3499615870521],[-81.2237279339056,41.3499612174355],[-81.2221118459519,41.3499449403735],[-81.2221160748191,41.3497709829031],[-81.2221337573519,41.3490554222663],[-81.2237601111626,41.3490646576118]]]},"properties":{"source_county":"Geauga","jurisdiction":"Auburn Township","parcel_id":"01-063560","owner_name":"YINGLING AMANDA & PATRICK","property_address":"19121 RAVENNA RD","property_city":"AUBURN TOWNSHIP","property_zip":"44023"}},{"type":"Feature","geometry":{"type":"Polygon","coordinates":[[[-81.2179589242608,41.3496306471293],[-81.219639627535,41.3488449306969],[-81.2237658118716,41.3489058203361],[-81.223802543889,41.3489063613818],[-81.2237968616689,41.3490648665594],[-81.2237601111626,41.3490646576118],[-81.2221337573519,41.3490554222663],[-81.2217704264489,41.3490532839309],[-81.2217572502379,41.3497628228232],[-81.2179589242608,41.3496306471293]]]},"properties":{"source_county":"Geauga","jurisdiction":"Auburn Township","parcel_id":"01-084822","owner_name":"FORD ERIC ROBERT","property_address":"19145 RAVENNA RD","property_city":"AUBURN TOWNSHIP","property_zip":"44023"}},{"type":"Feature","geometry":{"type":"Polygon","coordinates":[[[-81.2217704264489,41.3490532839309],[-81.2221337573519,41.3490554222663],[-81.2221160748191,41.3497709829031],[-81.2217572502379,41.3497628228232],[-81.2217704264489,41.3490532839309]]]},"properties":{"source_county":"Geauga","jurisdiction":"Auburn Township","parcel_id":"01-117283","owner_name":"YINGLING AMANDA & PATRICK","property_address":" RAVENNA RD","property_city":"AUBURN TOWNSHIP","property_zip":"44023"}},{"type":"Feature","geometry":{"type":"Polygon","coordinates":[[[-81.2237890744408,41.3492821021577],[-81.2238284126892,41.3481846680065],[-81.2238645346395,41.3481854031322],[-81.225132377532,41.3482112026276],[-81.2251020943411,41.3490565181228],[-81.2245906531578,41.3490585591886],[-81.2245820636698,41.3492982393638],[-81.2238251504132,41.3492828358814],[-81.2237890744408,41.3492821021577]]]},"properties":{"source_county":"Geauga","jurisdiction":"Auburn Township","parcel_id":"01-117285","owner_name":"19142 RAVENNA ROAD LLC","property_address":"19142 RAVENNA RD","property_city":"AUBURN TOWNSHIP","property_zip":"44023"}},{"type":"Feature","geometry":{"type":"Polygon","coordinates":[[[-81.2154616209365,41.3501748538901],[-81.2155006851696,41.3487837063391],[-81.219639627535,41.3488449306969],[-81.2179589242608,41.3496306471293],[-81.2160116733171,41.3505409175775],[-81.2154438994594,41.3508063202941],[-81.2154616209365,41.3501748538901]]]},"properties":{"source_county":"Geauga","jurisdiction":"Auburn Township","parcel_id":"01-708931","owner_name":"CITY OF AKRON","property_address":" RAVENNA RD","property_city":"AUBURN TOWNSHIP","property_zip":"44023"}},{"type":"Feature","geometry":{"type":"Polygon","coordinates":[[[-81.2072556515196,41.3501634709168],[-81.2072724677947,41.3493939238746],[-81.2032001659997,41.3494409985157],[-81.2032138598514,41.3483761720185],[-81.2032190468684,41.347542512792],[-81.2072058941729,41.3475343498445],[-81.2088976061036,41.3475308442974],[-81.2088233526747,41.3501657271944],[-81.2072556515196,41.3501634709168]]]},"properties":{"source_county":"Geauga","jurisdiction":"Auburn Township","parcel_id":"01-708934","owner_name":"CITY OF AKRON OHIO THE","property_address":" FOX RD","property_city":"AUBURN TOWNSHIP","property_zip":"44023"}},{"type":"Feature","geometry":{"type":"Polygon","coordinates":[[[-81.2155362583941,41.3475168523175],[-81.2218776927042,41.3475031301143],[-81.2218581717595,41.3479352046292],[-81.2237992624163,41.3479737323163],[-81.2238359484584,41.3479744601646],[-81.223802543889,41.3489063613818],[-81.2237658118716,41.3489058203361],[-81.219639627535,41.3488449306969],[-81.2155006851696,41.3487837063391],[-81.2155326051458,41.3476469629998],[-81.2155362583941,41.3475168523175]]]},"properties":{"source_county":"Geauga","jurisdiction":"Auburn Township","parcel_id":"01-708988","owner_name":"CITY OF AKRON","property_address":"19153 RAVENNA RD","property_city":"AUBURN TOWNSHIP","property_zip":"44023"}},{"type":"Feature","geometry":{"type":"Polygon","coordinates":[[[-81.2155349689864,41.3475168497134],[-81.2155362583941,41.3475168523175],[-81.2155326051458,41.3476469629998],[-81.2155006851696,41.3487837063391],[-81.2154616209365,41.3501748538901],[-81.2088233526747,41.3501657271944],[-81.2088976061036,41.3475308442974],[-81.2155349689864,41.3475168497134]]]},"properties":{"source_county":"Geauga","jurisdiction":"Auburn Township","parcel_id":"01-708989","owner_name":"CITY OF AKRON","property_address":" RAVENNA RD","property_city":"AUBURN TOWNSHIP","property_zip":"44023"}},{"type":"Feature","geometry":{"type":"Polygon","coordinates":[[[-81.2237576420441,41.3501589688363],[-81.2237890744408,41.3492821021577],[-81.2238251504132,41.3492828358814],[-81.2245820636698,41.3492982393638],[-81.2245906531578,41.3490585591886],[-81.2251020943411,41.3490565181228],[-81.2282228740275,41.3490440128004],[-81.2281836110712,41.3501414464243],[-81.223793705832,41.3501590009021],[-81.2237576420441,41.3501589688363]]]},"properties":{"source_county":"Geauga","jurisdiction":"Auburn Township","parcel_id":"01-709009","owner_name":"FRIENDSHIP ALLIANCE CHURCH OF THE CHRISTIAN & MIS AL","property_address":"19126 RAVENNA RD","property_city":"AUBURN TOWNSHIP","property_zip":"44023"}}]}