{"type":"FeatureCollection","features":[{"type":"Feature","geometry":{"type":"Polygon","coordinates":[[[-81.1905709086204,41.424921557099],[-81.1922822967648,41.4249170498573],[-81.1922387935086,41.4255293967303],[-81.1915318790968,41.4255312631851],[-81.1905720033923,41.4255337915582],[-81.1905709086204,41.424921557099]]]},"properties":{"source_county":"Geauga","jurisdiction":"Auburn Township","parcel_id":"01-102200","owner_name":"SMITH JACOB P & KOTRLIK COURTNEY P","property_address":"16320 SNOW RD","property_city":"BURTON","property_zip":"44021"}},{"type":"Feature","geometry":{"type":"Polygon","coordinates":[[[-81.190570908622,41.4249215571018],[-81.1922822967664,41.4249170498602],[-81.1922387935103,41.4255293967331],[-81.1915318790984,41.4255312631879],[-81.190572003394,41.425533791561],[-81.190570908622,41.4249215571018]]]},"properties":{"source_county":"Geauga","jurisdiction":"Auburn Township","parcel_id":"01-102200","owner_name":"SMITH JACOB P & KOTRLIK COURTNEY P","property_address":"16320 SNOW RD","property_city":"BURTON","property_zip":"44021"}}]}