{"type":"FeatureCollection","features":[{"type":"Feature","geometry":{"type":"Polygon","coordinates":[[[-81.1921938812847,41.5347411648711],[-81.1920750475059,41.5329168615836],[-81.1920732303373,41.532888958721],[-81.1921769811986,41.5328747886484],[-81.1922152520667,41.5328695611117],[-81.193347284179,41.5327149406261],[-81.1934257013776,41.5327042294301],[-81.1934276006461,41.5327318900542],[-81.1934649018441,41.5332750145061],[-81.1934966633724,41.5337374658837],[-81.1927569063771,41.5337491489981],[-81.1926948250573,41.5337501300867],[-81.192706738031,41.5340276435853],[-81.1927688233286,41.5340267165626],[-81.1935157636143,41.5340155635508],[-81.193564514988,41.5347253876878],[-81.1935753712475,41.5348834549978],[-81.1936597041627,41.5354131289174],[-81.1922368102004,41.5354001687425],[-81.1921938812847,41.5347411648711]]]},"properties":{"source_county":"Geauga","jurisdiction":"Munson Township","parcel_id":"21-004200","owner_name":"BABCOCK EDWARD M TRUSTEE","property_address":"12408 MAYFIELD RD","property_city":"CHARDON","property_zip":"44024"}},{"type":"Feature","geometry":{"type":"Polygon","coordinates":[[[-81.1919381331823,41.531457864569],[-81.1935663658367,41.5314556621695],[-81.1935349566429,41.5317344584726],[-81.193515779758,41.5319046814889],[-81.1934844079991,41.5321831413755],[-81.1934289004192,41.5326758382578],[-81.1934257013776,41.5327042294301],[-81.193347284179,41.5327149406261],[-81.1922152520667,41.5328695611117],[-81.1922099738696,41.5328426737454],[-81.1921748030758,41.5326635097651],[-81.1920345427205,41.5319490024863],[-81.1919381331823,41.531457864569]]]},"properties":{"source_county":"Geauga","jurisdiction":"Munson Township","parcel_id":"21-004300","owner_name":"JAS REAL ESTATE HOLDINGS LLC","property_address":"12423 MAYFIELD RD","property_city":"CHARDON","property_zip":"44024"}},{"type":"Feature","geometry":{"type":"Polygon","coordinates":[[[-81.1910828288214,41.5314590113798],[-81.1915455012479,41.5314583914411],[-81.1916440878174,41.5319606313948],[-81.1918167659108,41.5328403036109],[-81.1918173417056,41.5328962252573],[-81.1918176263356,41.5329238695152],[-81.191098916193,41.5330220279223],[-81.1910986297885,41.5329942476636],[-81.1910881622281,41.5319771872604],[-81.1910828288214,41.5314590113798]]]},"properties":{"source_county":"Geauga","jurisdiction":"Munson Township","parcel_id":"21-004400","owner_name":"JBS REAL ESTATE HOLDINGS LLC","property_address":"12461 MAYFIELD RD","property_city":"CHARDON","property_zip":"44024"}},{"type":"Feature","geometry":{"type":"Polygon","coordinates":[[[-81.1907416687423,41.5330708167647],[-81.1907942799218,41.5330636316704],[-81.1907945331564,41.5330915061097],[-81.1908008455244,41.5337874969151],[-81.1907474176314,41.5337886232017],[-81.1907471286718,41.5337886298476],[-81.1907460675978,41.5337886520974],[-81.1907398131425,41.5330989690849],[-81.1907395597332,41.5330711045488],[-81.1907410967053,41.5330708958598],[-81.1907416687423,41.5330708167647]]]},"properties":{"source_county":"Geauga","jurisdiction":"Munson Township","parcel_id":"21-004500","owner_name":"WEST CLARIDON MANAGEMENT LLC","property_address":" MAYFIELD RD","property_city":"CHARDON","property_zip":"44024"}},{"type":"Feature","geometry":{"type":"Polygon","coordinates":[[[-81.1908145095606,41.5263210530433],[-81.193673891419,41.5262955798604],[-81.1936738913501,41.5263002724077],[-81.1936741008763,41.5288186241266],[-81.1907129277984,41.528837629995],[-81.1907127012873,41.5288376310416],[-81.190696744607,41.526322100881],[-81.1906985148387,41.5263220848331],[-81.1908145095606,41.5263210530433]]]},"properties":{"source_county":"Geauga","jurisdiction":"Munson Township","parcel_id":"21-004600","owner_name":"REID TRACY A & BRINDO REBECCA CO TRUSTEES","property_address":" RAVENNA RD","property_city":"CHARDON","property_zip":"44024"}},{"type":"Feature","geometry":{"type":"Polygon","coordinates":[[[-81.1936741272944,41.529131948776],[-81.1936741008763,41.5288186241266],[-81.1936738913501,41.5263002724077],[-81.193673891419,41.5262955798604],[-81.1952671163675,41.5262886628416],[-81.1962292106928,41.5262792763465],[-81.198386293779,41.5262582020793],[-81.1985648565871,41.5262564559041],[-81.1985345679942,41.5289316190535],[-81.1936741272944,41.529131948776]],[[-81.195786632089,41.528897662585],[-81.1957863443825,41.5264120975561],[-81.1938690795677,41.5264243279767],[-81.1938692998514,41.5289766674841],[-81.195786632089,41.528897662585]]]},"properties":{"source_county":"Geauga","jurisdiction":"Munson Township","parcel_id":"21-014900","owner_name":"MORNINGSTAR EVANGELICAL FRIENDS CHURCH","property_address":"12550 RAVENNA RD","property_city":"CHARDON","property_zip":"44024"}},{"type":"Feature","geometry":{"type":"Polygon","coordinates":[[[-81.196229830031,41.5454182324877],[-81.1966681777391,41.5454146037103],[-81.1966730105611,41.5457439040903],[-81.1960492379619,41.5457490675333],[-81.1960444082746,41.5454197671279],[-81.196229830031,41.5454182324877]]]},"properties":{"source_county":"Geauga","jurisdiction":"Munson Township","parcel_id":"21-015900","owner_name":"BEST SAND CORPORATION","property_address":" HARVARD DR","property_city":"CHARDON","property_zip":"44024"}},{"type":"Feature","geometry":{"type":"Polygon","coordinates":[[[-81.1959010689006,41.5454209538816],[-81.1960444082746,41.5454197671279],[-81.1960492379619,41.5457490675333],[-81.1953536267596,41.5457548223504],[-81.1953534805009,41.5457548234082],[-81.1952984568031,41.5454259385453],[-81.195298575498,41.5454259371779],[-81.1959010689006,41.5454209538816]]]},"properties":{"source_county":"Geauga","jurisdiction":"Munson Township","parcel_id":"21-016000","owner_name":"BEST SAND CORPORATION","property_address":" RAVENNA RD","property_city":"CHARDON","property_zip":"44024"}},{"type":"Feature","geometry":{"type":"Polygon","coordinates":[[[-81.1988599191993,41.5453964323354],[-81.2009785997719,41.5453788275315],[-81.2009834541838,41.5457081313367],[-81.1993031126188,41.5457220957004],[-81.1988647618013,41.5457257344132],[-81.1988599191993,41.5453964323354]]]},"properties":{"source_county":"Geauga","jurisdiction":"Munson Township","parcel_id":"21-016800","owner_name":"BEST SAND CORPORATION","property_address":" HARVARD DR","property_city":"CHARDON","property_zip":"44024"}},{"type":"Feature","geometry":{"type":"Polygon","coordinates":[[[-81.1988550754296,41.5450671311096],[-81.2009737465894,41.5450495246052],[-81.2009785997719,41.5453788275315],[-81.1988599191993,41.5453964323354],[-81.1988550754296,41.5450671311096]]]},"properties":{"source_county":"Geauga","jurisdiction":"Munson Township","parcel_id":"21-016900","owner_name":"BEST SAND CORPORATION","property_address":" RAVENNA RD","property_city":"CHARDON","property_zip":"44024"}},{"type":"Feature","geometry":{"type":"Polygon","coordinates":[[[-81.1946220684908,41.5413827988876],[-81.1952213450014,41.5413732403122],[-81.195905075418,41.5416698171393],[-81.1960297890363,41.5432695771631],[-81.1949540109389,41.5433670625392],[-81.1949330090246,41.5432415187078],[-81.1947149886686,41.5419382586936],[-81.1946920939627,41.5418014002509],[-81.1946220684908,41.5413827988876]]]},"properties":{"source_county":"Geauga","jurisdiction":"Munson Township","parcel_id":"21-017000","owner_name":"BEST SAND CORPORATION","property_address":" RAVENNA RD","property_city":"CHARDON","property_zip":"44024"}},{"type":"Feature","geometry":{"type":"MultiPolygon","coordinates":[[[[-81.1966834807987,41.5464573903667],[-81.1966826751525,41.5464025047321],[-81.1971210294026,41.5463988751462],[-81.1975593848206,41.5463952430183],[-81.1975545475135,41.5460659418436],[-81.1979929006799,41.5460623080784],[-81.1984312525814,41.5460586735449],[-81.1988696056504,41.5460550364694],[-81.1993079574725,41.5460513977253],[-81.1993031126188,41.5457220957004],[-81.2009834541838,41.5457081313367],[-81.2009883074638,41.5460374341932],[-81.2009931619911,41.5463667370281],[-81.2009980153688,41.5466960398148],[-81.1973450433898,41.5467263595376],[-81.1966875069218,41.5467318049939],[-81.196685492375,41.5465944612407],[-81.1966834807987,41.5464573903667]]],[[[-81.1971113604234,41.5457402736399],[-81.1966730105611,41.5457439040903],[-81.1966681777391,41.5454146037103],[-81.196229830031,41.5454182324877],[-81.1962250006409,41.5450889329687],[-81.1988550754296,41.5450671311096],[-81.1988599191993,41.5453964323354],[-81.1988647618013,41.5457257344132],[-81.1984264121335,41.5457293714842],[-81.1979880612186,41.5457330068867],[-81.1979832230043,41.5454037056735],[-81.1975448742257,41.5454073403032],[-81.1975497114356,41.5457366415477],[-81.1971113604234,41.5457402736399]]],[[[-81.1966826751525,41.5464025047321],[-81.1954637309768,41.5464125907127],[-81.1954635295717,41.5464125920514],[-81.195435725796,41.5462464052936],[-81.1953901671771,41.5459741046072],[-81.1953534805009,41.5457548234082],[-81.1953536267596,41.5457548223504],[-81.1960492379619,41.5457490675333],[-81.1966730105611,41.5457439040903],[-81.1966778422333,41.5460732044219],[-81.1966826751525,41.5464025047321]]]]},"properties":{"source_county":"Geauga","jurisdiction":"Munson Township","parcel_id":"21-017155","owner_name":"BEST SAND CORPORATION","property_address":" HARVARD DR","property_city":"CHARDON","property_zip":"44024"}},{"type":"Feature","geometry":{"type":"Polygon","coordinates":[[[-81.1966875069218,41.5467318049939],[-81.1973450433898,41.5467263595376],[-81.1975728787341,41.5480878574343],[-81.1957466952485,41.548102975755],[-81.1957463535665,41.5481029782197],[-81.1955185549267,41.546741476732],[-81.1955187839143,41.5467414748027],[-81.1966875069218,41.5467318049939]]]},"properties":{"source_county":"Geauga","jurisdiction":"Munson Township","parcel_id":"21-031500","owner_name":"BEST SAND CORPORATION","property_address":" RAVENNA RD","property_city":"CHARDON","property_zip":"44024"}},{"type":"Feature","geometry":{"type":"Polygon","coordinates":[[[-81.1936723578301,41.5250274694314],[-81.1952626762324,41.5250228308031],[-81.1952641207585,41.5254344999746],[-81.1936730972772,41.5254391425041],[-81.1936728416665,41.5252345846302],[-81.1936723578301,41.5250274694314]]]},"properties":{"source_county":"Geauga","jurisdiction":"Munson Township","parcel_id":"21-038750","owner_name":"SHREWSBURY SHERIE BURKLEY TRUSTEE","property_address":"12666 RAVENNA RD","property_city":"CHARDON","property_zip":"44024"}},{"type":"Feature","geometry":{"type":"Polygon","coordinates":[[[-81.194278358781,41.5482820920133],[-81.1957645755024,41.5482118869929],[-81.1958620153494,41.5487942472784],[-81.1943759124038,41.5488646431648],[-81.194278358781,41.5482820920133]]]},"properties":{"source_county":"Geauga","jurisdiction":"Munson Township","parcel_id":"21-043100","owner_name":"BEST SAND CORPORATION","property_address":"11873 RAVENNA RD","property_city":"CHARDON","property_zip":"44024"}},{"type":"Feature","geometry":{"type":"Polygon","coordinates":[[[-81.1909011721065,41.5508865354892],[-81.1908763556889,41.5481516175841],[-81.1908671281313,41.5471345859466],[-81.1908593845371,41.5462810327018],[-81.1938338659144,41.5462585467468],[-81.1946347953302,41.5462524787763],[-81.195435725796,41.5462464052936],[-81.1954635295717,41.5464125920514],[-81.195472701174,41.5464674087288],[-81.1954910197113,41.5465768986212],[-81.1955185549267,41.546741476732],[-81.1957463535665,41.5481029782197],[-81.1957645755024,41.5482118869929],[-81.194278358781,41.5482820920133],[-81.1943759124038,41.5488646431648],[-81.1958620153494,41.5487942472784],[-81.1961066179306,41.5502560885863],[-81.1961673127336,41.5506188193466],[-81.1962128778123,41.550891119322],[-81.1962584420535,41.5511634201425],[-81.1909043065834,41.5512319662952],[-81.1909011721065,41.5508865354892]]]},"properties":{"source_county":"Geauga","jurisdiction":"Munson Township","parcel_id":"21-047510","owner_name":"BEST SAND CORPORATION","property_address":"11833 RAVENNA RD","property_city":"CHARDON","property_zip":"44024"}},{"type":"Feature","geometry":{"type":"Polygon","coordinates":[[[-81.1916843459026,41.5252484008893],[-81.1936728416665,41.5252345846302],[-81.1936730972772,41.5254391425041],[-81.1936735253303,41.525782154563],[-81.1906955550424,41.5258054764229],[-81.1906944716048,41.5258054849108],[-81.1906920524142,41.5252552818258],[-81.1906924035616,41.525255279484],[-81.1916843459026,41.5252484008893]]]},"properties":{"source_county":"Geauga","jurisdiction":"Munson Township","parcel_id":"21-048480","owner_name":"RICHARDS MARC DAVID","property_address":"12647 RAVENNA RD","property_city":"CHARDON","property_zip":"44024"}},{"type":"Feature","geometry":{"type":"Polygon","coordinates":[[[-81.1984264121335,41.5457293714842],[-81.1988647618013,41.5457257344132],[-81.1988696056504,41.5460550364694],[-81.1984312525814,41.5460586735449],[-81.1984264121335,41.5457293714842]]]},"properties":{"source_county":"Geauga","jurisdiction":"Munson Township","parcel_id":"21-050500","owner_name":"BEST SAND CORPORATION","property_address":" HARVARD DR","property_city":"CHARDON","property_zip":"44024"}},{"type":"Feature","geometry":{"type":"Polygon","coordinates":[[[-81.1936730972772,41.5254391425041],[-81.1952641207585,41.5254344999746],[-81.1952656731666,41.525877286461],[-81.1936735964466,41.5258819271815],[-81.1936735253303,41.525782154563],[-81.1936730972772,41.5254391425041]]]},"properties":{"source_county":"Geauga","jurisdiction":"Munson Township","parcel_id":"21-053300","owner_name":"DUNCAN GAYLE R & MARGARET A TOD","property_address":"12650 RAVENNA RD","property_city":"CHARDON","property_zip":"44024"}},{"type":"Feature","geometry":{"type":"Polygon","coordinates":[[[-81.19410750559,41.5316542437538],[-81.1946887851412,41.5315728033748],[-81.1947605470973,41.5318575131357],[-81.1949135534335,41.532464550544],[-81.1949203540626,41.5324915305404],[-81.1941746466083,41.5325976520541],[-81.1939969681541,41.5326229363514],[-81.1940002090951,41.5325945348309],[-81.1940493717492,41.5321637013497],[-81.1940818401273,41.5318791635494],[-81.19410750559,41.5316542437538]]]},"properties":{"source_county":"Geauga","jurisdiction":"Munson Township","parcel_id":"21-056800","owner_name":"FARLEY CAROL J","property_address":"12369 MAYFIELD RD","property_city":"CHARDON","property_zip":"44024"}},{"type":"Feature","geometry":{"type":"Polygon","coordinates":[[[-81.1936697137135,41.5322293809019],[-81.1936438199059,41.5322084957633],[-81.1936164862154,41.5322048931413],[-81.1935949436287,41.5321857048962],[-81.1934844079991,41.5321831413755],[-81.193515779758,41.5319046814889],[-81.1935349566429,41.5317344584726],[-81.19410750559,41.5316542437538],[-81.1940818401273,41.5318791635494],[-81.1940493717492,41.5321637013497],[-81.1938889323106,41.5322310241862],[-81.1938538107201,41.5322330999195],[-81.1938199495861,41.5322269528952],[-81.1937784166829,41.5322207195174],[-81.1937607491797,41.5322271105792],[-81.1937399240754,41.5322268761929],[-81.1937168923255,41.5322274409299],[-81.1936978001591,41.5322502907134],[-81.1936747836244,41.53225003165],[-81.1936697137135,41.5322293809019]]]},"properties":{"source_county":"Geauga","jurisdiction":"Munson Township","parcel_id":"21-056900","owner_name":"FARLEY CAROL J","property_address":" RAVENNA RD","property_city":"CHARDON","property_zip":"44024"}},{"type":"Feature","geometry":{"type":"Polygon","coordinates":[[[-81.1934289004192,41.5326758382578],[-81.1934844079991,41.5321831413755],[-81.1935949436287,41.5321857048962],[-81.1936164862154,41.5322048931413],[-81.1936438199059,41.5322084957633],[-81.1936697137135,41.5322293809019],[-81.1936747836244,41.53225003165],[-81.1936978001591,41.5322502907134],[-81.1937168923255,41.5322274409299],[-81.1937399240754,41.5322268761929],[-81.1937607491797,41.5322271105792],[-81.1937784166829,41.5322207195174],[-81.1938199495861,41.5322269528952],[-81.1938538107201,41.5322330999195],[-81.1938889323106,41.5322310241862],[-81.1940493717492,41.5321637013497],[-81.1940002090951,41.5325945348309],[-81.1939969681541,41.5326229363514],[-81.1934257013776,41.5327042294301],[-81.1934289004192,41.5326758382578]]]},"properties":{"source_county":"Geauga","jurisdiction":"Munson Township","parcel_id":"21-057000","owner_name":"FARLEY CAROL J","property_address":"12391 MAYFIELD RD","property_city":"CHARDON","property_zip":"44024"}},{"type":"Feature","geometry":{"type":"Polygon","coordinates":[[[-81.1907913463556,41.538780879836],[-81.1941809356662,41.5387456318966],[-81.1944365276278,41.5402736272497],[-81.1908054112242,41.5403314835954],[-81.1907973231766,41.5394398224264],[-81.1907913463556,41.538780879836]]]},"properties":{"source_county":"Geauga","jurisdiction":"Munson Township","parcel_id":"21-064200","owner_name":"BEST SAND CORPORATION","property_address":" RAVENNA RD","property_city":"CHARDON","property_zip":"44024"}},{"type":"Feature","geometry":{"type":"Polygon","coordinates":[[[-81.1962471355938,41.5465980891683],[-81.1962467335337,41.5465706472579],[-81.1954912343174,41.5465768965303],[-81.1954910197113,41.5465768986212],[-81.195472701174,41.5464674087288],[-81.1954729073729,41.546467407444],[-81.1966834807987,41.5464573903667],[-81.196685492375,41.5465944612407],[-81.1962471355938,41.5465980891683]]]},"properties":{"source_county":"Geauga","jurisdiction":"Munson Township","parcel_id":"21-077130","owner_name":"BEST SAND CORPORATION","property_address":" RAVENNA RD","property_city":"CHARDON","property_zip":"44024"}},{"type":"Feature","geometry":{"type":"Polygon","coordinates":[[[-81.1907655910935,41.5359413414788],[-81.1937386818561,41.535909162554],[-81.1937389382633,41.5359108493849],[-81.1938415430857,41.5365834109617],[-81.193853562546,41.5366621900431],[-81.1907724318173,41.5366955228914],[-81.1907655910935,41.5359413414788]]]},"properties":{"source_county":"Geauga","jurisdiction":"Munson Township","parcel_id":"21-080100","owner_name":"CENTERRA CO OP","property_address":"12285 RAVENNA RD","property_city":"CHARDON","property_zip":"44024"}},{"type":"Feature","geometry":{"type":"Polygon","coordinates":[[[-81.19458921554,41.5459800235148],[-81.1953901671771,41.5459741046072],[-81.195435725796,41.5462464052936],[-81.1946347953302,41.5462524787763],[-81.19458921554,41.5459800235148]]]},"properties":{"source_county":"Geauga","jurisdiction":"Munson Township","parcel_id":"21-084000","owner_name":"BEST SAND CORPORATION","property_address":" RAVENNA RD","property_city":"CHARDON","property_zip":"44024"}},{"type":"Feature","geometry":{"type":"Polygon","coordinates":[[[-81.1937882637402,41.5459859377968],[-81.19458921554,41.5459800235148],[-81.1946347953302,41.5462524787763],[-81.1938338659144,41.5462585467468],[-81.1937882637402,41.5459859377968]]]},"properties":{"source_county":"Geauga","jurisdiction":"Munson Township","parcel_id":"21-084100","owner_name":"BEST SAND CORPORATION","property_address":" RAVENNA RD","property_city":"CHARDON","property_zip":"44024"}},{"type":"Feature","geometry":{"type":"Polygon","coordinates":[[[-81.1965325338221,41.5313144639025],[-81.1985107251799,41.5310372515873],[-81.1985831891238,41.5318315333092],[-81.1985931588292,41.5319408107236],[-81.198595677232,41.5319684214562],[-81.1984808438785,41.5319847674461],[-81.19676313193,41.5322292635845],[-81.1967563272614,41.5322022692485],[-81.1966629774486,41.531831945942],[-81.1965325338221,41.5313144639025]]]},"properties":{"source_county":"Geauga","jurisdiction":"Munson Township","parcel_id":"21-084500","owner_name":"LIBERTY HOLDINGS MAYFIELD LLC","property_address":"12287 MAYFIELD RD","property_city":"CHARDON","property_zip":"44024"}},{"type":"Feature","geometry":{"type":"Polygon","coordinates":[[[-81.19180252364,41.5314580461327],[-81.1919381331823,41.531457864569],[-81.1920345427205,41.5319490024863],[-81.1921748030758,41.5326635097651],[-81.1921766974479,41.532847212841],[-81.1921769811986,41.5328747886484],[-81.1920732303373,41.532888958721],[-81.1918176263356,41.5329238695152],[-81.1918173417056,41.5328962252573],[-81.1918167659108,41.5328403036109],[-81.1918076516444,41.5319557600852],[-81.19180252364,41.5314580461327]]]},"properties":{"source_county":"Geauga","jurisdiction":"Munson Township","parcel_id":"21-084600","owner_name":"12451 MAYFIELD ROAD LLC","property_address":"12451 MAYFIELD RD","property_city":"CHARDON","property_zip":"44024"}},{"type":"Feature","geometry":{"type":"Polygon","coordinates":[[[-81.1946887851412,41.5315728033748],[-81.1965325338221,41.5313144639025],[-81.1966629774486,41.531831945942],[-81.1967563272614,41.5322022692485],[-81.19676313193,41.5322292635845],[-81.1949203540626,41.5324915305404],[-81.1949135534335,41.532464550544],[-81.1947605470973,41.5318575131357],[-81.1946887851412,41.5315728033748]]]},"properties":{"source_county":"Geauga","jurisdiction":"Munson Township","parcel_id":"21-084700","owner_name":"GTAL PROPERTIES LLC","property_address":"12349 MAYFIELD RD","property_city":"CHARDON","property_zip":"44024"}},{"type":"Feature","geometry":{"type":"Polygon","coordinates":[[[-81.1957867238544,41.5302814635904],[-81.1985240178817,41.5298633242061],[-81.1985107251799,41.5310372515873],[-81.1965325338221,41.5313144639025],[-81.1946887851412,41.5315728033748],[-81.19410750559,41.5316542437538],[-81.1935349566429,41.5317344584726],[-81.1935663658367,41.5314556621695],[-81.193611715275,41.5310531175178],[-81.1959060570046,41.5307221365438],[-81.1957867238544,41.5302814635904]]]},"properties":{"source_county":"Geauga","jurisdiction":"Munson Township","parcel_id":"21-084801","owner_name":"GTAL PROPERTIES LLC","property_address":" RAVENNA RD","property_city":"CHARDON","property_zip":"44024"}},{"type":"Feature","geometry":{"type":"Polygon","coordinates":[[[-81.1926948250573,41.5337501300867],[-81.1927569063771,41.5337491489981],[-81.1927688233286,41.5340267165626],[-81.192706738031,41.5340276435853],[-81.1926948250573,41.5337501300867]]]},"properties":{"source_county":"Geauga","jurisdiction":"Munson Township","parcel_id":"21-086500","owner_name":"WEST CLARIDON MANAGEMENT LLC","property_address":" RAVENNA RD","property_city":"CHARDON","property_zip":"44024"}},{"type":"Feature","geometry":{"type":"Polygon","coordinates":[[[-81.1927569063771,41.5337491489981],[-81.1934966633724,41.5337374658837],[-81.1935157636143,41.5340155635508],[-81.1927688233286,41.5340267165626],[-81.1927569063771,41.5337491489981]]]},"properties":{"source_county":"Geauga","jurisdiction":"Munson Township","parcel_id":"21-086600","owner_name":"WEST CLARIDON MANAGEMENT LLC","property_address":"12365 RAVENNA RD","property_city":"CHARDON","property_zip":"44024"}},{"type":"Feature","geometry":{"type":"Polygon","coordinates":[[[-81.1995884731932,41.5318270958957],[-81.1999152904582,41.5317805703592],[-81.1999160080832,41.5318083680025],[-81.1999164538585,41.5318256455949],[-81.1999366819183,41.532609291286],[-81.1999442063284,41.5329007782105],[-81.1999874988397,41.53457788025],[-81.1994715791477,41.5345827173281],[-81.1992013340919,41.5319101038097],[-81.199198553204,41.5318826027138],[-81.1995884731932,41.5318270958957]]]},"properties":{"source_county":"Geauga","jurisdiction":"Munson Township","parcel_id":"21-090400","owner_name":"PETERSEN HOLDINGS LLC","property_address":"12236 MAYFIELD RD","property_city":"CHARDON","property_zip":"44024"}},{"type":"Feature","geometry":{"type":"Polygon","coordinates":[[[-81.1975448742257,41.5454073403032],[-81.1979832230043,41.5454037056735],[-81.1979880612186,41.5457330068867],[-81.1975497114356,41.5457366415477],[-81.1975448742257,41.5454073403032]]]},"properties":{"source_county":"Geauga","jurisdiction":"Munson Township","parcel_id":"21-092800","owner_name":"BEST SAND CORPORATION","property_address":" YALE DR","property_city":"CHARDON","property_zip":"44024"}},{"type":"Feature","geometry":{"type":"Polygon","coordinates":[[[-81.1936735964466,41.5258819271815],[-81.1952656731666,41.525877286461],[-81.1952671163675,41.5262886628416],[-81.193673891419,41.5262955798604],[-81.1936735964466,41.5258819271815]]]},"properties":{"source_county":"Geauga","jurisdiction":"Munson Township","parcel_id":"21-105500","owner_name":"DE CIPEDA ELMER C & MARITES","property_address":"12626 RAVENNA RD","property_city":"CHARDON","property_zip":"44024"}},{"type":"Feature","geometry":{"type":"Polygon","coordinates":[[[-81.1971161954969,41.5460695739671],[-81.1975545475135,41.5460659418436],[-81.1975593848206,41.5463952430183],[-81.1971210294026,41.5463988751462],[-81.1971161954969,41.5460695739671]]]},"properties":{"source_county":"Geauga","jurisdiction":"Munson Township","parcel_id":"21-110800","owner_name":"BEST SAND CORPORATION","property_address":" YALE DR","property_city":"CHARDON","property_zip":"44024"}},{"type":"Feature","geometry":{"type":"Polygon","coordinates":[[[-81.1966730105611,41.5457439040903],[-81.1971113604234,41.5457402736399],[-81.1971161954969,41.5460695739671],[-81.1966778422333,41.5460732044219],[-81.1966730105611,41.5457439040903]]]},"properties":{"source_county":"Geauga","jurisdiction":"Munson Township","parcel_id":"21-116100","owner_name":"BEST SAND CORPORATION","property_address":" HARVARD DR","property_city":"CHARDON","property_zip":"44024"}},{"type":"Feature","geometry":{"type":"Polygon","coordinates":[[[-81.1966778422333,41.5460732044219],[-81.1971161954969,41.5460695739671],[-81.1971210294026,41.5463988751462],[-81.1966826751525,41.5464025047321],[-81.1966778422333,41.5460732044219]]]},"properties":{"source_county":"Geauga","jurisdiction":"Munson Township","parcel_id":"21-116200","owner_name":"BEST SAND CORPORATION","property_address":" YALE DR","property_city":"CHARDON","property_zip":"44024"}},{"type":"Feature","geometry":{"type":"Polygon","coordinates":[[[-81.1975497114356,41.5457366415477],[-81.1979880612186,41.5457330068867],[-81.1979929006799,41.5460623080784],[-81.1975545475135,41.5460659418436],[-81.1971161954969,41.5460695739671],[-81.1971113604234,41.5457402736399],[-81.1975497114356,41.5457366415477]]]},"properties":{"source_county":"Geauga","jurisdiction":"Munson Township","parcel_id":"21-120400","owner_name":"BEST SAND CORPORATION","property_address":" HARVARD DR","property_city":"CHARDON","property_zip":"44024"}},{"type":"Feature","geometry":{"type":"Polygon","coordinates":[[[-81.1908462799661,41.54483653105],[-81.1951907804022,41.5447823322613],[-81.1952434336577,41.5450970536218],[-81.1952984568031,41.5454259385453],[-81.1953534805009,41.5457548234082],[-81.1953901671771,41.5459741046072],[-81.19458921554,41.5459800235148],[-81.1937882637402,41.5459859377968],[-81.1938338659144,41.5462585467468],[-81.1908593845371,41.5462810327018],[-81.1908510057412,41.5453574804491],[-81.1908462799661,41.54483653105]]]},"properties":{"source_county":"Geauga","jurisdiction":"Munson Township","parcel_id":"21-128850","owner_name":"PETRONZIO MANAGEMENT COMPANY LLC","property_address":"11993 RAVENNA RD","property_city":"CHARDON","property_zip":"44024"}},{"type":"Feature","geometry":{"type":"Polygon","coordinates":[[[-81.1958962399821,41.5450916534354],[-81.1962250006409,41.5450889329687],[-81.196229830031,41.5454182324877],[-81.1960444082746,41.5454197671279],[-81.1959010689006,41.5454209538816],[-81.1958962399821,41.5450916534354]]]},"properties":{"source_county":"Geauga","jurisdiction":"Munson Township","parcel_id":"21-130200","owner_name":"BEST SAND CORPORATION","property_address":" RAVENNA RD","property_city":"CHARDON","property_zip":"44024"}},{"type":"Feature","geometry":{"type":"Polygon","coordinates":[[[-81.1952435247711,41.5450970528449],[-81.1958962399821,41.5450916534354],[-81.1959010689006,41.5454209538816],[-81.195298575498,41.5454259371779],[-81.1952984568031,41.5454259385453],[-81.1952434336577,41.5450970536218],[-81.1952435247711,41.5450970528449]]]},"properties":{"source_county":"Geauga","jurisdiction":"Munson Township","parcel_id":"21-130300","owner_name":"BEST SAND CORPORATION","property_address":" RAVENNA RD","property_city":"CHARDON","property_zip":"44024"}},{"type":"Feature","geometry":{"type":"Polygon","coordinates":[[[-81.198595677232,41.5319684214562],[-81.199198553204,41.5318826027138],[-81.1992013340919,41.5319101038097],[-81.1994715791477,41.5345827173281],[-81.1985482231631,41.5345913678546],[-81.1984815621849,41.5320125606083],[-81.1984808438785,41.5319847674461],[-81.198595677232,41.5319684214562]]]},"properties":{"source_county":"Geauga","jurisdiction":"Munson Township","parcel_id":"21-132500","owner_name":"JURGENS DALE E TOD & BARBARA E TOD","property_address":"12252 MAYFIELD RD","property_city":"CHARDON","property_zip":"44024"}},{"type":"Feature","geometry":{"type":"Polygon","coordinates":[[[-81.1906955550424,41.5258054764229],[-81.1936735253303,41.525782154563],[-81.1936735964466,41.5258819271815],[-81.193673891419,41.5262955798604],[-81.1908145095606,41.5263210530433],[-81.1906985148387,41.5263220848331],[-81.190696744607,41.526322100881],[-81.190696743682,41.5263219072612],[-81.1906944716048,41.5258054849108],[-81.1906955550424,41.5258054764229]]]},"properties":{"source_county":"Geauga","jurisdiction":"Munson Township","parcel_id":"21-136400","owner_name":"COLLIER CHERYL A & BRUCE R","property_address":"12637 RAVENNA RD","property_city":"CHARDON","property_zip":"44024"}},{"type":"Feature","geometry":{"type":"Polygon","coordinates":[[[-81.1920799860511,41.5419802585444],[-81.1947149886686,41.5419382586936],[-81.1949330090246,41.5432415187078],[-81.1920755460853,41.543275159048],[-81.1920799860511,41.5419802585444]]]},"properties":{"source_county":"Geauga","jurisdiction":"Munson Township","parcel_id":"21-136500","owner_name":"ALVORD S ACRES LLC","property_address":"12089 RAVENNA RD","property_city":"CHARDON","property_zip":"44024"}},{"type":"Feature","geometry":{"type":"Polygon","coordinates":[[[-81.1907790483552,41.5374250619624],[-81.1939646890752,41.5373905965835],[-81.1939784387182,41.5374807189466],[-81.1939966416185,41.5376000290504],[-81.1940273974353,41.537801624441],[-81.1907827694832,41.5378353633897],[-81.1907812311532,41.5376657610665],[-81.1907790483552,41.5374250619624]]]},"properties":{"source_county":"Geauga","jurisdiction":"Munson Township","parcel_id":"21-136600","owner_name":"ALVORD DANIEL W","property_address":"12241 RAVENNA RD","property_city":"CHARDON","property_zip":"44024"}},{"type":"Feature","geometry":{"type":"Polygon","coordinates":[[[-81.1907827694832,41.5378353633897],[-81.1940273974353,41.537801624441],[-81.19406833324,41.5380699338785],[-81.1907852076354,41.5381040728572],[-81.1907827694832,41.5378353633897]]]},"properties":{"source_county":"Geauga","jurisdiction":"Munson Township","parcel_id":"21-136601","owner_name":"ALVORD DANIEL W","property_address":" RAVENNA RD","property_city":"CHARDON","property_zip":"44024"}},{"type":"Feature","geometry":{"type":"Polygon","coordinates":[[[-81.1939784387182,41.5374807189466],[-81.1952054518447,41.537465239022],[-81.1952235864545,41.5375756916772],[-81.1953465879796,41.5383248668452],[-81.1953489584659,41.5385564420031],[-81.1941515416109,41.5385698991218],[-81.1941121943659,41.5383346669643],[-81.1940726814828,41.5380984387519],[-81.19406833324,41.5380699338785],[-81.1940273974353,41.537801624441],[-81.1939966416185,41.5376000290504],[-81.1939784387182,41.5374807189466]]]},"properties":{"source_county":"Geauga","jurisdiction":"Munson Township","parcel_id":"21-136700","owner_name":"BEST SAND CORPORATION","property_address":" RAVENNA RD","property_city":"CHARDON","property_zip":"44024"}},{"type":"Feature","geometry":{"type":"Polygon","coordinates":[[[-81.1955185549267,41.546741476732],[-81.1954910197113,41.5465768986212],[-81.1954912343174,41.5465768965303],[-81.1962467335337,41.5465706472579],[-81.1962471355938,41.5465980891683],[-81.196685492375,41.5465944612407],[-81.1966875069218,41.5467318049939],[-81.1955187839143,41.5467414748027],[-81.1955185549267,41.546741476732]]]},"properties":{"source_county":"Geauga","jurisdiction":"Munson Township","parcel_id":"21-139500","owner_name":"BEST SAND CORPORATION","property_address":" RAVENNA RD","property_city":"CHARDON","property_zip":"44024"}},{"type":"Feature","geometry":{"type":"Polygon","coordinates":[[[-81.1939969681541,41.5326229363514],[-81.1941746466083,41.5325976520541],[-81.1941765006956,41.532625310354],[-81.1942129088516,41.5331685127165],[-81.1934649018441,41.5332750145061],[-81.1934276006461,41.5327318900542],[-81.1934257013776,41.5327042294301],[-81.1939969681541,41.5326229363514]]]},"properties":{"source_county":"Geauga","jurisdiction":"Munson Township","parcel_id":"21-153300","owner_name":"MAITHU & PAVAN INC","property_address":"12388 MAYFIELD RD","property_city":"CHARDON","property_zip":"44024"}},{"type":"Feature","geometry":{"type":"Polygon","coordinates":[[[-81.1907876123629,41.538369237536],[-81.1941121943659,41.5383346669643],[-81.1941515416109,41.5385698991218],[-81.1941809356662,41.5387456318966],[-81.1907913463556,41.538780879836],[-81.1907876149653,41.5383694671942],[-81.1907876123629,41.538369237536]]]},"properties":{"source_county":"Geauga","jurisdiction":"Munson Township","parcel_id":"21-158500","owner_name":"BEST SAND CORPORATION","property_address":"12209 RAVENNA RD","property_city":"CHARDON","property_zip":"44024"}},{"type":"Feature","geometry":{"type":"Polygon","coordinates":[[[-81.1907852076354,41.5381040728572],[-81.19406833324,41.5380699338785],[-81.1940726814828,41.5380984387519],[-81.1941121943659,41.5383346669643],[-81.1907876123629,41.538369237536],[-81.1907852076354,41.5381040728572]]]},"properties":{"source_county":"Geauga","jurisdiction":"Munson Township","parcel_id":"21-158501","owner_name":"BEST SAND CORPORATION","property_address":" RAVENNA RD","property_city":"CHARDON","property_zip":"44024"}},{"type":"Feature","geometry":{"type":"Polygon","coordinates":[[[-81.1988647618013,41.5457257344132],[-81.1993031126188,41.5457220957004],[-81.1993079574725,41.5460513977253],[-81.1988696056504,41.5460550364694],[-81.1988647618013,41.5457257344132]]]},"properties":{"source_county":"Geauga","jurisdiction":"Munson Township","parcel_id":"21-162700","owner_name":"BEST SAND CORPORATION","property_address":" HARVARD DR","property_city":"CHARDON","property_zip":"44024"}},{"type":"Feature","geometry":{"type":"Polygon","coordinates":[[[-81.1908370241691,41.5438163993687],[-81.1950204491423,41.5437642000956],[-81.1951202762527,41.5443609050127],[-81.1951235474197,41.5443804610826],[-81.1951460454144,41.5445149402221],[-81.1951460958031,41.5445152388549],[-81.1951907804022,41.5447823322613],[-81.1908462799661,41.54483653105],[-81.1908423770472,41.5444063750995],[-81.1908370241691,41.5438163993687]]]},"properties":{"source_county":"Geauga","jurisdiction":"Munson Township","parcel_id":"21-171200","owner_name":"PERFETTO LLC","property_address":"12021 RAVENNA RD","property_city":"CHARDON","property_zip":"44024"}},{"type":"Feature","geometry":{"type":"Polygon","coordinates":[[[-81.1979880612186,41.5457330068867],[-81.1984264121335,41.5457293714842],[-81.1984312525814,41.5460586735449],[-81.1979929006799,41.5460623080784],[-81.1979880612186,41.5457330068867]]]},"properties":{"source_county":"Geauga","jurisdiction":"Munson Township","parcel_id":"21-173230","owner_name":"BEST SAND CORPORATION","property_address":" HARVARD DR","property_city":"CHARDON","property_zip":"44024"}},{"type":"Feature","geometry":{"type":"Polygon","coordinates":[[[-81.1908054112242,41.5403314835954],[-81.1944365276278,41.5402736272497],[-81.1944800925206,41.5405340666446],[-81.1945605788367,41.5410152196086],[-81.1946220684908,41.5413827988876],[-81.1946920939627,41.5418014002509],[-81.1908193045467,41.5418631119226],[-81.1908142427166,41.5413050789783],[-81.1908119086404,41.5410477650441],[-81.1908054112242,41.5403314835954]]]},"properties":{"source_county":"Geauga","jurisdiction":"Munson Township","parcel_id":"21-176356","owner_name":"BEST SAND CORPORATION","property_address":" RAVENNA RD","property_city":"CHARDON","property_zip":"44024"}},{"type":"Feature","geometry":{"type":"MultiPolygon","coordinates":[[[[-81.1941515416109,41.5385698991218],[-81.1953489584659,41.5385564420031],[-81.1953690586337,41.5405198290986],[-81.1944800925206,41.5405340666446],[-81.1944365276278,41.5402736272497],[-81.1941809356662,41.5387456318966],[-81.1941515416109,41.5385698991218]]],[[[-81.1938415430857,41.5365834109617],[-81.1950586321855,41.5365709638561],[-81.1952054518447,41.537465239022],[-81.1939784387182,41.5374807189466],[-81.1939646890752,41.5373905965835],[-81.193853562546,41.5366621900431],[-81.1938415430857,41.5365834109617]]]]},"properties":{"source_county":"Geauga","jurisdiction":"Munson Township","parcel_id":"21-176358","owner_name":"BEST SAND CORPORATION","property_address":" RAVENNA RD","property_city":"CHARDON","property_zip":"44024"}},{"type":"Feature","geometry":{"type":"Polygon","coordinates":[[[-81.1915455012479,41.5314583914411],[-81.19180252364,41.5314580461327],[-81.1918076516444,41.5319557600852],[-81.1918167659108,41.5328403036109],[-81.1916440878174,41.5319606313948],[-81.1915455012479,41.5314583914411]]]},"properties":{"source_county":"Geauga","jurisdiction":"Munson Township","parcel_id":"21-176366","owner_name":"12451 MAYFIELD ROAD LLC","property_address":" MAYFIELD RD","property_city":"CHARDON","property_zip":"44024"}},{"type":"Feature","geometry":{"type":"Polygon","coordinates":[[[-81.1921766974479,41.532847212841],[-81.1921748030758,41.5326635097651],[-81.1922099738696,41.5328426737454],[-81.1922152520667,41.5328695611117],[-81.1921769811986,41.5328747886484],[-81.1921766974479,41.532847212841]]]},"properties":{"source_county":"Geauga","jurisdiction":"Munson Township","parcel_id":"21-176367","owner_name":"12451 MAYFIELD ROAD LLC","property_address":" MAYFIELD RD","property_city":"CHARDON","property_zip":"44024"}},{"type":"Feature","geometry":{"type":"Polygon","coordinates":[[[-81.1908193045467,41.5418631119226],[-81.1946920939627,41.5418014002509],[-81.1947149886686,41.5419382586936],[-81.1920799860511,41.5419802585444],[-81.1920755460853,41.543275159048],[-81.1908322473087,41.5432897993731],[-81.190823833798,41.5423623232396],[-81.1908193045467,41.5418631119226]]]},"properties":{"source_county":"Geauga","jurisdiction":"Munson Township","parcel_id":"21-176381","owner_name":"ALVORD WILLIAM TOD & DAWN M TOD","property_address":"12097 RAVENNA RD","property_city":"CHARDON","property_zip":"44024"}},{"type":"Feature","geometry":{"type":"Polygon","coordinates":[[[-81.1977380413715,41.5477814858146],[-81.2010112623719,41.5475924000486],[-81.201018161768,41.5480592581904],[-81.1977844633944,41.5480861040701],[-81.1977380413715,41.5477814858146]]]},"properties":{"source_county":"Geauga","jurisdiction":"Munson Township","parcel_id":"21-176537","owner_name":"BEST SAND CORPORATION","property_address":" RAVENNA RD","property_city":"CHARDON","property_zip":"44024"}},{"type":"Feature","geometry":{"type":"Polygon","coordinates":[[[-81.1973450433898,41.5467263595376],[-81.2009980153688,41.5466960398148],[-81.2010112623719,41.5475924000486],[-81.1977380413715,41.5477814858146],[-81.1977844633944,41.5480861040701],[-81.1975728787341,41.5480878574343],[-81.1973450433898,41.5467263595376]]]},"properties":{"source_county":"Geauga","jurisdiction":"Munson Township","parcel_id":"21-176538","owner_name":"BEST SAND CORPORATION","property_address":" RAVENNA RD","property_city":"CHARDON","property_zip":"44024"}},{"type":"Feature","geometry":{"type":"Polygon","coordinates":[[[-81.1936742305621,41.5303861493447],[-81.1957867238544,41.5302814635904],[-81.1959060570046,41.5307221365438],[-81.193611715275,41.5310531175178],[-81.1936742394176,41.5304981229875],[-81.1936742305621,41.5303861493447]]]},"properties":{"source_county":"Geauga","jurisdiction":"Munson Township","parcel_id":"21-176550","owner_name":"ANDERSON JAMES J TOD & ELIZABETH JEAN TOD","property_address":"12480 RAVENNA RD","property_city":"CHARDON","property_zip":"44024"}},{"type":"Feature","geometry":{"type":"Polygon","coordinates":[[[-81.1957867238544,41.5302814635904],[-81.1957866611317,41.5297325742752],[-81.1936741855142,41.5298372609469],[-81.1936741836032,41.5298180594109],[-81.1936741272944,41.529131948776],[-81.1985345679942,41.5289316190535],[-81.1985240178817,41.5298633242061],[-81.1957867238544,41.5302814635904]]]},"properties":{"source_county":"Geauga","jurisdiction":"Munson Township","parcel_id":"21-176561","owner_name":"WASCO FRANK A","property_address":"12520 RAVENNA RD","property_city":"CHARDON","property_zip":"44024"}},{"type":"Feature","geometry":{"type":"Polygon","coordinates":[[[-81.199764174855,41.5247875849946],[-81.1997893218487,41.5247858442102],[-81.1999787772356,41.5262426185381],[-81.1985648565871,41.5262564559041],[-81.198386293779,41.5262582020793],[-81.1982213145632,41.5249956471158],[-81.1982961986892,41.5249891431778],[-81.1983707407959,41.5249807073802],[-81.1984448526589,41.524970349707],[-81.1985184465632,41.5249580824172],[-81.1986719885292,41.5249287059659],[-81.1988262726998,41.5249016146942],[-81.1989812388631,41.5248768191752],[-81.1991368265411,41.5248543290854],[-81.1992929750134,41.524834153202],[-81.1994496233409,41.5248162993987],[-81.1996067103898,41.5248007746434],[-81.199764174855,41.5247875849946]]]},"properties":{"source_county":"Geauga","jurisdiction":"Munson Township","parcel_id":"21-176871","owner_name":"SEREDICH MICHAEL SR TOD & KIM MARIE TOD","property_address":"12250 WATERFOWL LN","property_city":"CHARDON","property_zip":"44024"}},{"type":"Feature","geometry":{"type":"Polygon","coordinates":[[[-81.1962292106928,41.5262792763465],[-81.1970961030608,41.5248544231991],[-81.1972291807392,41.5248962246228],[-81.1973656296545,41.524931356109],[-81.1975048585811,41.524959665434],[-81.1976462642448,41.524981029934],[-81.1977892339379,41.5249953570368],[-81.1979331481738,41.5250025846632],[-81.1980773833726,41.5250026814961],[-81.1982213145632,41.5249956471158],[-81.198386293779,41.5262582020793],[-81.1962292106928,41.5262792763465]]]},"properties":{"source_county":"Geauga","jurisdiction":"Munson Township","parcel_id":"21-176872","owner_name":"TURKISH MICHAEL E & LANESE TURKISH THERESE A CO TRUSTEES","property_address":"12290 WATERFOWL LN","property_city":"CHARDON","property_zip":"44024"}},{"type":"Feature","geometry":{"type":"Polygon","coordinates":[[[-81.1907189136254,41.5298167565942],[-81.1936741836032,41.5298180594109],[-81.1936741855142,41.5298372609469],[-81.1936742305621,41.5303861493447],[-81.1936742394176,41.5304981229875],[-81.193611715275,41.5310531175178],[-81.1935663658367,41.5314556621695],[-81.1919381331823,41.531457864569],[-81.19180252364,41.5314580461327],[-81.1915455012479,41.5314583914411],[-81.1910828288214,41.5314590113798],[-81.1907293331315,41.53145948429],[-81.1907189136254,41.5298167565942]]]},"properties":{"source_county":"Geauga","jurisdiction":"Munson Township","parcel_id":"21-177010","owner_name":"JAS REAL ESTATE HOLDINGS LLC","property_address":"12423 RAVENNA RD","property_city":"CHARDON","property_zip":"44024"}},{"type":"Feature","geometry":{"type":"Polygon","coordinates":[[[-81.1936741855142,41.5298372609469],[-81.1957866611317,41.5297325742752],[-81.1957867238544,41.5302814635904],[-81.1936742305621,41.5303861493447],[-81.1936741855142,41.5298372609469]]]},"properties":{"source_county":"Geauga","jurisdiction":"Munson Township","parcel_id":"21-177011","owner_name":"WEST CLARIDON MANAGEMENT LLC","property_address":" RAVENNA RD","property_city":"CHARDON","property_zip":"44024"}},{"type":"Feature","geometry":{"type":"Polygon","coordinates":[[[-81.1918176263356,41.5329238695152],[-81.1920732303373,41.532888958721],[-81.1920750475059,41.5329168615836],[-81.1921938812847,41.5347411648711],[-81.1922368102004,41.5354001687425],[-81.1907605605969,41.535386703633],[-81.1907549014767,41.5347627016088],[-81.1907548561682,41.5347577113927],[-81.1907460675978,41.5337886520974],[-81.1907471286718,41.5337886298476],[-81.1907474176314,41.5337886232017],[-81.1908008455244,41.5337874969151],[-81.1907945331564,41.5330915061097],[-81.1907942799218,41.5330636316704],[-81.191098916193,41.5330220279223],[-81.1918176263356,41.5329238695152]]]},"properties":{"source_county":"Geauga","jurisdiction":"Munson Township","parcel_id":"21-177013","owner_name":"BABCOCK EDWARD M TRUSTEE","property_address":" MAYFIELD RD","property_city":"CHARDON","property_zip":"44024"}},{"type":"Feature","geometry":{"type":"Polygon","coordinates":[[[-81.1907724318173,41.5366955228914],[-81.193853562546,41.5366621900431],[-81.1939646890752,41.5373905965835],[-81.1907790483552,41.5374250619624],[-81.1907724318173,41.5366955228914]]]},"properties":{"source_county":"Geauga","jurisdiction":"Munson Township","parcel_id":"21-177099","owner_name":"AD MOR PROPERTIES LTD","property_address":"12255 RAVENNA RD","property_city":"CHARDON","property_zip":"44024"}},{"type":"Feature","geometry":{"type":"Polygon","coordinates":[[[-81.1922368102004,41.5354001687425],[-81.1936597041627,41.5354131289174],[-81.1937386818561,41.535909162554],[-81.1907655910935,41.5359413414788],[-81.1907605605969,41.535386703633],[-81.1922368102004,41.5354001687425]]]},"properties":{"source_county":"Geauga","jurisdiction":"Munson Township","parcel_id":"21-177185","owner_name":"BABCOCK EDWARD M TRUSTEE","property_address":" RAVENNA RD","property_city":"CHARDON","property_zip":"44024"}},{"type":"Feature","geometry":{"type":"Polygon","coordinates":[[[-81.19676313193,41.5322292635845],[-81.1984808438785,41.5319847674461],[-81.1984815621849,41.5320125606083],[-81.1985482231631,41.5345913678546],[-81.1980807948332,41.5358621671745],[-81.1937389382633,41.5359108493849],[-81.1937386818561,41.535909162554],[-81.1936597041627,41.5354131289174],[-81.1935753712475,41.5348834549978],[-81.193564514988,41.5347253876878],[-81.1935157636143,41.5340155635508],[-81.1934966633724,41.5337374658837],[-81.1934649018441,41.5332750145061],[-81.1942129088516,41.5331685127165],[-81.1941765006956,41.532625310354],[-81.1941746466083,41.5325976520541],[-81.1949203540626,41.5324915305404],[-81.19676313193,41.5322292635845]]]},"properties":{"source_county":"Geauga","jurisdiction":"Munson Township","parcel_id":"21-177256","owner_name":"BABCOCK EDWARD M TRUSTEE","property_address":" RAVENNA RD","property_city":"CHARDON","property_zip":"44024"}},{"type":"Feature","geometry":{"type":"Polygon","coordinates":[[[-81.1954637309768,41.5464125907127],[-81.1966826751525,41.5464025047321],[-81.1966834807987,41.5464573903667],[-81.1954729073729,41.546467407444],[-81.195472701174,41.5464674087288],[-81.1954635295717,41.5464125920514],[-81.1954637309768,41.5464125907127]]]},"properties":{"source_county":"Geauga","jurisdiction":"Munson Township","parcel_id":"21-177280","owner_name":"BEST SAND CORPORATION","property_address":" RAVENNA RD","property_city":"CHARDON","property_zip":"44024"}},{"type":"Feature","geometry":{"type":"Polygon","coordinates":[[[-81.1907129277984,41.528837629995],[-81.1936741008763,41.5288186241266],[-81.1936741272944,41.529131948776],[-81.1936741836032,41.5298180594109],[-81.1907189136254,41.5298167565942],[-81.1907150346689,41.5292054238769],[-81.1907127012873,41.5288376310416],[-81.1907129277984,41.528837629995]]]},"properties":{"source_county":"Geauga","jurisdiction":"Munson Township","parcel_id":"21-177307","owner_name":"WEST CLARIDON MANAGEMENT LLC","property_address":" RAVENNA RD","property_city":"CHARDON","property_zip":"44024"}},{"type":"Feature","geometry":{"type":"Polygon","coordinates":[[[-81.1907293331315,41.53145948429],[-81.1910828288214,41.5314590113798],[-81.1910881622281,41.5319771872604],[-81.1910986297885,41.5329942476636],[-81.191098916193,41.5330220279223],[-81.1907942799218,41.5330636316704],[-81.1907416687423,41.5330708167647],[-81.1907410967053,41.5330708958598],[-81.1907395597332,41.5330711045488],[-81.1907393829708,41.5330432426782],[-81.1907324486394,41.5319503300241],[-81.1907303549576,41.5316200751521],[-81.1907293331315,41.53145948429]]]},"properties":{"source_county":"Geauga","jurisdiction":"Munson Township","parcel_id":"21-600027","owner_name":"CLEVELAND ELECTRIC ILLUMINATING COMPANY","property_address":"12471 MAYFIELD RD","property_city":"CHARDON","property_zip":"44024"}},{"type":"Feature","geometry":{"type":"Polygon","coordinates":[[[-81.1920755460853,41.543275159048],[-81.1949330090246,41.5432415187078],[-81.1949540109389,41.5433670625392],[-81.1950204491423,41.5437642000956],[-81.1908370241691,41.5438163993687],[-81.1908322473087,41.5432897993731],[-81.1920755460853,41.543275159048]]]},"properties":{"source_county":"Geauga","jurisdiction":"Munson Township","parcel_id":"21-703249","owner_name":"WOMENSAFE INC","property_address":"12041 RAVENNA RD","property_city":"CHARDON","property_zip":"44024"}},{"type":"Feature","geometry":{"type":"Polygon","coordinates":[[[-81.1938690795677,41.5264243279767],[-81.1957863443825,41.5264120975561],[-81.195786632089,41.528897662585],[-81.1938692998514,41.5289766674841],[-81.1938690795677,41.5264243279767]]]},"properties":{"source_county":"Geauga","jurisdiction":"Munson Township","parcel_id":"21-703256","owner_name":"MORNINGSTAR EVANGELICAL FRIENDS CHURCH","property_address":"12550 RAVENNA RD","property_city":"CHARDON","property_zip":"44024"}},{"type":"Feature","geometry":{"type":"Polygon","coordinates":[[[-81.1921938812863,41.534741164874],[-81.1920750475075,41.5329168615864],[-81.1920732303389,41.5328889587239],[-81.1921769812002,41.5328747886512],[-81.1922152520683,41.5328695611145],[-81.1933472841806,41.5327149406289],[-81.1934257013792,41.5327042294329],[-81.1934276006478,41.532731890057],[-81.1934649018458,41.5332750145089],[-81.1934966633741,41.5337374658865],[-81.1927569063788,41.5337491490009],[-81.192694825059,41.5337501300895],[-81.1927067380327,41.5340276435881],[-81.1927688233303,41.5340267165654],[-81.193515763616,41.5340155635536],[-81.1935645149896,41.5347253876906],[-81.1935753712491,41.5348834550007],[-81.1936597041643,41.5354131289202],[-81.1922368102021,41.5354001687453],[-81.1921938812863,41.534741164874]]]},"properties":{"source_county":"Geauga","jurisdiction":"Munson Township","parcel_id":"21-004200","owner_name":"BABCOCK EDWARD M TRUSTEE","property_address":"12408 MAYFIELD RD","property_city":"CHARDON","property_zip":"44024"}},{"type":"Feature","geometry":{"type":"Polygon","coordinates":[[[-81.191938133184,41.5314578645718],[-81.1935663658384,41.5314556621723],[-81.1935349566446,41.5317344584754],[-81.1935157797597,41.5319046814917],[-81.1934844080008,41.5321831413784],[-81.1934289004208,41.5326758382606],[-81.1934257013792,41.5327042294329],[-81.1933472841806,41.5327149406289],[-81.1922152520683,41.5328695611145],[-81.1922099738712,41.5328426737482],[-81.1921748030775,41.5326635097679],[-81.1920345427222,41.5319490024891],[-81.191938133184,41.5314578645718]]]},"properties":{"source_county":"Geauga","jurisdiction":"Munson Township","parcel_id":"21-004300","owner_name":"JAS REAL ESTATE HOLDINGS LLC","property_address":"12423 MAYFIELD RD","property_city":"CHARDON","property_zip":"44024"}},{"type":"Feature","geometry":{"type":"Polygon","coordinates":[[[-81.1910828288231,41.5314590113827],[-81.1915455012495,41.5314583914439],[-81.191644087819,41.5319606313977],[-81.1918167659125,41.5328403036138],[-81.1918173417072,41.5328962252601],[-81.1918176263372,41.532923869518],[-81.1910989161946,41.5330220279252],[-81.1910986297902,41.5329942476664],[-81.1910881622298,41.5319771872633],[-81.1910828288231,41.5314590113827]]]},"properties":{"source_county":"Geauga","jurisdiction":"Munson Township","parcel_id":"21-004400","owner_name":"JBS REAL ESTATE HOLDINGS LLC","property_address":"12461 MAYFIELD RD","property_city":"CHARDON","property_zip":"44024"}},{"type":"Feature","geometry":{"type":"Polygon","coordinates":[[[-81.1907416687439,41.5330708167676],[-81.1907942799234,41.5330636316731],[-81.1907945331582,41.5330915061125],[-81.1908008455261,41.5337874969179],[-81.1907474176331,41.5337886232045],[-81.1907471286735,41.5337886298505],[-81.1907460675995,41.5337886521002],[-81.1907398131442,41.5330989690877],[-81.1907395597349,41.5330711045516],[-81.190741096707,41.5330708958627],[-81.1907416687439,41.5330708167676]]]},"properties":{"source_county":"Geauga","jurisdiction":"Munson Township","parcel_id":"21-004500","owner_name":"WEST CLARIDON MANAGEMENT LLC","property_address":" MAYFIELD RD","property_city":"CHARDON","property_zip":"44024"}},{"type":"Feature","geometry":{"type":"Polygon","coordinates":[[[-81.1908145095623,41.5263210530461],[-81.1936738914207,41.5262955798632],[-81.1936738913518,41.5263002724105],[-81.1936741008779,41.5288186241295],[-81.1907129278001,41.5288376299978],[-81.190712701289,41.5288376310444],[-81.1906967446087,41.5263221008839],[-81.1906985148404,41.5263220848359],[-81.1908145095623,41.5263210530461]]]},"properties":{"source_county":"Geauga","jurisdiction":"Munson Township","parcel_id":"21-004600","owner_name":"REID TRACY A & BRINDO REBECCA CO TRUSTEES","property_address":" RAVENNA RD","property_city":"CHARDON","property_zip":"44024"}},{"type":"Feature","geometry":{"type":"Polygon","coordinates":[[[-81.193674127296,41.5291319487788],[-81.1936741008779,41.5288186241295],[-81.1936738913518,41.5263002724105],[-81.1936738914207,41.5262955798632],[-81.1952671163692,41.5262886628445],[-81.1962292106944,41.5262792763493],[-81.1983862937807,41.5262582020822],[-81.1985648565888,41.526256455907],[-81.1985345679958,41.5289316190564],[-81.193674127296,41.5291319487788]],[[-81.1957866320907,41.5288976625878],[-81.1957863443841,41.526412097559],[-81.1938690795693,41.5264243279795],[-81.1938692998531,41.5289766674869],[-81.1957866320907,41.5288976625878]]]},"properties":{"source_county":"Geauga","jurisdiction":"Munson Township","parcel_id":"21-014900","owner_name":"MORNINGSTAR EVANGELICAL FRIENDS CHURCH","property_address":"12550 RAVENNA RD","property_city":"CHARDON","property_zip":"44024"}},{"type":"Feature","geometry":{"type":"Polygon","coordinates":[[[-81.1962298300327,41.5454182324906],[-81.1966681777407,41.5454146037131],[-81.1966730105628,41.5457439040932],[-81.1960492379636,41.5457490675361],[-81.1960444082762,41.5454197671307],[-81.1962298300327,41.5454182324906]]]},"properties":{"source_county":"Geauga","jurisdiction":"Munson Township","parcel_id":"21-015900","owner_name":"BEST SAND CORPORATION","property_address":" HARVARD DR","property_city":"CHARDON","property_zip":"44024"}},{"type":"Feature","geometry":{"type":"Polygon","coordinates":[[[-81.1959010689023,41.5454209538844],[-81.1960444082762,41.5454197671307],[-81.1960492379636,41.5457490675361],[-81.1953536267613,41.5457548223532],[-81.1953534805026,41.545754823411],[-81.1952984568048,41.5454259385481],[-81.1952985754997,41.5454259371807],[-81.1959010689023,41.5454209538844]]]},"properties":{"source_county":"Geauga","jurisdiction":"Munson Township","parcel_id":"21-016000","owner_name":"BEST SAND CORPORATION","property_address":" RAVENNA RD","property_city":"CHARDON","property_zip":"44024"}},{"type":"Feature","geometry":{"type":"Polygon","coordinates":[[[-81.1988599192009,41.5453964323383],[-81.2009785997736,41.5453788275344],[-81.2009834541854,41.5457081313395],[-81.1993031126206,41.5457220957032],[-81.198864761803,41.545725734416],[-81.1988599192009,41.5453964323383]]]},"properties":{"source_county":"Geauga","jurisdiction":"Munson Township","parcel_id":"21-016800","owner_name":"BEST SAND CORPORATION","property_address":" HARVARD DR","property_city":"CHARDON","property_zip":"44024"}},{"type":"Feature","geometry":{"type":"Polygon","coordinates":[[[-81.1988550754313,41.5450671311125],[-81.200973746591,41.5450495246081],[-81.2009785997736,41.5453788275344],[-81.1988599192009,41.5453964323383],[-81.1988550754313,41.5450671311125]]]},"properties":{"source_county":"Geauga","jurisdiction":"Munson Township","parcel_id":"21-016900","owner_name":"BEST SAND CORPORATION","property_address":" RAVENNA RD","property_city":"CHARDON","property_zip":"44024"}},{"type":"Feature","geometry":{"type":"Polygon","coordinates":[[[-81.1946220684925,41.5413827988904],[-81.195221345003,41.541373240315],[-81.1959050754197,41.5416698171421],[-81.1960297890379,41.5432695771659],[-81.1949540109406,41.5433670625421],[-81.1949330090262,41.5432415187106],[-81.1947149886702,41.5419382586964],[-81.1946920939644,41.5418014002537],[-81.1946220684925,41.5413827988904]]]},"properties":{"source_county":"Geauga","jurisdiction":"Munson Township","parcel_id":"21-017000","owner_name":"BEST SAND CORPORATION","property_address":" RAVENNA RD","property_city":"CHARDON","property_zip":"44024"}},{"type":"Feature","geometry":{"type":"MultiPolygon","coordinates":[[[[-81.1966834808004,41.5464573903695],[-81.1966826751542,41.546402504735],[-81.1971210294043,41.5463988751491],[-81.1975593848222,41.5463952430212],[-81.1975545475152,41.5460659418464],[-81.1979929006815,41.5460623080813],[-81.198431252583,41.5460586735478],[-81.1988696056521,41.5460550364722],[-81.1993079574741,41.5460513977281],[-81.1993031126206,41.5457220957032],[-81.2009834541854,41.5457081313395],[-81.2009883074655,41.546037434196],[-81.2009931619928,41.546366737031],[-81.2009980153705,41.5466960398177],[-81.1973450433915,41.5467263595404],[-81.1966875069235,41.5467318049967],[-81.1966854923766,41.5465944612436],[-81.1966834808004,41.5464573903695]]],[[[-81.1971113604251,41.5457402736427],[-81.1966730105628,41.5457439040932],[-81.1966681777407,41.5454146037131],[-81.1962298300327,41.5454182324906],[-81.1962250006426,41.5450889329716],[-81.1988550754313,41.5450671311125],[-81.1988599192009,41.5453964323383],[-81.198864761803,41.545725734416],[-81.1984264121351,41.5457293714871],[-81.1979880612202,41.5457330068895],[-81.197983223006,41.5454037056763],[-81.1975448742275,41.545407340306],[-81.1975497114372,41.5457366415506],[-81.1971113604251,41.5457402736427]]],[[[-81.1966826751542,41.546402504735],[-81.1954637309785,41.5464125907155],[-81.1954635295733,41.5464125920542],[-81.1954357257977,41.5462464052964],[-81.1953901671788,41.5459741046101],[-81.1953534805026,41.545754823411],[-81.1953536267613,41.5457548223532],[-81.1960492379636,41.5457490675361],[-81.1966730105628,41.5457439040932],[-81.196677842235,41.5460732044248],[-81.1966826751542,41.546402504735]]]]},"properties":{"source_county":"Geauga","jurisdiction":"Munson Township","parcel_id":"21-017155","owner_name":"BEST SAND CORPORATION","property_address":" HARVARD DR","property_city":"CHARDON","property_zip":"44024"}},{"type":"Feature","geometry":{"type":"Polygon","coordinates":[[[-81.1966875069235,41.5467318049967],[-81.1973450433915,41.5467263595404],[-81.1975728787358,41.5480878574371],[-81.1957466952502,41.5481029757579],[-81.1957463535682,41.5481029782226],[-81.1955185549283,41.5467414767348],[-81.195518783916,41.5467414748055],[-81.1966875069235,41.5467318049967]]]},"properties":{"source_county":"Geauga","jurisdiction":"Munson Township","parcel_id":"21-031500","owner_name":"BEST SAND CORPORATION","property_address":" RAVENNA RD","property_city":"CHARDON","property_zip":"44024"}},{"type":"Feature","geometry":{"type":"Polygon","coordinates":[[[-81.1936723578318,41.5250274694342],[-81.1952626762341,41.5250228308059],[-81.1952641207603,41.5254344999775],[-81.1936730972788,41.5254391425069],[-81.1936728416682,41.5252345846331],[-81.1936723578318,41.5250274694342]]]},"properties":{"source_county":"Geauga","jurisdiction":"Munson Township","parcel_id":"21-038750","owner_name":"SHREWSBURY SHERIE BURKLEY TRUSTEE","property_address":"12666 RAVENNA RD","property_city":"CHARDON","property_zip":"44024"}},{"type":"Feature","geometry":{"type":"Polygon","coordinates":[[[-81.1942783587827,41.5482820920162],[-81.1957645755041,41.5482118869957],[-81.1958620153511,41.5487942472812],[-81.1943759124055,41.5488646431677],[-81.1942783587827,41.5482820920162]]]},"properties":{"source_county":"Geauga","jurisdiction":"Munson Township","parcel_id":"21-043100","owner_name":"BEST SAND CORPORATION","property_address":"11873 RAVENNA RD","property_city":"CHARDON","property_zip":"44024"}},{"type":"Feature","geometry":{"type":"Polygon","coordinates":[[[-81.1909011721082,41.550886535492],[-81.1908763556905,41.548151617587],[-81.190867128133,41.5471345859495],[-81.1908593845388,41.5462810327047],[-81.1938338659161,41.5462585467497],[-81.1946347953319,41.5462524787791],[-81.1954357257977,41.5462464052964],[-81.1954635295733,41.5464125920542],[-81.1954727011756,41.5464674087317],[-81.195491019713,41.546576898624],[-81.1955185549283,41.5467414767348],[-81.1957463535682,41.5481029782226],[-81.1957645755041,41.5482118869957],[-81.1942783587827,41.5482820920162],[-81.1943759124055,41.5488646431677],[-81.1958620153511,41.5487942472812],[-81.1961066179322,41.5502560885891],[-81.1961673127352,41.5506188193495],[-81.196212877814,41.5508911193248],[-81.1962584420552,41.5511634201454],[-81.190904306585,41.551231966298],[-81.1909011721082,41.550886535492]]]},"properties":{"source_county":"Geauga","jurisdiction":"Munson Township","parcel_id":"21-047510","owner_name":"BEST SAND CORPORATION","property_address":"11833 RAVENNA RD","property_city":"CHARDON","property_zip":"44024"}},{"type":"Feature","geometry":{"type":"Polygon","coordinates":[[[-81.1916843459042,41.5252484008922],[-81.1936728416682,41.5252345846331],[-81.1936730972788,41.5254391425069],[-81.193673525332,41.5257821545658],[-81.1906955550441,41.5258054764257],[-81.1906944716064,41.5258054849136],[-81.1906920524159,41.5252552818286],[-81.1906924035633,41.5252552794869],[-81.1916843459042,41.5252484008922]]]},"properties":{"source_county":"Geauga","jurisdiction":"Munson Township","parcel_id":"21-048480","owner_name":"RICHARDS MARC DAVID","property_address":"12647 RAVENNA RD","property_city":"CHARDON","property_zip":"44024"}},{"type":"Feature","geometry":{"type":"Polygon","coordinates":[[[-81.1984264121351,41.5457293714871],[-81.198864761803,41.545725734416],[-81.1988696056521,41.5460550364722],[-81.198431252583,41.5460586735478],[-81.1984264121351,41.5457293714871]]]},"properties":{"source_county":"Geauga","jurisdiction":"Munson Township","parcel_id":"21-050500","owner_name":"BEST SAND CORPORATION","property_address":" HARVARD DR","property_city":"CHARDON","property_zip":"44024"}},{"type":"Feature","geometry":{"type":"Polygon","coordinates":[[[-81.1936730972788,41.5254391425069],[-81.1952641207603,41.5254344999775],[-81.1952656731683,41.5258772864638],[-81.1936735964482,41.5258819271843],[-81.193673525332,41.5257821545658],[-81.1936730972788,41.5254391425069]]]},"properties":{"source_county":"Geauga","jurisdiction":"Munson Township","parcel_id":"21-053300","owner_name":"DUNCAN GAYLE R & MARGARET A TOD","property_address":"12650 RAVENNA RD","property_city":"CHARDON","property_zip":"44024"}},{"type":"Feature","geometry":{"type":"Polygon","coordinates":[[[-81.1941075055917,41.5316542437566],[-81.1946887851429,41.5315728033776],[-81.194760547099,41.5318575131385],[-81.1949135534352,41.5324645505467],[-81.1949203540643,41.5324915305433],[-81.1941746466099,41.5325976520569],[-81.1939969681557,41.5326229363543],[-81.1940002090967,41.5325945348338],[-81.1940493717509,41.5321637013526],[-81.194081840129,41.5318791635522],[-81.1941075055917,41.5316542437566]]]},"properties":{"source_county":"Geauga","jurisdiction":"Munson Township","parcel_id":"21-056800","owner_name":"FARLEY CAROL J","property_address":"12369 MAYFIELD RD","property_city":"CHARDON","property_zip":"44024"}},{"type":"Feature","geometry":{"type":"Polygon","coordinates":[[[-81.1936697137152,41.5322293809047],[-81.1936438199076,41.5322084957662],[-81.1936164862171,41.5322048931441],[-81.1935949436304,41.5321857048991],[-81.1934844080008,41.5321831413784],[-81.1935157797597,41.5319046814917],[-81.1935349566446,41.5317344584754],[-81.1941075055917,41.5316542437566],[-81.194081840129,41.5318791635522],[-81.1940493717509,41.5321637013526],[-81.1938889323122,41.532231024189],[-81.1938538107217,41.5322330999224],[-81.1938199495878,41.5322269528981],[-81.1937784166845,41.5322207195202],[-81.1937607491814,41.532227110582],[-81.1937399240771,41.5322268761957],[-81.1937168923272,41.5322274409328],[-81.1936978001607,41.5322502907163],[-81.193674783626,41.5322500316528],[-81.1936697137152,41.5322293809047]]]},"properties":{"source_county":"Geauga","jurisdiction":"Munson Township","parcel_id":"21-056900","owner_name":"FARLEY CAROL J","property_address":" RAVENNA RD","property_city":"CHARDON","property_zip":"44024"}},{"type":"Feature","geometry":{"type":"Polygon","coordinates":[[[-81.1934289004208,41.5326758382606],[-81.1934844080008,41.5321831413784],[-81.1935949436304,41.5321857048991],[-81.1936164862171,41.5322048931441],[-81.1936438199076,41.5322084957662],[-81.1936697137152,41.5322293809047],[-81.193674783626,41.5322500316528],[-81.1936978001607,41.5322502907163],[-81.1937168923272,41.5322274409328],[-81.1937399240771,41.5322268761957],[-81.1937607491814,41.532227110582],[-81.1937784166845,41.5322207195202],[-81.1938199495878,41.5322269528981],[-81.1938538107217,41.5322330999224],[-81.1938889323122,41.532231024189],[-81.1940493717509,41.5321637013526],[-81.1940002090967,41.5325945348338],[-81.1939969681557,41.5326229363543],[-81.1934257013792,41.5327042294329],[-81.1934289004208,41.5326758382606]]]},"properties":{"source_county":"Geauga","jurisdiction":"Munson Township","parcel_id":"21-057000","owner_name":"FARLEY CAROL J","property_address":"12391 MAYFIELD RD","property_city":"CHARDON","property_zip":"44024"}},{"type":"Feature","geometry":{"type":"Polygon","coordinates":[[[-81.1907913463573,41.5387808798388],[-81.1941809356679,41.5387456318994],[-81.1944365276294,41.5402736272525],[-81.1908054112259,41.5403314835982],[-81.1907973231783,41.5394398224293],[-81.1907913463573,41.5387808798388]]]},"properties":{"source_county":"Geauga","jurisdiction":"Munson Township","parcel_id":"21-064200","owner_name":"BEST SAND CORPORATION","property_address":" RAVENNA RD","property_city":"CHARDON","property_zip":"44024"}},{"type":"Feature","geometry":{"type":"Polygon","coordinates":[[[-81.1962471355954,41.5465980891711],[-81.1962467335353,41.5465706472607],[-81.1954912343191,41.5465768965332],[-81.195491019713,41.546576898624],[-81.1954727011756,41.5464674087317],[-81.1954729073745,41.5464674074469],[-81.1966834808004,41.5464573903695],[-81.1966854923766,41.5465944612436],[-81.1962471355954,41.5465980891711]]]},"properties":{"source_county":"Geauga","jurisdiction":"Munson Township","parcel_id":"21-077130","owner_name":"BEST SAND CORPORATION","property_address":" RAVENNA RD","property_city":"CHARDON","property_zip":"44024"}},{"type":"Feature","geometry":{"type":"Polygon","coordinates":[[[-81.1907655910951,41.5359413414816],[-81.1937386818578,41.5359091625568],[-81.193738938265,41.5359108493877],[-81.1938415430873,41.5365834109646],[-81.1938535625477,41.536662190046],[-81.190772431819,41.5366955228943],[-81.1907655910951,41.5359413414816]]]},"properties":{"source_county":"Geauga","jurisdiction":"Munson Township","parcel_id":"21-080100","owner_name":"CENTERRA CO OP","property_address":"12285 RAVENNA RD","property_city":"CHARDON","property_zip":"44024"}},{"type":"Feature","geometry":{"type":"Polygon","coordinates":[[[-81.1945892155417,41.5459800235176],[-81.1953901671788,41.5459741046101],[-81.1954357257977,41.5462464052964],[-81.1946347953319,41.5462524787791],[-81.1945892155417,41.5459800235176]]]},"properties":{"source_county":"Geauga","jurisdiction":"Munson Township","parcel_id":"21-084000","owner_name":"BEST SAND CORPORATION","property_address":" RAVENNA RD","property_city":"CHARDON","property_zip":"44024"}},{"type":"Feature","geometry":{"type":"Polygon","coordinates":[[[-81.1937882637419,41.5459859377996],[-81.1945892155417,41.5459800235176],[-81.1946347953319,41.5462524787791],[-81.1938338659161,41.5462585467497],[-81.1937882637419,41.5459859377996]]]},"properties":{"source_county":"Geauga","jurisdiction":"Munson Township","parcel_id":"21-084100","owner_name":"BEST SAND CORPORATION","property_address":" RAVENNA RD","property_city":"CHARDON","property_zip":"44024"}},{"type":"Feature","geometry":{"type":"Polygon","coordinates":[[[-81.1965325338238,41.5313144639054],[-81.1985107251815,41.5310372515901],[-81.1985831891255,41.531831533312],[-81.1985931588308,41.5319408107264],[-81.1985956772336,41.531968421459],[-81.1984808438802,41.531984767449],[-81.1967631319317,41.5322292635873],[-81.1967563272631,41.5322022692513],[-81.1966629774503,41.5318319459448],[-81.1965325338238,41.5313144639054]]]},"properties":{"source_county":"Geauga","jurisdiction":"Munson Township","parcel_id":"21-084500","owner_name":"LIBERTY HOLDINGS MAYFIELD LLC","property_address":"12287 MAYFIELD RD","property_city":"CHARDON","property_zip":"44024"}},{"type":"Feature","geometry":{"type":"Polygon","coordinates":[[[-81.1918025236417,41.5314580461355],[-81.191938133184,41.5314578645718],[-81.1920345427222,41.5319490024891],[-81.1921748030775,41.5326635097679],[-81.1921766974496,41.5328472128438],[-81.1921769812002,41.5328747886512],[-81.1920732303389,41.5328889587239],[-81.1918176263372,41.532923869518],[-81.1918173417072,41.5328962252601],[-81.1918167659125,41.5328403036138],[-81.191807651646,41.531955760088],[-81.1918025236417,41.5314580461355]]]},"properties":{"source_county":"Geauga","jurisdiction":"Munson Township","parcel_id":"21-084600","owner_name":"12451 MAYFIELD ROAD LLC","property_address":"12451 MAYFIELD RD","property_city":"CHARDON","property_zip":"44024"}},{"type":"Feature","geometry":{"type":"Polygon","coordinates":[[[-81.1946887851429,41.5315728033776],[-81.1965325338238,41.5313144639054],[-81.1966629774503,41.5318319459448],[-81.1967563272631,41.5322022692513],[-81.1967631319317,41.5322292635873],[-81.1949203540643,41.5324915305433],[-81.1949135534352,41.5324645505467],[-81.194760547099,41.5318575131385],[-81.1946887851429,41.5315728033776]]]},"properties":{"source_county":"Geauga","jurisdiction":"Munson Township","parcel_id":"21-084700","owner_name":"GTAL PROPERTIES LLC","property_address":"12349 MAYFIELD RD","property_city":"CHARDON","property_zip":"44024"}},{"type":"Feature","geometry":{"type":"Polygon","coordinates":[[[-81.1957867238561,41.5302814635932],[-81.1985240178834,41.5298633242089],[-81.1985107251815,41.5310372515901],[-81.1965325338238,41.5313144639054],[-81.1946887851429,41.5315728033776],[-81.1941075055917,41.5316542437566],[-81.1935349566446,41.5317344584754],[-81.1935663658384,41.5314556621723],[-81.1936117152766,41.5310531175207],[-81.1959060570063,41.5307221365466],[-81.1957867238561,41.5302814635932]]]},"properties":{"source_county":"Geauga","jurisdiction":"Munson Township","parcel_id":"21-084801","owner_name":"GTAL PROPERTIES LLC","property_address":" RAVENNA RD","property_city":"CHARDON","property_zip":"44024"}},{"type":"Feature","geometry":{"type":"Polygon","coordinates":[[[-81.192694825059,41.5337501300895],[-81.1927569063788,41.5337491490009],[-81.1927688233303,41.5340267165654],[-81.1927067380327,41.5340276435881],[-81.192694825059,41.5337501300895]]]},"properties":{"source_county":"Geauga","jurisdiction":"Munson Township","parcel_id":"21-086500","owner_name":"WEST CLARIDON MANAGEMENT LLC","property_address":" RAVENNA RD","property_city":"CHARDON","property_zip":"44024"}},{"type":"Feature","geometry":{"type":"Polygon","coordinates":[[[-81.1927569063788,41.5337491490009],[-81.1934966633741,41.5337374658865],[-81.193515763616,41.5340155635536],[-81.1927688233303,41.5340267165654],[-81.1927569063788,41.5337491490009]]]},"properties":{"source_county":"Geauga","jurisdiction":"Munson Township","parcel_id":"21-086600","owner_name":"WEST CLARIDON MANAGEMENT LLC","property_address":"12365 RAVENNA RD","property_city":"CHARDON","property_zip":"44024"}},{"type":"Feature","geometry":{"type":"Polygon","coordinates":[[[-81.1995884731949,41.5318270958986],[-81.1999152904598,41.5317805703621],[-81.1999160080848,41.5318083680054],[-81.1999164538602,41.5318256455977],[-81.1999366819199,41.5326092912888],[-81.19994420633,41.5329007782134],[-81.1999874988413,41.5345778802529],[-81.1994715791494,41.5345827173309],[-81.1992013340935,41.5319101038126],[-81.1991985532056,41.5318826027166],[-81.1995884731949,41.5318270958986]]]},"properties":{"source_county":"Geauga","jurisdiction":"Munson Township","parcel_id":"21-090400","owner_name":"PETERSEN HOLDINGS LLC","property_address":"12236 MAYFIELD RD","property_city":"CHARDON","property_zip":"44024"}},{"type":"Feature","geometry":{"type":"Polygon","coordinates":[[[-81.1975448742275,41.545407340306],[-81.197983223006,41.5454037056763],[-81.1979880612202,41.5457330068895],[-81.1975497114372,41.5457366415506],[-81.1975448742275,41.545407340306]]]},"properties":{"source_county":"Geauga","jurisdiction":"Munson Township","parcel_id":"21-092800","owner_name":"BEST SAND CORPORATION","property_address":" YALE DR","property_city":"CHARDON","property_zip":"44024"}},{"type":"Feature","geometry":{"type":"Polygon","coordinates":[[[-81.1936735964482,41.5258819271843],[-81.1952656731683,41.5258772864638],[-81.1952671163692,41.5262886628445],[-81.1936738914207,41.5262955798632],[-81.1936735964482,41.5258819271843]]]},"properties":{"source_county":"Geauga","jurisdiction":"Munson Township","parcel_id":"21-105500","owner_name":"DE CIPEDA ELMER C & MARITES","property_address":"12626 RAVENNA RD","property_city":"CHARDON","property_zip":"44024"}},{"type":"Feature","geometry":{"type":"Polygon","coordinates":[[[-81.1971161954986,41.5460695739699],[-81.1975545475152,41.5460659418464],[-81.1975593848222,41.5463952430212],[-81.1971210294043,41.5463988751491],[-81.1971161954986,41.5460695739699]]]},"properties":{"source_county":"Geauga","jurisdiction":"Munson Township","parcel_id":"21-110800","owner_name":"BEST SAND CORPORATION","property_address":" YALE DR","property_city":"CHARDON","property_zip":"44024"}},{"type":"Feature","geometry":{"type":"Polygon","coordinates":[[[-81.1966730105628,41.5457439040932],[-81.1971113604251,41.5457402736427],[-81.1971161954986,41.5460695739699],[-81.196677842235,41.5460732044248],[-81.1966730105628,41.5457439040932]]]},"properties":{"source_county":"Geauga","jurisdiction":"Munson Township","parcel_id":"21-116100","owner_name":"BEST SAND CORPORATION","property_address":" HARVARD DR","property_city":"CHARDON","property_zip":"44024"}},{"type":"Feature","geometry":{"type":"Polygon","coordinates":[[[-81.196677842235,41.5460732044248],[-81.1971161954986,41.5460695739699],[-81.1971210294043,41.5463988751491],[-81.1966826751542,41.546402504735],[-81.196677842235,41.5460732044248]]]},"properties":{"source_county":"Geauga","jurisdiction":"Munson Township","parcel_id":"21-116200","owner_name":"BEST SAND CORPORATION","property_address":" YALE DR","property_city":"CHARDON","property_zip":"44024"}},{"type":"Feature","geometry":{"type":"Polygon","coordinates":[[[-81.1975497114372,41.5457366415506],[-81.1979880612202,41.5457330068895],[-81.1979929006815,41.5460623080813],[-81.1975545475152,41.5460659418464],[-81.1971161954986,41.5460695739699],[-81.1971113604251,41.5457402736427],[-81.1975497114372,41.5457366415506]]]},"properties":{"source_county":"Geauga","jurisdiction":"Munson Township","parcel_id":"21-120400","owner_name":"BEST SAND CORPORATION","property_address":" HARVARD DR","property_city":"CHARDON","property_zip":"44024"}},{"type":"Feature","geometry":{"type":"Polygon","coordinates":[[[-81.1908462799677,41.5448365310528],[-81.1951907804039,41.5447823322641],[-81.1952434336594,41.5450970536246],[-81.1952984568048,41.5454259385481],[-81.1953534805026,41.545754823411],[-81.1953901671788,41.5459741046101],[-81.1945892155417,41.5459800235176],[-81.1937882637419,41.5459859377996],[-81.1938338659161,41.5462585467497],[-81.1908593845388,41.5462810327047],[-81.1908510057429,41.545357480452],[-81.1908462799677,41.5448365310528]]]},"properties":{"source_county":"Geauga","jurisdiction":"Munson Township","parcel_id":"21-128850","owner_name":"PETRONZIO MANAGEMENT COMPANY LLC","property_address":"11993 RAVENNA RD","property_city":"CHARDON","property_zip":"44024"}},{"type":"Feature","geometry":{"type":"Polygon","coordinates":[[[-81.1958962399837,41.5450916534382],[-81.1962250006426,41.5450889329716],[-81.1962298300327,41.5454182324906],[-81.1960444082762,41.5454197671307],[-81.1959010689023,41.5454209538844],[-81.1958962399837,41.5450916534382]]]},"properties":{"source_county":"Geauga","jurisdiction":"Munson Township","parcel_id":"21-130200","owner_name":"BEST SAND CORPORATION","property_address":" RAVENNA RD","property_city":"CHARDON","property_zip":"44024"}},{"type":"Feature","geometry":{"type":"Polygon","coordinates":[[[-81.1952435247728,41.5450970528477],[-81.1958962399837,41.5450916534382],[-81.1959010689023,41.5454209538844],[-81.1952985754997,41.5454259371807],[-81.1952984568048,41.5454259385481],[-81.1952434336594,41.5450970536246],[-81.1952435247728,41.5450970528477]]]},"properties":{"source_county":"Geauga","jurisdiction":"Munson Township","parcel_id":"21-130300","owner_name":"BEST SAND CORPORATION","property_address":" RAVENNA RD","property_city":"CHARDON","property_zip":"44024"}},{"type":"Feature","geometry":{"type":"Polygon","coordinates":[[[-81.1985956772336,41.531968421459],[-81.1991985532056,41.5318826027166],[-81.1992013340935,41.5319101038126],[-81.1994715791494,41.5345827173309],[-81.1985482231648,41.5345913678574],[-81.1984815621865,41.5320125606112],[-81.1984808438802,41.531984767449],[-81.1985956772336,41.531968421459]]]},"properties":{"source_county":"Geauga","jurisdiction":"Munson Township","parcel_id":"21-132500","owner_name":"JURGENS DALE E TOD & BARBARA E TOD","property_address":"12252 MAYFIELD RD","property_city":"CHARDON","property_zip":"44024"}},{"type":"Feature","geometry":{"type":"Polygon","coordinates":[[[-81.1906955550441,41.5258054764257],[-81.193673525332,41.5257821545658],[-81.1936735964482,41.5258819271843],[-81.1936738914207,41.5262955798632],[-81.1908145095623,41.5263210530461],[-81.1906985148404,41.5263220848359],[-81.1906967446087,41.5263221008839],[-81.1906967436837,41.5263219072641],[-81.1906944716064,41.5258054849136],[-81.1906955550441,41.5258054764257]]]},"properties":{"source_county":"Geauga","jurisdiction":"Munson Township","parcel_id":"21-136400","owner_name":"COLLIER CHERYL A & BRUCE R","property_address":"12637 RAVENNA RD","property_city":"CHARDON","property_zip":"44024"}},{"type":"Feature","geometry":{"type":"Polygon","coordinates":[[[-81.1920799860528,41.5419802585472],[-81.1947149886702,41.5419382586964],[-81.1949330090262,41.5432415187106],[-81.192075546087,41.5432751590508],[-81.1920799860528,41.5419802585472]]]},"properties":{"source_county":"Geauga","jurisdiction":"Munson Township","parcel_id":"21-136500","owner_name":"ALVORD S ACRES LLC","property_address":"12089 RAVENNA RD","property_city":"CHARDON","property_zip":"44024"}},{"type":"Feature","geometry":{"type":"Polygon","coordinates":[[[-81.1907790483568,41.5374250619652],[-81.1939646890768,41.5373905965864],[-81.1939784387199,41.5374807189494],[-81.1939966416202,41.5376000290532],[-81.1940273974369,41.5378016244438],[-81.1907827694849,41.5378353633926],[-81.1907812311548,41.5376657610693],[-81.1907790483568,41.5374250619652]]]},"properties":{"source_county":"Geauga","jurisdiction":"Munson Township","parcel_id":"21-136600","owner_name":"ALVORD DANIEL W","property_address":"12241 RAVENNA RD","property_city":"CHARDON","property_zip":"44024"}},{"type":"Feature","geometry":{"type":"Polygon","coordinates":[[[-81.1907827694849,41.5378353633926],[-81.1940273974369,41.5378016244438],[-81.1940683332417,41.5380699338813],[-81.1907852076371,41.5381040728601],[-81.1907827694849,41.5378353633926]]]},"properties":{"source_county":"Geauga","jurisdiction":"Munson Township","parcel_id":"21-136601","owner_name":"ALVORD DANIEL W","property_address":" RAVENNA RD","property_city":"CHARDON","property_zip":"44024"}},{"type":"Feature","geometry":{"type":"Polygon","coordinates":[[[-81.1939784387199,41.5374807189494],[-81.1952054518465,41.5374652390248],[-81.1952235864561,41.53757569168],[-81.1953465879812,41.538324866848],[-81.1953489584676,41.5385564420059],[-81.1941515416125,41.5385698991246],[-81.1941121943676,41.5383346669671],[-81.1940726814845,41.5380984387547],[-81.1940683332417,41.5380699338813],[-81.1940273974369,41.5378016244438],[-81.1939966416202,41.5376000290532],[-81.1939784387199,41.5374807189494]]]},"properties":{"source_county":"Geauga","jurisdiction":"Munson Township","parcel_id":"21-136700","owner_name":"BEST SAND CORPORATION","property_address":" RAVENNA RD","property_city":"CHARDON","property_zip":"44024"}},{"type":"Feature","geometry":{"type":"Polygon","coordinates":[[[-81.1955185549283,41.5467414767348],[-81.195491019713,41.546576898624],[-81.1954912343191,41.5465768965332],[-81.1962467335353,41.5465706472607],[-81.1962471355954,41.5465980891711],[-81.1966854923766,41.5465944612436],[-81.1966875069235,41.5467318049967],[-81.195518783916,41.5467414748055],[-81.1955185549283,41.5467414767348]]]},"properties":{"source_county":"Geauga","jurisdiction":"Munson Township","parcel_id":"21-139500","owner_name":"BEST SAND CORPORATION","property_address":" RAVENNA RD","property_city":"CHARDON","property_zip":"44024"}},{"type":"Feature","geometry":{"type":"Polygon","coordinates":[[[-81.1939969681557,41.5326229363543],[-81.1941746466099,41.5325976520569],[-81.1941765006973,41.5326253103568],[-81.1942129088532,41.5331685127193],[-81.1934649018458,41.5332750145089],[-81.1934276006478,41.532731890057],[-81.1934257013792,41.5327042294329],[-81.1939969681557,41.5326229363543]]]},"properties":{"source_county":"Geauga","jurisdiction":"Munson Township","parcel_id":"21-153300","owner_name":"MAITHU & PAVAN INC","property_address":"12388 MAYFIELD RD","property_city":"CHARDON","property_zip":"44024"}},{"type":"Feature","geometry":{"type":"Polygon","coordinates":[[[-81.1907876123646,41.5383692375388],[-81.1941121943676,41.5383346669671],[-81.1941515416125,41.5385698991246],[-81.1941809356679,41.5387456318994],[-81.1907913463573,41.5387808798388],[-81.190787614967,41.538369467197],[-81.1907876123646,41.5383692375388]]]},"properties":{"source_county":"Geauga","jurisdiction":"Munson Township","parcel_id":"21-158500","owner_name":"BEST SAND CORPORATION","property_address":"12209 RAVENNA RD","property_city":"CHARDON","property_zip":"44024"}},{"type":"Feature","geometry":{"type":"Polygon","coordinates":[[[-81.1907852076371,41.5381040728601],[-81.1940683332417,41.5380699338813],[-81.1940726814845,41.5380984387547],[-81.1941121943676,41.5383346669671],[-81.1907876123646,41.5383692375388],[-81.1907852076371,41.5381040728601]]]},"properties":{"source_county":"Geauga","jurisdiction":"Munson Township","parcel_id":"21-158501","owner_name":"BEST SAND CORPORATION","property_address":" RAVENNA RD","property_city":"CHARDON","property_zip":"44024"}},{"type":"Feature","geometry":{"type":"Polygon","coordinates":[[[-81.198864761803,41.545725734416],[-81.1993031126206,41.5457220957032],[-81.1993079574741,41.5460513977281],[-81.1988696056521,41.5460550364722],[-81.198864761803,41.545725734416]]]},"properties":{"source_county":"Geauga","jurisdiction":"Munson Township","parcel_id":"21-162700","owner_name":"BEST SAND CORPORATION","property_address":" HARVARD DR","property_city":"CHARDON","property_zip":"44024"}},{"type":"Feature","geometry":{"type":"Polygon","coordinates":[[[-81.1908370241708,41.5438163993715],[-81.1950204491439,41.5437642000984],[-81.1951202762544,41.5443609050155],[-81.1951235474214,41.5443804610854],[-81.1951460454161,41.5445149402249],[-81.1951460958048,41.5445152388577],[-81.1951907804039,41.5447823322641],[-81.1908462799677,41.5448365310528],[-81.1908423770488,41.5444063751024],[-81.1908370241708,41.5438163993715]]]},"properties":{"source_county":"Geauga","jurisdiction":"Munson Township","parcel_id":"21-171200","owner_name":"PERFETTO LLC","property_address":"12021 RAVENNA RD","property_city":"CHARDON","property_zip":"44024"}},{"type":"Feature","geometry":{"type":"Polygon","coordinates":[[[-81.1979880612202,41.5457330068895],[-81.1984264121351,41.5457293714871],[-81.198431252583,41.5460586735478],[-81.1979929006815,41.5460623080813],[-81.1979880612202,41.5457330068895]]]},"properties":{"source_county":"Geauga","jurisdiction":"Munson Township","parcel_id":"21-173230","owner_name":"BEST SAND CORPORATION","property_address":" HARVARD DR","property_city":"CHARDON","property_zip":"44024"}},{"type":"Feature","geometry":{"type":"Polygon","coordinates":[[[-81.1908054112259,41.5403314835982],[-81.1944365276294,41.5402736272525],[-81.1944800925222,41.5405340666475],[-81.1945605788384,41.5410152196115],[-81.1946220684925,41.5413827988904],[-81.1946920939644,41.5418014002537],[-81.1908193045484,41.5418631119254],[-81.1908142427183,41.5413050789811],[-81.1908119086421,41.5410477650469],[-81.1908054112259,41.5403314835982]]]},"properties":{"source_county":"Geauga","jurisdiction":"Munson Township","parcel_id":"21-176356","owner_name":"BEST SAND CORPORATION","property_address":" RAVENNA RD","property_city":"CHARDON","property_zip":"44024"}},{"type":"Feature","geometry":{"type":"MultiPolygon","coordinates":[[[[-81.1941515416125,41.5385698991246],[-81.1953489584676,41.5385564420059],[-81.1953690586354,41.5405198291014],[-81.1944800925222,41.5405340666475],[-81.1944365276294,41.5402736272525],[-81.1941809356679,41.5387456318994],[-81.1941515416125,41.5385698991246]]],[[[-81.1938415430873,41.5365834109646],[-81.1950586321871,41.5365709638589],[-81.1952054518465,41.5374652390248],[-81.1939784387199,41.5374807189494],[-81.1939646890768,41.5373905965864],[-81.1938535625477,41.536662190046],[-81.1938415430873,41.5365834109646]]]]},"properties":{"source_county":"Geauga","jurisdiction":"Munson Township","parcel_id":"21-176358","owner_name":"BEST SAND CORPORATION","property_address":" RAVENNA RD","property_city":"CHARDON","property_zip":"44024"}},{"type":"Feature","geometry":{"type":"Polygon","coordinates":[[[-81.1915455012495,41.5314583914439],[-81.1918025236417,41.5314580461355],[-81.191807651646,41.531955760088],[-81.1918167659125,41.5328403036138],[-81.191644087819,41.5319606313977],[-81.1915455012495,41.5314583914439]]]},"properties":{"source_county":"Geauga","jurisdiction":"Munson Township","parcel_id":"21-176366","owner_name":"12451 MAYFIELD ROAD LLC","property_address":" MAYFIELD RD","property_city":"CHARDON","property_zip":"44024"}},{"type":"Feature","geometry":{"type":"Polygon","coordinates":[[[-81.1921766974496,41.5328472128438],[-81.1921748030775,41.5326635097679],[-81.1922099738712,41.5328426737482],[-81.1922152520683,41.5328695611145],[-81.1921769812002,41.5328747886512],[-81.1921766974496,41.5328472128438]]]},"properties":{"source_county":"Geauga","jurisdiction":"Munson Township","parcel_id":"21-176367","owner_name":"12451 MAYFIELD ROAD LLC","property_address":" MAYFIELD RD","property_city":"CHARDON","property_zip":"44024"}},{"type":"Feature","geometry":{"type":"Polygon","coordinates":[[[-81.1908193045484,41.5418631119254],[-81.1946920939644,41.5418014002537],[-81.1947149886702,41.5419382586964],[-81.1920799860528,41.5419802585472],[-81.192075546087,41.5432751590508],[-81.1908322473103,41.5432897993759],[-81.1908238337997,41.5423623232424],[-81.1908193045484,41.5418631119254]]]},"properties":{"source_county":"Geauga","jurisdiction":"Munson Township","parcel_id":"21-176381","owner_name":"ALVORD WILLIAM TOD & DAWN M TOD","property_address":"12097 RAVENNA RD","property_city":"CHARDON","property_zip":"44024"}},{"type":"Feature","geometry":{"type":"Polygon","coordinates":[[[-81.1977380413732,41.5477814858175],[-81.2010112623737,41.5475924000515],[-81.2010181617697,41.5480592581932],[-81.197784463396,41.548086104073],[-81.1977380413732,41.5477814858175]]]},"properties":{"source_county":"Geauga","jurisdiction":"Munson Township","parcel_id":"21-176537","owner_name":"BEST SAND CORPORATION","property_address":" RAVENNA RD","property_city":"CHARDON","property_zip":"44024"}},{"type":"Feature","geometry":{"type":"Polygon","coordinates":[[[-81.1973450433915,41.5467263595404],[-81.2009980153705,41.5466960398177],[-81.2010112623737,41.5475924000515],[-81.1977380413732,41.5477814858175],[-81.197784463396,41.548086104073],[-81.1975728787358,41.5480878574371],[-81.1973450433915,41.5467263595404]]]},"properties":{"source_county":"Geauga","jurisdiction":"Munson Township","parcel_id":"21-176538","owner_name":"BEST SAND CORPORATION","property_address":" RAVENNA RD","property_city":"CHARDON","property_zip":"44024"}},{"type":"Feature","geometry":{"type":"Polygon","coordinates":[[[-81.1936742305638,41.5303861493476],[-81.1957867238561,41.5302814635932],[-81.1959060570063,41.5307221365466],[-81.1936117152766,41.5310531175207],[-81.1936742394193,41.5304981229904],[-81.1936742305638,41.5303861493476]]]},"properties":{"source_county":"Geauga","jurisdiction":"Munson Township","parcel_id":"21-176550","owner_name":"ANDERSON JAMES J TOD & ELIZABETH JEAN TOD","property_address":"12480 RAVENNA RD","property_city":"CHARDON","property_zip":"44024"}},{"type":"Feature","geometry":{"type":"Polygon","coordinates":[[[-81.1957867238561,41.5302814635932],[-81.1957866611334,41.529732574278],[-81.1936741855158,41.5298372609498],[-81.1936741836048,41.5298180594137],[-81.193674127296,41.5291319487788],[-81.1985345679958,41.5289316190564],[-81.1985240178834,41.5298633242089],[-81.1957867238561,41.5302814635932]]]},"properties":{"source_county":"Geauga","jurisdiction":"Munson Township","parcel_id":"21-176561","owner_name":"WASCO FRANK A","property_address":"12520 RAVENNA RD","property_city":"CHARDON","property_zip":"44024"}},{"type":"Feature","geometry":{"type":"Polygon","coordinates":[[[-81.1997641748568,41.5247875849974],[-81.1997893218504,41.524785844213],[-81.1999787772372,41.5262426185409],[-81.1985648565888,41.526256455907],[-81.1983862937807,41.5262582020822],[-81.1982213145648,41.5249956471187],[-81.1983210884279,41.5249865454531],[-81.1984202019372,41.5249740150992],[-81.1985184465649,41.52495808242],[-81.1987644738161,41.5249121762875],[-81.199012308619,41.5248721364319],[-81.1992617033792,41.524838002854],[-81.1995124089451,41.524809809654],[-81.1997641748568,41.5247875849974]]]},"properties":{"source_county":"Geauga","jurisdiction":"Munson Township","parcel_id":"21-176871","owner_name":"SEREDICH MICHAEL SR TOD & KIM MARIE TOD","property_address":"12250 WATERFOWL LN","property_city":"CHARDON","property_zip":"44024"}},{"type":"Feature","geometry":{"type":"Polygon","coordinates":[[[-81.1962292106944,41.5262792763493],[-81.1970961030626,41.5248544232019],[-81.1972291807408,41.5248962246256],[-81.1973656296562,41.5249313561118],[-81.1975048585828,41.5249596654368],[-81.1976462642465,41.5249810299368],[-81.1977892339395,41.5249953570396],[-81.1979331481754,41.5250025846661],[-81.1980773833742,41.525002681499],[-81.1982213145648,41.5249956471187],[-81.1983862937807,41.5262582020822],[-81.1962292106944,41.5262792763493]]]},"properties":{"source_county":"Geauga","jurisdiction":"Munson Township","parcel_id":"21-176872","owner_name":"TURKISH MICHAEL E & LANESE TURKISH THERESE A CO TRUSTEES","property_address":"12290 WATERFOWL LN","property_city":"CHARDON","property_zip":"44024"}},{"type":"Feature","geometry":{"type":"Polygon","coordinates":[[[-81.1907189136271,41.529816756597],[-81.1936741836048,41.5298180594137],[-81.1936741855158,41.5298372609498],[-81.1936742305638,41.5303861493476],[-81.1936742394193,41.5304981229904],[-81.1936117152766,41.5310531175207],[-81.1935663658384,41.5314556621723],[-81.191938133184,41.5314578645718],[-81.1918025236417,41.5314580461355],[-81.1915455012495,41.5314583914439],[-81.1910828288231,41.5314590113827],[-81.1907293331332,41.5314594842929],[-81.1907189136271,41.529816756597]]]},"properties":{"source_county":"Geauga","jurisdiction":"Munson Township","parcel_id":"21-177010","owner_name":"JAS REAL ESTATE HOLDINGS LLC","property_address":"12423 RAVENNA RD","property_city":"CHARDON","property_zip":"44024"}},{"type":"Feature","geometry":{"type":"Polygon","coordinates":[[[-81.1936741855158,41.5298372609498],[-81.1957866611334,41.529732574278],[-81.1957867238561,41.5302814635932],[-81.1936742305638,41.5303861493476],[-81.1936741855158,41.5298372609498]]]},"properties":{"source_county":"Geauga","jurisdiction":"Munson Township","parcel_id":"21-177011","owner_name":"WEST CLARIDON MANAGEMENT LLC","property_address":" RAVENNA RD","property_city":"CHARDON","property_zip":"44024"}},{"type":"Feature","geometry":{"type":"Polygon","coordinates":[[[-81.1918176263372,41.532923869518],[-81.1920732303389,41.5328889587239],[-81.1920750475075,41.5329168615864],[-81.1921938812863,41.534741164874],[-81.1922368102021,41.5354001687453],[-81.1907605605985,41.5353867036358],[-81.1907549014784,41.5347627016117],[-81.1907548561699,41.5347577113956],[-81.1907460675995,41.5337886521002],[-81.1907471286735,41.5337886298505],[-81.1907474176331,41.5337886232045],[-81.1908008455261,41.5337874969179],[-81.1907945331582,41.5330915061125],[-81.1907942799234,41.5330636316731],[-81.1910989161946,41.5330220279252],[-81.1918176263372,41.532923869518]]]},"properties":{"source_county":"Geauga","jurisdiction":"Munson Township","parcel_id":"21-177013","owner_name":"BABCOCK EDWARD M TRUSTEE","property_address":" MAYFIELD RD","property_city":"CHARDON","property_zip":"44024"}},{"type":"Feature","geometry":{"type":"Polygon","coordinates":[[[-81.190772431819,41.5366955228943],[-81.1938535625477,41.536662190046],[-81.1939646890768,41.5373905965864],[-81.1907790483568,41.5374250619652],[-81.190772431819,41.5366955228943]]]},"properties":{"source_county":"Geauga","jurisdiction":"Munson Township","parcel_id":"21-177099","owner_name":"AD MOR PROPERTIES LTD","property_address":"12255 RAVENNA RD","property_city":"CHARDON","property_zip":"44024"}},{"type":"Feature","geometry":{"type":"Polygon","coordinates":[[[-81.1922368102021,41.5354001687453],[-81.1936597041643,41.5354131289202],[-81.1937386818578,41.5359091625568],[-81.1907655910951,41.5359413414816],[-81.1907605605985,41.5353867036358],[-81.1922368102021,41.5354001687453]]]},"properties":{"source_county":"Geauga","jurisdiction":"Munson Township","parcel_id":"21-177185","owner_name":"BABCOCK EDWARD M TRUSTEE","property_address":" RAVENNA RD","property_city":"CHARDON","property_zip":"44024"}},{"type":"Feature","geometry":{"type":"Polygon","coordinates":[[[-81.1967631319317,41.5322292635873],[-81.1984808438802,41.531984767449],[-81.1984815621865,41.5320125606112],[-81.1985482231648,41.5345913678574],[-81.1980807948348,41.5358621671774],[-81.193738938265,41.5359108493877],[-81.1937386818578,41.5359091625568],[-81.1936597041643,41.5354131289202],[-81.1935753712491,41.5348834550007],[-81.1935645149896,41.5347253876906],[-81.193515763616,41.5340155635536],[-81.1934966633741,41.5337374658865],[-81.1934649018458,41.5332750145089],[-81.1942129088532,41.5331685127193],[-81.1941765006973,41.5326253103568],[-81.1941746466099,41.5325976520569],[-81.1949203540643,41.5324915305433],[-81.1967631319317,41.5322292635873]]]},"properties":{"source_county":"Geauga","jurisdiction":"Munson Township","parcel_id":"21-177256","owner_name":"BABCOCK EDWARD M TRUSTEE","property_address":" RAVENNA RD","property_city":"CHARDON","property_zip":"44024"}},{"type":"Feature","geometry":{"type":"Polygon","coordinates":[[[-81.1954637309785,41.5464125907155],[-81.1966826751542,41.546402504735],[-81.1966834808004,41.5464573903695],[-81.1954729073745,41.5464674074469],[-81.1954727011756,41.5464674087317],[-81.1954635295733,41.5464125920542],[-81.1954637309785,41.5464125907155]]]},"properties":{"source_county":"Geauga","jurisdiction":"Munson Township","parcel_id":"21-177280","owner_name":"BEST SAND CORPORATION","property_address":" RAVENNA RD","property_city":"CHARDON","property_zip":"44024"}},{"type":"Feature","geometry":{"type":"Polygon","coordinates":[[[-81.1907129278001,41.5288376299978],[-81.1936741008779,41.5288186241295],[-81.193674127296,41.5291319487788],[-81.1936741836048,41.5298180594137],[-81.1907189136271,41.529816756597],[-81.1907150346705,41.5292054238797],[-81.190712701289,41.5288376310444],[-81.1907129278001,41.5288376299978]]]},"properties":{"source_county":"Geauga","jurisdiction":"Munson Township","parcel_id":"21-177307","owner_name":"WEST CLARIDON MANAGEMENT LLC","property_address":" RAVENNA RD","property_city":"CHARDON","property_zip":"44024"}},{"type":"Feature","geometry":{"type":"Polygon","coordinates":[[[-81.1907293331332,41.5314594842929],[-81.1910828288231,41.5314590113827],[-81.1910881622298,41.5319771872633],[-81.1910986297902,41.5329942476664],[-81.1910989161946,41.5330220279252],[-81.1907942799234,41.5330636316731],[-81.1907416687439,41.5330708167676],[-81.190741096707,41.5330708958627],[-81.1907395597349,41.5330711045516],[-81.1907393829725,41.533043242681],[-81.190732448641,41.5319503300269],[-81.1907303549594,41.5316200751549],[-81.1907293331332,41.5314594842929]]]},"properties":{"source_county":"Geauga","jurisdiction":"Munson Township","parcel_id":"21-600027","owner_name":"CLEVELAND ELECTRIC ILLUMINATING COMPANY","property_address":"12471 MAYFIELD RD","property_city":"CHARDON","property_zip":"44024"}},{"type":"Feature","geometry":{"type":"Polygon","coordinates":[[[-81.192075546087,41.5432751590508],[-81.1949330090262,41.5432415187106],[-81.1949540109406,41.5433670625421],[-81.1950204491439,41.5437642000984],[-81.1908370241708,41.5438163993715],[-81.1908322473103,41.5432897993759],[-81.192075546087,41.5432751590508]]]},"properties":{"source_county":"Geauga","jurisdiction":"Munson Township","parcel_id":"21-703249","owner_name":"WOMENSAFE INC","property_address":"12041 RAVENNA RD","property_city":"CHARDON","property_zip":"44024"}},{"type":"Feature","geometry":{"type":"Polygon","coordinates":[[[-81.1938690795693,41.5264243279795],[-81.1957863443841,41.526412097559],[-81.1957866320907,41.5288976625878],[-81.1938692998531,41.5289766674869],[-81.1938690795693,41.5264243279795]]]},"properties":{"source_county":"Geauga","jurisdiction":"Munson Township","parcel_id":"21-703256","owner_name":"MORNINGSTAR EVANGELICAL FRIENDS CHURCH","property_address":"12550 RAVENNA RD","property_city":"CHARDON","property_zip":"44024"}}]}