{"type":"FeatureCollection","features":[{"type":"Feature","geometry":{"type":"Polygon","coordinates":[[[-81.1909660466568,41.3777428987398],[-81.190973914876,41.3771931655382],[-81.1909842341768,41.3764861702791],[-81.1931770021449,41.3764231864978],[-81.1924233589556,41.3777593660538],[-81.1909660466568,41.3777428987398]]]},"properties":{"source_county":"Geauga","jurisdiction":"Auburn Township","parcel_id":"01-034200","owner_name":"ENGLE TRACY L & JEANNE M","property_address":"18144 SHAW RD","property_city":"AUBURN TOWNSHIP","property_zip":"44023"}},{"type":"Feature","geometry":{"type":"Polygon","coordinates":[[[-81.1909946302234,41.3757459743496],[-81.1953692721108,41.3757441029195],[-81.1953591392961,41.3764552878221],[-81.1931770021449,41.3764231864978],[-81.1909842341948,41.3764861693788],[-81.1909946302234,41.3757459743496]]]},"properties":{"source_county":"Geauga","jurisdiction":"Auburn Township","parcel_id":"01-042100","owner_name":"SCHMIDT PETER TOD","property_address":"18166 SHAW RD","property_city":"AUBURN TOWNSHIP","property_zip":"44023"}},{"type":"Feature","geometry":{"type":"MultiPolygon","coordinates":[[[[-81.1910001346035,41.3753613980793],[-81.1910052466022,41.3750238079405],[-81.1953795618084,41.3750219374734],[-81.1953692721108,41.3757441029195],[-81.1909948920477,41.3757459746082],[-81.1909946302234,41.3757459743496],[-81.190998842281,41.3754516886343],[-81.1910001346035,41.3753613980793]]],[[[-81.1910052466022,41.3750238079405],[-81.1910049668336,41.3750238083796],[-81.1910073492353,41.3748807931325],[-81.1910052466022,41.3750238079405]]]]},"properties":{"source_county":"Geauga","jurisdiction":"Auburn Township","parcel_id":"01-042800","owner_name":"PAVLIK ROBERT J","property_address":"18192 SHAW RD","property_city":"AUBURN TOWNSHIP","property_zip":"44023"}},{"type":"Feature","geometry":{"type":"Polygon","coordinates":[[[-81.198687625895,41.3998164827248],[-81.199414833963,41.3998189505885],[-81.1991091583972,41.4003234974609],[-81.1983463233203,41.4000655383291],[-81.198687625895,41.3998164827248]]]},"properties":{"source_county":"Geauga","jurisdiction":"Auburn Township","parcel_id":"01-078700","owner_name":"DULL JEROME J TOD","property_address":"17282 VALLEY RD","property_city":"AUBURN TOWNSHIP","property_zip":"44023"}},{"type":"Feature","geometry":{"type":"Polygon","coordinates":[[[-81.199351755687,41.3993318447808],[-81.2008061532536,41.3993416421425],[-81.200800768058,41.3998236402769],[-81.199414833963,41.3998189505885],[-81.198687625895,41.3998164827248],[-81.199351755687,41.3993318447808]]]},"properties":{"source_county":"Geauga","jurisdiction":"Auburn Township","parcel_id":"01-109300","owner_name":"KATHLEEN NOAH ENTERPRISES LLC","property_address":"17296 VALLEY RD","property_city":"AUBURN TOWNSHIP","property_zip":"44023"}},{"type":"Feature","geometry":{"type":"Polygon","coordinates":[[[-81.1909389084063,41.3796326570957],[-81.1922864972146,41.3796411264622],[-81.1922851308723,41.3797370210766],[-81.1922825972503,41.3799147874297],[-81.1909349454154,41.3799070990441],[-81.1909389084063,41.3796326570957]]]},"properties":{"source_county":"Geauga","jurisdiction":"Auburn Township","parcel_id":"01-708300","owner_name":"COUNTY COMMISSIONERS OF GEAUGA COUNTY","property_address":"18018 SHAW RD","property_city":"AUBURN TOWNSHIP","property_zip":"44023"}},{"type":"Feature","geometry":{"type":"Polygon","coordinates":[[[-81.1967444749798,41.3860056306671],[-81.1966079025599,41.3855723120115],[-81.1971998591172,41.3855647647536],[-81.1974716467428,41.3858845933583],[-81.1967444749798,41.3860056306671]]]},"properties":{"source_county":"Geauga","jurisdiction":"Auburn Township","parcel_id":"01-708920","owner_name":"CITY OF AKRON OHIO THE","property_address":" VALLEY RD","property_city":"AUBURN TOWNSHIP","property_zip":"44023"}},{"type":"Feature","geometry":{"type":"Polygon","coordinates":[[[-81.1922851308723,41.3797370210766],[-81.1982938212205,41.3797749752365],[-81.1981449978141,41.3799524989429],[-81.1944643285094,41.3799288059188],[-81.1922825972503,41.3799147874297],[-81.1922851308723,41.3797370210766]]]},"properties":{"source_county":"Geauga","jurisdiction":"Auburn Township","parcel_id":"01-708937","owner_name":"CITY OF AKRON","property_address":" SHAW RD","property_city":"AUBURN TOWNSHIP","property_zip":"44023"}},{"type":"Feature","geometry":{"type":"Polygon","coordinates":[[[-81.1922825972503,41.3799147874297],[-81.1944643285094,41.3799288059188],[-81.19444606407,41.3811806142712],[-81.1909175446402,41.3811214969513],[-81.1909349454334,41.3799070981438],[-81.1922825972503,41.3799147874297]]]},"properties":{"source_county":"Geauga","jurisdiction":"Auburn Township","parcel_id":"01-708939","owner_name":"CITY OF AKRON","property_address":" SHAW RD","property_city":"HIRAM","property_zip":"44234"}},{"type":"Feature","geometry":{"type":"Polygon","coordinates":[[[-81.195789680184,41.3841900291068],[-81.1957984182867,41.3841942556257],[-81.1959106095709,41.3842525308057],[-81.1960179262339,41.3843157996257],[-81.1961199769644,41.3843838313955],[-81.1962163896484,41.3844563780574],[-81.1963068127257,41.384533175091],[-81.1963909164722,41.3846139424767],[-81.1964683942018,41.3846983857177],[-81.1965389633855,41.3847861969124],[-81.1965440461861,41.3847930181214],[-81.1971998591172,41.3855647647536],[-81.1971569927458,41.3855653117844],[-81.1966079025599,41.3855723120115],[-81.1967444749798,41.3860056306671],[-81.1968278640278,41.3867955389551],[-81.1968748199909,41.388455617362],[-81.1964241904966,41.3888818007232],[-81.1948295357764,41.3884499071343],[-81.1946857521048,41.3839575624116],[-81.1947584661371,41.3839571420346],[-81.1948311502443,41.3839587683149],[-81.1949037029055,41.3839624389809],[-81.1949760227831,41.3839681489057],[-81.1950480088649,41.383975890114],[-81.1951195606044,41.3839856517933],[-81.1951905780621,41.383997420309],[-81.1952609620442,41.3840111792235],[-81.1953306142418,41.3840269093189],[-81.1953994373679,41.3840445886244],[-81.1954673352932,41.3840641924464],[-81.1955342131803,41.3840856934032],[-81.1955999776167,41.3841090614633],[-81.1956645367443,41.3841342639873],[-81.1957278003885,41.3841612657734],[-81.195789680184,41.3841900291068]]]},"properties":{"source_county":"Geauga","jurisdiction":"Auburn Township","parcel_id":"01-708951","owner_name":"CITY OF AKRON OHIO THE","property_address":" VALLEY RD","property_city":"AUBURN TOWNSHIP","property_zip":"44023"}},{"type":"Feature","geometry":{"type":"Polygon","coordinates":[[[-81.1908672492657,41.3839649574945],[-81.1946857521048,41.3839575624116],[-81.1948295357764,41.3884499071343],[-81.1948832967358,41.390123593526],[-81.1907939456109,41.3901224900318],[-81.1908672492657,41.3839649574945]]]},"properties":{"source_county":"Geauga","jurisdiction":"Auburn Township","parcel_id":"01-708952","owner_name":"CITY OF AKRON OHIO","property_address":" VALLEY RD","property_city":"BURTON","property_zip":"44021"}},{"type":"Feature","geometry":{"type":"Polygon","coordinates":[[[-81.1948832967358,41.390123593526],[-81.1948295357764,41.3884499071343],[-81.1964241904966,41.3888818007232],[-81.1968748199909,41.388455617362],[-81.1968278640278,41.3867955389551],[-81.1967444749798,41.3860056306671],[-81.1974337514607,41.3858909004604],[-81.1974693552965,41.3858849746292],[-81.1974716467428,41.3858845933583],[-81.1974855365009,41.3859009377854],[-81.1975326287439,41.3859563529756],[-81.1976806854835,41.3861305787524],[-81.1977791451202,41.3862399224884],[-81.1978840462452,41.3863440992],[-81.1979960796057,41.3864439739548],[-81.1981149361864,41.3865392712938],[-81.1982402852143,41.3866297272205],[-81.1983717801007,41.3867150910693],[-81.1985090572276,41.3867951263925],[-81.1986517359303,41.3868696118607],[-81.1987994209238,41.38693833949],[-81.1988607271768,41.3869636141156],[-81.1989517021786,41.3870011209439],[-81.1991081598459,41.3870577803848],[-81.1992683593145,41.3871081625237],[-81.1994318561019,41.3871521272722],[-81.1995981981726,41.3871895533703],[-81.1995922358729,41.3872149871173],[-81.1995778545881,41.387276330065],[-81.1992091723252,41.3875484661442],[-81.1988818642259,41.3876591679636],[-81.1985681880079,41.3878699293186],[-81.1979080559755,41.3881820592812],[-81.1977158675847,41.3885595989469],[-81.1975413294105,41.3890538779761],[-81.1974098506691,41.3891388657346],[-81.1972882835602,41.3889758434068],[-81.197366501849,41.388807549827],[-81.1972142441294,41.3886817762672],[-81.1967979067854,41.3890342365731],[-81.1967055342335,41.389161016603],[-81.1964914739654,41.3892725629913],[-81.196434823299,41.3894700008301],[-81.1962195203077,41.38955678939],[-81.1960575080664,41.3898680105007],[-81.1957125678246,41.3900355219779],[-81.1955705162498,41.3902418719564],[-81.1954422559505,41.3902606668683],[-81.1953158867237,41.3902856948958],[-81.1951919415847,41.3903168503836],[-81.1950709457014,41.3903540014743],[-81.1947451742207,41.3906377656844],[-81.1944266281809,41.3907870565884],[-81.1943516715413,41.3908344608495],[-81.194279097822,41.3908839244579],[-81.1940801220498,41.3911607107152],[-81.1939942372945,41.3916400435984],[-81.1941585985357,41.3917317443077],[-81.1942673058455,41.391998122509],[-81.1942664195297,41.3923900443749],[-81.1941792846504,41.3926813819088],[-81.193909824084,41.3930051738635],[-81.1940372870524,41.3931363336894],[-81.1944615888959,41.393219237131],[-81.1947040988176,41.3934212807567],[-81.1947097305687,41.3938225163818],[-81.1943520136421,41.394649118799],[-81.1907402334596,41.3946247398884],[-81.1907939456109,41.3901224900318],[-81.1948832967358,41.390123593526]]]},"properties":{"source_county":"Geauga","jurisdiction":"Auburn Township","parcel_id":"01-708953","owner_name":"CITY OF AKRON OHIO THE","property_address":" VALLEY RD","property_city":"AUBURN TOWNSHIP","property_zip":"44023"}},{"type":"Feature","geometry":{"type":"Polygon","coordinates":[[[-81.1965400152777,41.3812156037139],[-81.1999062234163,41.3812717735581],[-81.1999147839348,41.3872415817302],[-81.1997556419911,41.3872184970506],[-81.1995981981726,41.3871895533703],[-81.1994318561019,41.3871521272722],[-81.1992683593145,41.3871081625237],[-81.1991081598459,41.3870577803848],[-81.1989517021786,41.3870011209439],[-81.1987994209238,41.38693833949],[-81.1986517359303,41.3868696118607],[-81.1985090572276,41.3867951263925],[-81.1983717801007,41.3867150910693],[-81.1982402852143,41.3866297272205],[-81.1981149361864,41.3865392712938],[-81.1979960796057,41.3864439739548],[-81.1978840462452,41.3863440992],[-81.1977791451202,41.3862399224884],[-81.1976816681991,41.3861317343967],[-81.1974716467428,41.3858845933583],[-81.1971998591172,41.3855647647536],[-81.1965440461861,41.3847930181214],[-81.1965400152777,41.3812156037139]]]},"properties":{"source_county":"Geauga","jurisdiction":"Auburn Township","parcel_id":"01-708954","owner_name":"CITY OF AKRON OHIO THE","property_address":" VALLEY RD","property_city":"AUBURN TOWNSHIP","property_zip":"44023"}},{"type":"Feature","geometry":{"type":"Polygon","coordinates":[[[-81.1946857521048,41.3839575624116],[-81.1908672492657,41.3839649574945],[-81.1909175446402,41.3811214969513],[-81.19444606407,41.3811806142712],[-81.1965400152777,41.3812156037139],[-81.1965440461861,41.3847930181214],[-81.1965389633855,41.3847861969124],[-81.1964684846857,41.3846983355345],[-81.1963910669349,41.3846138517647],[-81.1963069946406,41.3845330560493],[-81.1962165767593,41.3844562452812],[-81.196120145562,41.3843837017093],[-81.1960180554124,41.384315691901],[-81.1959106814651,41.3842524657636],[-81.1957984182867,41.3841942556257],[-81.195789680184,41.3841900291068],[-81.1957278003885,41.3841612657734],[-81.1956645367443,41.3841342639873],[-81.1955999776167,41.3841090614633],[-81.1955342131803,41.3840856934032],[-81.1954673352932,41.3840641924464],[-81.1953994373679,41.3840445886244],[-81.1953306142418,41.3840269093189],[-81.1952609620442,41.3840111792235],[-81.1951905780621,41.383997420309],[-81.1951195606044,41.3839856517933],[-81.1950480088649,41.383975890114],[-81.1949760227831,41.3839681489057],[-81.1949037029055,41.3839624389809],[-81.1948311502443,41.3839587683149],[-81.1947584661371,41.3839571420346],[-81.1946857521048,41.3839575624116]]]},"properties":{"source_county":"Geauga","jurisdiction":"Auburn Township","parcel_id":"01-708956","owner_name":"CITY OF AKRON OHIO THE","property_address":" SHAW RD","property_city":"HIRAM","property_zip":"44234"}},{"type":"Feature","geometry":{"type":"Polygon","coordinates":[[[-81.1953795618084,41.3750219374734],[-81.2007924875944,41.3750193931651],[-81.2007689406107,41.3766816674866],[-81.197927408667,41.3766927463217],[-81.197911375123,41.3778212147845],[-81.1924233589556,41.3777593660538],[-81.1931770021449,41.3764231864978],[-81.1953591392961,41.3764552878221],[-81.1953692721108,41.3757441029195],[-81.1953795618084,41.3750219374734]]]},"properties":{"source_county":"Geauga","jurisdiction":"Auburn Township","parcel_id":"01-708957","owner_name":"CITY OF AKRON OHIO THE","property_address":" SHAW RD","property_city":"AUBURN TOWNSHIP","property_zip":"44023"}},{"type":"Feature","geometry":{"type":"Polygon","coordinates":[[[-81.2007689406107,41.3766816674866],[-81.2007924875944,41.3750193931651],[-81.1953795618084,41.3750219374734],[-81.1910049668336,41.3750238083796],[-81.1910073492353,41.3748807931325],[-81.1910124862084,41.3745239468078],[-81.2034206963893,41.3744757457972],[-81.203398399473,41.3766713527889],[-81.2007689406107,41.3766816674866]]]},"properties":{"source_county":"Geauga","jurisdiction":"Auburn Township","parcel_id":"01-708971","owner_name":"CITY OF AKRON OHIO THE","property_address":" SHAW RD","property_city":"AUBURN TOWNSHIP","property_zip":"44023"}},{"type":"Feature","geometry":{"type":"Polygon","coordinates":[[[-81.2041842282559,41.3902490031388],[-81.2040452233119,41.3916569512865],[-81.2046371124823,41.3917865964699],[-81.2046266245591,41.3946395438416],[-81.2026155390526,41.3946938987196],[-81.2024632862193,41.3949241527198],[-81.203171411068,41.3958275852854],[-81.2028512043054,41.3962820182164],[-81.2028423472595,41.3971310797515],[-81.2009623063638,41.3971399949208],[-81.2003326934917,41.3979999120561],[-81.2002379997183,41.3981050933828],[-81.2001472686767,41.3982122369021],[-81.2000605720502,41.3983212579869],[-81.1999779783366,41.3984320705263],[-81.1998995527939,41.3985445869945],[-81.199825357389,41.3986587185188],[-81.1997554507483,41.3987743749507],[-81.1996898881117,41.3988914649368],[-81.1995755500282,41.3990520093295],[-81.1906883171459,41.3989733287938],[-81.1907023509074,41.3977972536734],[-81.1907297833819,41.3954981128102],[-81.1907402334596,41.3946247398884],[-81.1943520136421,41.394649118799],[-81.1947097305687,41.3938225163818],[-81.1947040988176,41.3934212807567],[-81.1944615888959,41.393219237131],[-81.1940372870524,41.3931363336894],[-81.193909824084,41.3930051738635],[-81.1941792846504,41.3926813819088],[-81.1942664195297,41.3923900443749],[-81.1942673058455,41.391998122509],[-81.1941585985357,41.3917317443077],[-81.1939942372945,41.3916400435984],[-81.1940801220498,41.3911607107152],[-81.194279097822,41.3908839244579],[-81.1943516715413,41.3908344608495],[-81.1944266281809,41.3907870565884],[-81.1947451742207,41.3906377656844],[-81.1950709457014,41.3903540014743],[-81.1951919415847,41.3903168503836],[-81.1953158867237,41.3902856948958],[-81.1954422559505,41.3902606668683],[-81.1955705162498,41.3902418719564],[-81.200583283542,41.3902460999172],[-81.2010234650251,41.3902464608217],[-81.2041842282559,41.3902490031388]]]},"properties":{"source_county":"Geauga","jurisdiction":"Auburn Township","parcel_id":"01-708904","owner_name":"CITY OF AKRON OHIO THE","property_address":" VALLEY RD","property_city":"BURTON","property_zip":"44021"}},{"type":"Feature","geometry":{"type":"Polygon","coordinates":[[[-81.1967055342335,41.389161016603],[-81.1967979067854,41.3890342365731],[-81.1972142441294,41.3886817762672],[-81.197366501849,41.388807549827],[-81.1972882835602,41.3889758434068],[-81.1974098506691,41.3891388657346],[-81.1975413294105,41.3890538779761],[-81.1977158675847,41.3885595989469],[-81.1979080559755,41.3881820592812],[-81.1985681880079,41.3878699293186],[-81.1988818642259,41.3876591679636],[-81.1992091723252,41.3875484661442],[-81.1995778545881,41.387276330065],[-81.1995932860359,41.3872105042957],[-81.1995981981726,41.3871895533703],[-81.1996231564275,41.3871941409473],[-81.1996460463414,41.3871983486771],[-81.1997556419911,41.3872184970506],[-81.1999147839348,41.3872415817302],[-81.2000508769413,41.3872565339908],[-81.2001876790257,41.387267200257],[-81.2003249525578,41.3872735625503],[-81.2004624597823,41.3872756091955],[-81.2008766892707,41.3872752698878],[-81.2008763049638,41.3872791622291],[-81.200583283542,41.3902460999172],[-81.1955705162498,41.3902418719564],[-81.1957125678246,41.3900355219779],[-81.1960575080664,41.3898680105007],[-81.1962195203077,41.38955678939],[-81.196434823299,41.3894700008301],[-81.1964914739654,41.3892725629913],[-81.1967055342335,41.389161016603]]]},"properties":{"source_county":"Geauga","jurisdiction":"Auburn Township","parcel_id":"01-708948","owner_name":"CITY OF AKRON OHIO THE","property_address":" VALLEY RD","property_city":"AUBURN TOWNSHIP","property_zip":"44023"}},{"type":"Feature","geometry":{"type":"Polygon","coordinates":[[[-81.1922851308723,41.3797370210766],[-81.1922864972146,41.3796411264622],[-81.1909398002416,41.379632662676],[-81.1909389084063,41.3796326570957],[-81.1909448681618,41.3792222046436],[-81.1909449851281,41.3792141757863],[-81.1909641006254,41.3778788260996],[-81.1909660466568,41.3777428987398],[-81.1924233589556,41.3777593660538],[-81.197911375123,41.3778212147845],[-81.197927408667,41.3766927463217],[-81.2007689406107,41.3766816674866],[-81.203398399473,41.3766713527889],[-81.2033908560364,41.3777054848218],[-81.2030348331637,41.3778402920671],[-81.2028060605894,41.3777636944084],[-81.2026169996683,41.3777003920723],[-81.2022381326192,41.3776652384448],[-81.2020881210345,41.3777292346206],[-81.2018256736113,41.3777726532892],[-81.2013859566622,41.377702044512],[-81.201167792737,41.3779369002359],[-81.2011770187005,41.3779450293972],[-81.2013524512303,41.3780995992451],[-81.2013556689543,41.3781962206824],[-81.2009959381023,41.3782308187111],[-81.2005776492094,41.3781140862961],[-81.2001749809272,41.3782447861459],[-81.1998840613211,41.3784308262764],[-81.1997479771413,41.378568380249],[-81.1997023637458,41.3787996730418],[-81.1994159566129,41.3790166694255],[-81.1992487910992,41.3789104804128],[-81.1991850315108,41.3787629543813],[-81.1989218683731,41.3788086332625],[-81.1987587081299,41.3790517824449],[-81.1988945678061,41.3791846646728],[-81.1986993158757,41.379719483969],[-81.1985447037268,41.3797563796103],[-81.1983763142802,41.3797119899827],[-81.1982938200073,41.3797749761234],[-81.1922851308723,41.3797370210766]]]},"properties":{"source_county":"Geauga","jurisdiction":"Auburn Township","parcel_id":"01-709008","owner_name":"CITY OF AKRON OHIO THE","property_address":" SHAW RD","property_city":"AUBURN TOWNSHIP","property_zip":"44023"}},{"type":"Feature","geometry":{"type":"Polygon","coordinates":[[[-81.1982938187941,41.3797749770104],[-81.1983763142802,41.3797119899827],[-81.1985447037268,41.3797563796103],[-81.1986993158757,41.379719483969],[-81.1988945678061,41.3791846646728],[-81.1987587081299,41.3790517824449],[-81.1989218683731,41.3788086332625],[-81.1991850315108,41.3787629543813],[-81.1992487910992,41.3789104804128],[-81.1994159566129,41.3790166694255],[-81.1997023637458,41.3787996730418],[-81.1997479771413,41.378568380249],[-81.1998840613211,41.3784308262764],[-81.2001749809272,41.3782447861459],[-81.2005776492094,41.3781140862961],[-81.2009959381023,41.3782308187111],[-81.2013556689543,41.3781962206824],[-81.2013524512303,41.3780995992451],[-81.201167792737,41.3779369002359],[-81.2013859566622,41.377702044512],[-81.2018256736113,41.3777726532892],[-81.2020881210345,41.3777292346206],[-81.2022381326192,41.3776652384448],[-81.2026169996683,41.3777003920723],[-81.2030348331637,41.3778402920671],[-81.2033908584449,41.3777054839483],[-81.2033897124548,41.3778620264737],[-81.2033579854936,41.3813292691625],[-81.1999062234163,41.3812717735581],[-81.1965400152777,41.3812156037139],[-81.19444606407,41.3811806142712],[-81.1944643285094,41.3799288059188],[-81.1981449978141,41.3799524989429],[-81.1982938187941,41.3797749770104]]]},"properties":{"source_county":"Geauga","jurisdiction":"Auburn Township","parcel_id":"01-708972","owner_name":"CITY OF AKRON OHIO THE","property_address":" SHAW RD","property_city":"AUBURN TOWNSHIP","property_zip":"44023"}},{"type":"Feature","geometry":{"type":"Polygon","coordinates":[[[-81.1909660466585,41.3777428987427],[-81.1909739148777,41.377193165541],[-81.1909842341784,41.3764861702819],[-81.1931770021465,41.3764231865007],[-81.1924233589572,41.3777593660567],[-81.1909660466585,41.3777428987427]]]},"properties":{"source_county":"Geauga","jurisdiction":"Auburn Township","parcel_id":"01-034200","owner_name":"ENGLE TRACY L & JEANNE M","property_address":"18144 SHAW RD","property_city":"AUBURN TOWNSHIP","property_zip":"44023"}},{"type":"Feature","geometry":{"type":"Polygon","coordinates":[[[-81.1909946302251,41.3757459743524],[-81.1953692721125,41.3757441029224],[-81.1953591392978,41.376455287825],[-81.1931770021465,41.3764231865007],[-81.1909842341964,41.3764861693816],[-81.1909946302251,41.3757459743524]]]},"properties":{"source_county":"Geauga","jurisdiction":"Auburn Township","parcel_id":"01-042100","owner_name":"SCHMIDT PETER TOD","property_address":"18166 SHAW RD","property_city":"AUBURN TOWNSHIP","property_zip":"44023"}},{"type":"Feature","geometry":{"type":"MultiPolygon","coordinates":[[[[-81.1910001346051,41.3753613980822],[-81.1910052466039,41.3750238079434],[-81.19537956181,41.3750219374762],[-81.1953692721125,41.3757441029224],[-81.1909948920493,41.375745974611],[-81.1909946302251,41.3757459743524],[-81.1909988422827,41.3754516886372],[-81.1910001346051,41.3753613980822]]],[[[-81.1910052466039,41.3750238079434],[-81.1910049668353,41.3750238083824],[-81.191007349237,41.3748807931353],[-81.1910052466039,41.3750238079434]]]]},"properties":{"source_county":"Geauga","jurisdiction":"Auburn Township","parcel_id":"01-042800","owner_name":"PAVLIK ROBERT J","property_address":"18192 SHAW RD","property_city":"AUBURN TOWNSHIP","property_zip":"44023"}},{"type":"Feature","geometry":{"type":"Polygon","coordinates":[[[-81.1986876258967,41.3998164827276],[-81.1994148339648,41.3998189505914],[-81.1991091583988,41.4003234974638],[-81.1983463233219,41.4000655383319],[-81.1986876258967,41.3998164827276]]]},"properties":{"source_county":"Geauga","jurisdiction":"Auburn Township","parcel_id":"01-078700","owner_name":"DULL JEROME J TOD","property_address":"17282 VALLEY RD","property_city":"AUBURN TOWNSHIP","property_zip":"44023"}},{"type":"Feature","geometry":{"type":"Polygon","coordinates":[[[-81.1993517556887,41.3993318447837],[-81.2008061532553,41.3993416421453],[-81.2008007680596,41.3998236402797],[-81.1994148339648,41.3998189505914],[-81.1986876258967,41.3998164827276],[-81.1993517556887,41.3993318447837]]]},"properties":{"source_county":"Geauga","jurisdiction":"Auburn Township","parcel_id":"01-109300","owner_name":"KATHLEEN NOAH ENTERPRISES LLC","property_address":"17296 VALLEY RD","property_city":"AUBURN TOWNSHIP","property_zip":"44023"}},{"type":"Feature","geometry":{"type":"Polygon","coordinates":[[[-81.190938908408,41.3796326570985],[-81.1922864972162,41.379641126465],[-81.192285130874,41.3797370210795],[-81.1922825972519,41.3799147874325],[-81.1909349454171,41.379907099047],[-81.190938908408,41.3796326570985]]]},"properties":{"source_county":"Geauga","jurisdiction":"Auburn Township","parcel_id":"01-708300","owner_name":"COUNTY COMMISSIONERS OF GEAUGA COUNTY","property_address":"18018 SHAW RD","property_city":"AUBURN TOWNSHIP","property_zip":"44023"}},{"type":"Feature","geometry":{"type":"Polygon","coordinates":[[[-81.1967444749814,41.38600563067],[-81.1966079025616,41.3855723120144],[-81.1971998591189,41.3855647647564],[-81.1974716467445,41.3858845933612],[-81.1967444749814,41.38600563067]]]},"properties":{"source_county":"Geauga","jurisdiction":"Auburn Township","parcel_id":"01-708920","owner_name":"CITY OF AKRON OHIO THE","property_address":" VALLEY RD","property_city":"AUBURN TOWNSHIP","property_zip":"44023"}},{"type":"Feature","geometry":{"type":"Polygon","coordinates":[[[-81.192285130874,41.3797370210795],[-81.1982938212222,41.3797749752394],[-81.1981449978158,41.3799524989457],[-81.1944643285111,41.3799288059217],[-81.1922825972519,41.3799147874325],[-81.192285130874,41.3797370210795]]]},"properties":{"source_county":"Geauga","jurisdiction":"Auburn Township","parcel_id":"01-708937","owner_name":"CITY OF AKRON","property_address":" SHAW RD","property_city":"AUBURN TOWNSHIP","property_zip":"44023"}},{"type":"Feature","geometry":{"type":"Polygon","coordinates":[[[-81.1922825972519,41.3799147874325],[-81.1944643285111,41.3799288059217],[-81.1944460640718,41.381180614274],[-81.1909175446419,41.3811214969541],[-81.190934945435,41.3799070981466],[-81.1922825972519,41.3799147874325]]]},"properties":{"source_county":"Geauga","jurisdiction":"Auburn Township","parcel_id":"01-708939","owner_name":"CITY OF AKRON","property_address":" SHAW RD","property_city":"HIRAM","property_zip":"44234"}},{"type":"Feature","geometry":{"type":"Polygon","coordinates":[[[-81.1957896801857,41.3841900291096],[-81.1957984182883,41.3841942556286],[-81.1959106095725,41.3842525308086],[-81.1960179262355,41.3843157996286],[-81.1961199769661,41.3843838313983],[-81.1962163896501,41.3844563780602],[-81.1963068127274,41.3845331750938],[-81.1963909164738,41.3846139424796],[-81.1964683942034,41.3846983857206],[-81.1965389633871,41.3847861969152],[-81.1965440461877,41.3847930181242],[-81.1971998591189,41.3855647647564],[-81.1971569927474,41.3855653117872],[-81.1966079025616,41.3855723120144],[-81.1967444749814,41.38600563067],[-81.1968278640296,41.386795538958],[-81.1968748199925,41.3884556173648],[-81.1964241904983,41.388881800726],[-81.1948295357781,41.3884499071371],[-81.1946857521065,41.3839575624144],[-81.1948150060092,41.3839582301221],[-81.1949439158311,41.3839653598486],[-81.1950719126557,41.3839789201286],[-81.1951984315951,41.3839988511164],[-81.1953229142824,41.3840250648506],[-81.1954448113353,41.3840574456421],[-81.1955635847811,41.3840958505843],[-81.1956787104292,41.3841401101842],[-81.1957896801857,41.3841900291096]]]},"properties":{"source_county":"Geauga","jurisdiction":"Auburn Township","parcel_id":"01-708951","owner_name":"CITY OF AKRON OHIO THE","property_address":" VALLEY RD","property_city":"AUBURN TOWNSHIP","property_zip":"44023"}},{"type":"Feature","geometry":{"type":"Polygon","coordinates":[[[-81.1908672492674,41.3839649574974],[-81.1946857521065,41.3839575624144],[-81.1948295357781,41.3884499071371],[-81.1948832967375,41.3901235935289],[-81.1907939456125,41.3901224900346],[-81.1908672492674,41.3839649574974]]]},"properties":{"source_county":"Geauga","jurisdiction":"Auburn Township","parcel_id":"01-708952","owner_name":"CITY OF AKRON OHIO","property_address":" VALLEY RD","property_city":"BURTON","property_zip":"44021"}},{"type":"Feature","geometry":{"type":"Polygon","coordinates":[[[-81.1948832967375,41.3901235935289],[-81.1948295357781,41.3884499071371],[-81.1964241904983,41.388881800726],[-81.1968748199925,41.3884556173648],[-81.1968278640296,41.386795538958],[-81.1967444749814,41.38600563067],[-81.1974337514624,41.3858909004632],[-81.1974693552982,41.385884974632],[-81.1974716467445,41.3858845933612],[-81.1974855365025,41.3859009377883],[-81.1975326287456,41.3859563529785],[-81.1976806854852,41.3861305787553],[-81.1977791451218,41.3862399224913],[-81.1978840462469,41.3863440992029],[-81.1979960796074,41.3864439739576],[-81.1981149361881,41.3865392712967],[-81.198240285216,41.3866297272234],[-81.1983717801024,41.3867150910722],[-81.1985090572293,41.3867951263953],[-81.1986517359319,41.3868696118636],[-81.1987994209255,41.3869383394929],[-81.1988607271785,41.3869636141185],[-81.1989517021803,41.3870011209467],[-81.1991081598475,41.3870577803876],[-81.1992683593162,41.3871081625266],[-81.1994318561035,41.387152127275],[-81.1995981981743,41.3871895533732],[-81.1995922358745,41.3872149871201],[-81.1995778545897,41.3872763300679],[-81.1992091723269,41.387548466147],[-81.1988818642276,41.3876591679664],[-81.1985681880095,41.3878699293214],[-81.1979080559771,41.3881820592841],[-81.1977158675864,41.3885595989497],[-81.1975413294122,41.389053877979],[-81.1974098506709,41.3891388657374],[-81.1972882835618,41.3889758434096],[-81.1973665018508,41.3888075498298],[-81.1972142441311,41.38868177627],[-81.1967979067871,41.389034236576],[-81.1967055342351,41.3891610166059],[-81.1964914739671,41.3892725629942],[-81.1964348233007,41.3894700008329],[-81.1962195203094,41.3895567893929],[-81.1960575080681,41.3898680105035],[-81.1957125678263,41.3900355219807],[-81.1955705162515,41.3902418719592],[-81.1954422559521,41.3902606668711],[-81.1953158867254,41.3902856948986],[-81.1951919415864,41.3903168503864],[-81.1950709457031,41.3903540014771],[-81.1947451742223,41.3906377656872],[-81.1944266281827,41.3907870565913],[-81.194351671543,41.3908344608523],[-81.1942790978237,41.3908839244608],[-81.1940801220515,41.3911607107181],[-81.1939942372962,41.3916400436012],[-81.1941585985374,41.3917317443106],[-81.1942673058472,41.3919981225118],[-81.1942664195314,41.3923900443778],[-81.194179284652,41.3926813819117],[-81.1939098240856,41.3930051738663],[-81.1940372870541,41.3931363336922],[-81.1944615888976,41.3932192371338],[-81.1947040988192,41.3934212807596],[-81.1947097305704,41.3938225163846],[-81.1943520136438,41.3946491188018],[-81.1907402334612,41.3946247398913],[-81.1907939456125,41.3901224900346],[-81.1948832967375,41.3901235935289]]]},"properties":{"source_county":"Geauga","jurisdiction":"Auburn Township","parcel_id":"01-708953","owner_name":"CITY OF AKRON OHIO THE","property_address":" VALLEY RD","property_city":"AUBURN TOWNSHIP","property_zip":"44023"}},{"type":"Feature","geometry":{"type":"Polygon","coordinates":[[[-81.1965400152793,41.3812156037167],[-81.199906223418,41.381271773561],[-81.1999147839365,41.387241581733],[-81.1997556419928,41.3872184970535],[-81.1995981981743,41.3871895533732],[-81.1994318561035,41.387152127275],[-81.1992683593162,41.3871081625266],[-81.1991081598475,41.3870577803876],[-81.1989517021803,41.3870011209467],[-81.1987994209255,41.3869383394929],[-81.1986517359319,41.3868696118636],[-81.1985090572293,41.3867951263953],[-81.1983717801024,41.3867150910722],[-81.198240285216,41.3866297272234],[-81.1981149361881,41.3865392712967],[-81.1979960796074,41.3864439739576],[-81.1978840462469,41.3863440992029],[-81.1977791451218,41.3862399224913],[-81.1976816682008,41.3861317343995],[-81.1974716467445,41.3858845933612],[-81.1971998591189,41.3855647647564],[-81.1965440461877,41.3847930181242],[-81.1965400152793,41.3812156037167]]]},"properties":{"source_county":"Geauga","jurisdiction":"Auburn Township","parcel_id":"01-708954","owner_name":"CITY OF AKRON OHIO THE","property_address":" VALLEY RD","property_city":"AUBURN TOWNSHIP","property_zip":"44023"}},{"type":"Feature","geometry":{"type":"Polygon","coordinates":[[[-81.1946857521065,41.3839575624144],[-81.1908672492674,41.3839649574974],[-81.1909175446419,41.3811214969541],[-81.1944460640718,41.381180614274],[-81.1965400152793,41.3812156037167],[-81.1965440461877,41.3847930181242],[-81.1965389633871,41.3847861969152],[-81.1964684846873,41.3846983355373],[-81.1963910669366,41.3846138517675],[-81.1963069946422,41.3845330560521],[-81.196216576761,41.3844562452841],[-81.1961201455637,41.3843837017121],[-81.1960180554141,41.3843156919039],[-81.1959106814667,41.3842524657665],[-81.1957984182883,41.3841942556286],[-81.1957896801857,41.3841900291096],[-81.1956787104292,41.3841401101842],[-81.1955635847811,41.3840958505843],[-81.1954448113353,41.3840574456421],[-81.1953229142824,41.3840250648506],[-81.1951984315951,41.3839988511164],[-81.1950719126557,41.3839789201286],[-81.1949439158311,41.3839653598486],[-81.1948150060092,41.3839582301221],[-81.1946857521065,41.3839575624144]]]},"properties":{"source_county":"Geauga","jurisdiction":"Auburn Township","parcel_id":"01-708956","owner_name":"CITY OF AKRON OHIO THE","property_address":" SHAW RD","property_city":"HIRAM","property_zip":"44234"}},{"type":"Feature","geometry":{"type":"Polygon","coordinates":[[[-81.19537956181,41.3750219374762],[-81.200792487596,41.3750193931679],[-81.2007689406123,41.3766816674894],[-81.1979274086687,41.3766927463245],[-81.1979113751247,41.3778212147873],[-81.1924233589572,41.3777593660567],[-81.1931770021465,41.3764231865007],[-81.1953591392978,41.376455287825],[-81.1953692721125,41.3757441029224],[-81.19537956181,41.3750219374762]]]},"properties":{"source_county":"Geauga","jurisdiction":"Auburn Township","parcel_id":"01-708957","owner_name":"CITY OF AKRON OHIO THE","property_address":" SHAW RD","property_city":"AUBURN TOWNSHIP","property_zip":"44023"}},{"type":"Feature","geometry":{"type":"Polygon","coordinates":[[[-81.2007689406123,41.3766816674894],[-81.200792487596,41.3750193931679],[-81.19537956181,41.3750219374762],[-81.1910049668353,41.3750238083824],[-81.191007349237,41.3748807931353],[-81.1910124862101,41.3745239468107],[-81.203420696391,41.3744757458],[-81.2033983994747,41.3766713527917],[-81.2007689406123,41.3766816674894]]]},"properties":{"source_county":"Geauga","jurisdiction":"Auburn Township","parcel_id":"01-708971","owner_name":"CITY OF AKRON OHIO THE","property_address":" SHAW RD","property_city":"AUBURN TOWNSHIP","property_zip":"44023"}},{"type":"Feature","geometry":{"type":"Polygon","coordinates":[[[-81.2041842282576,41.3902490031416],[-81.2040452233135,41.3916569512893],[-81.204637112484,41.3917865964727],[-81.2046266245608,41.3946395438444],[-81.2026155390543,41.3946938987224],[-81.202463286221,41.3949241527226],[-81.2031714110697,41.3958275852882],[-81.2028512043071,41.3962820182193],[-81.2028423472611,41.3971310797544],[-81.2009623063654,41.3971399949237],[-81.2003326934934,41.397999912059],[-81.2002073121311,41.3981405940185],[-81.2000890183647,41.3982847142954],[-81.1999779783383,41.3984320705292],[-81.1998743480144,41.3985824558142],[-81.1997782729542,41.3987356589905],[-81.1996898881134,41.3988914649397],[-81.1995755500299,41.3990520093323],[-81.1906883171476,41.3989733287967],[-81.190702350909,41.3977972536762],[-81.1907297833836,41.395498112813],[-81.1907402334612,41.3946247398913],[-81.1943520136438,41.3946491188018],[-81.1947097305704,41.3938225163846],[-81.1947040988192,41.3934212807596],[-81.1944615888976,41.3932192371338],[-81.1940372870541,41.3931363336922],[-81.1939098240856,41.3930051738663],[-81.194179284652,41.3926813819117],[-81.1942664195314,41.3923900443778],[-81.1942673058472,41.3919981225118],[-81.1941585985374,41.3917317443106],[-81.1939942372962,41.3916400436012],[-81.1940801220515,41.3911607107181],[-81.1942790978237,41.3908839244608],[-81.194351671543,41.3908344608523],[-81.1944266281827,41.3907870565913],[-81.1947451742223,41.3906377656872],[-81.1950709457031,41.3903540014771],[-81.1951919415864,41.3903168503864],[-81.1953158867254,41.3902856948986],[-81.1954422559521,41.3902606668711],[-81.1955705162515,41.3902418719592],[-81.2005832835436,41.39024609992],[-81.2010234650268,41.3902464608246],[-81.2041842282576,41.3902490031416]]]},"properties":{"source_county":"Geauga","jurisdiction":"Auburn Township","parcel_id":"01-708904","owner_name":"CITY OF AKRON OHIO THE","property_address":" VALLEY RD","property_city":"BURTON","property_zip":"44021"}},{"type":"Feature","geometry":{"type":"Polygon","coordinates":[[[-81.1967055342351,41.3891610166059],[-81.1967979067871,41.389034236576],[-81.1972142441311,41.38868177627],[-81.1973665018508,41.3888075498298],[-81.1972882835618,41.3889758434096],[-81.1974098506709,41.3891388657374],[-81.1975413294122,41.389053877979],[-81.1977158675864,41.3885595989497],[-81.1979080559771,41.3881820592841],[-81.1985681880095,41.3878699293214],[-81.1988818642276,41.3876591679664],[-81.1992091723269,41.387548466147],[-81.1995778545897,41.3872763300679],[-81.1995932860376,41.3872105042985],[-81.1995981981743,41.3871895533732],[-81.1996231564292,41.3871941409501],[-81.1996460463431,41.3871983486799],[-81.1997556419928,41.3872184970535],[-81.1999147839365,41.387241581733],[-81.200050876943,41.3872565339937],[-81.2001876790274,41.3872672002599],[-81.2003249525595,41.3872735625531],[-81.200462459784,41.3872756091984],[-81.2008766892724,41.3872752698907],[-81.2008763049655,41.3872791622319],[-81.2005832835436,41.39024609992],[-81.1955705162515,41.3902418719592],[-81.1957125678263,41.3900355219807],[-81.1960575080681,41.3898680105035],[-81.1962195203094,41.3895567893929],[-81.1964348233007,41.3894700008329],[-81.1964914739671,41.3892725629942],[-81.1967055342351,41.3891610166059]]]},"properties":{"source_county":"Geauga","jurisdiction":"Auburn Township","parcel_id":"01-708948","owner_name":"CITY OF AKRON OHIO THE","property_address":" VALLEY RD","property_city":"AUBURN TOWNSHIP","property_zip":"44023"}},{"type":"Feature","geometry":{"type":"Polygon","coordinates":[[[-81.192285130874,41.3797370210795],[-81.1922864972162,41.379641126465],[-81.1909398002433,41.3796326626789],[-81.190938908408,41.3796326570985],[-81.1909448681635,41.3792222046464],[-81.1909449851298,41.3792141757892],[-81.1909641006271,41.3778788261025],[-81.1909660466585,41.3777428987427],[-81.1924233589572,41.3777593660567],[-81.1979113751247,41.3778212147873],[-81.1979274086687,41.3766927463245],[-81.2007689406123,41.3766816674894],[-81.2033983994747,41.3766713527917],[-81.2033908560382,41.3777054848247],[-81.2030348331654,41.3778402920699],[-81.202806060591,41.3777636944113],[-81.20261699967,41.3777003920751],[-81.2022381326209,41.3776652384476],[-81.2020881210361,41.3777292346234],[-81.201825673613,41.3777726532921],[-81.2013859566639,41.3777020445149],[-81.2011677927387,41.3779369002388],[-81.2011770187022,41.3779450294],[-81.201352451232,41.3780995992479],[-81.2013556689559,41.3781962206853],[-81.200995938104,41.378230818714],[-81.2005776492111,41.378114086299],[-81.2001749809288,41.3782447861487],[-81.1998840613227,41.3784308262792],[-81.1997479771429,41.3785683802518],[-81.1997023637475,41.3787996730446],[-81.1994159566146,41.3790166694284],[-81.1992487911009,41.3789104804157],[-81.1991850315125,41.3787629543841],[-81.1989218683747,41.3788086332654],[-81.1987587081316,41.3790517824477],[-81.1988945678077,41.3791846646756],[-81.1986993158774,41.3797194839719],[-81.1985447037284,41.3797563796131],[-81.1983763142819,41.3797119899856],[-81.198293820009,41.3797749761263],[-81.192285130874,41.3797370210795]]]},"properties":{"source_county":"Geauga","jurisdiction":"Auburn Township","parcel_id":"01-709008","owner_name":"CITY OF AKRON OHIO THE","property_address":" SHAW RD","property_city":"AUBURN TOWNSHIP","property_zip":"44023"}},{"type":"Feature","geometry":{"type":"Polygon","coordinates":[[[-81.1982938187957,41.3797749770133],[-81.1983763142819,41.3797119899856],[-81.1985447037284,41.3797563796131],[-81.1986993158774,41.3797194839719],[-81.1988945678077,41.3791846646756],[-81.1987587081316,41.3790517824477],[-81.1989218683747,41.3788086332654],[-81.1991850315125,41.3787629543841],[-81.1992487911009,41.3789104804157],[-81.1994159566146,41.3790166694284],[-81.1997023637475,41.3787996730446],[-81.1997479771429,41.3785683802518],[-81.1998840613227,41.3784308262792],[-81.2001749809288,41.3782447861487],[-81.2005776492111,41.378114086299],[-81.200995938104,41.378230818714],[-81.2013556689559,41.3781962206853],[-81.201352451232,41.3780995992479],[-81.2011677927387,41.3779369002388],[-81.2013859566639,41.3777020445149],[-81.201825673613,41.3777726532921],[-81.2020881210361,41.3777292346234],[-81.2022381326209,41.3776652384476],[-81.20261699967,41.3777003920751],[-81.2030348331654,41.3778402920699],[-81.2033908584466,41.3777054839512],[-81.2033897124565,41.3778620264766],[-81.2033579854953,41.3813292691654],[-81.199906223418,41.381271773561],[-81.1965400152793,41.3812156037167],[-81.1944460640718,41.381180614274],[-81.1944643285111,41.3799288059217],[-81.1981449978158,41.3799524989457],[-81.1982938187957,41.3797749770133]]]},"properties":{"source_county":"Geauga","jurisdiction":"Auburn Township","parcel_id":"01-708972","owner_name":"CITY OF AKRON OHIO THE","property_address":" SHAW RD","property_city":"AUBURN TOWNSHIP","property_zip":"44023"}}]}