{"type":"FeatureCollection","features":[{"type":"Feature","geometry":{"type":"Polygon","coordinates":[[[-81.1909617346697,41.6313625946162],[-81.1909689650155,41.6295926954199],[-81.1909759465688,41.627883743927],[-81.1911949794673,41.6278184116655],[-81.1912115680402,41.6299767949798],[-81.1921475065717,41.6299768291098],[-81.1921287404329,41.6275398831199],[-81.1922725666868,41.6274969817458],[-81.192978473448,41.6272864116916],[-81.1930098901047,41.6313594462668],[-81.1909617346697,41.6313625946162]]]},"properties":{"source_county":"Geauga","jurisdiction":"Chardon Township","parcel_id":"06-012800","owner_name":"KAPITANEC NICHOLAS A","property_address":" PEARL RD","property_city":"CHARDON","property_zip":"44024"}},{"type":"Feature","geometry":{"type":"Polygon","coordinates":[[[-81.1958808123312,41.6265734928837],[-81.1963928878732,41.6265740685509],[-81.1964019854298,41.6277496381196],[-81.1958899035675,41.6277496406317],[-81.1958808123312,41.6265734928837]]]},"properties":{"source_county":"Geauga","jurisdiction":"Chardon Township","parcel_id":"06-036150","owner_name":"YEHL ROBERT C","property_address":"12340 PEARL RD","property_city":"CHARDON","property_zip":"44024"}},{"type":"Feature","geometry":{"type":"Polygon","coordinates":[[[-81.1923115539095,41.6251603701732],[-81.1930284488842,41.6249872907376],[-81.1930170038383,41.6272749181224],[-81.192978473448,41.6272864116916],[-81.1922725666868,41.6274969817458],[-81.1923115539095,41.6251603701732]]]},"properties":{"source_county":"Geauga","jurisdiction":"Chardon Township","parcel_id":"06-049720","owner_name":"PLUSH VIRGINA A","property_address":"12435 PEARL RD","property_city":"CHARDON","property_zip":"44024"}},{"type":"Feature","geometry":{"type":"Polygon","coordinates":[[[-81.1986478765264,41.6313505917699],[-81.2008994681556,41.6313469794304],[-81.200936850724,41.6341901484369],[-81.2009598184612,41.6359368243632],[-81.2009638019997,41.636239703798],[-81.2009522841232,41.6362398020085],[-81.199639676874,41.6362509917357],[-81.1960631378276,41.6362814031777],[-81.1960828808716,41.6313546542283],[-81.1986478765264,41.6313505917699]]]},"properties":{"source_county":"Geauga","jurisdiction":"Chardon Township","parcel_id":"06-050100","owner_name":"JOHNSON NEIL M TRUSTEE","property_address":" CLARK RD","property_city":"CHARDON","property_zip":"44024"}},{"type":"Feature","geometry":{"type":"Polygon","coordinates":[[[-81.1911949794673,41.6278184116655],[-81.1921287404329,41.6275398831199],[-81.1921475065717,41.6299768291098],[-81.1912115680402,41.6299767949798],[-81.1911949794673,41.6278184116655]]]},"properties":{"source_county":"Geauga","jurisdiction":"Chardon Township","parcel_id":"06-053050","owner_name":"KAPITANEC NICHOLAS A","property_address":"12444 PEARL RD","property_city":"CHARDON","property_zip":"44024"}},{"type":"Feature","geometry":{"type":"Polygon","coordinates":[[[-81.1968966285796,41.626574632262],[-81.1968812815225,41.6252256925325],[-81.1952703597793,41.6252257008574],[-81.1952757221213,41.6240274002934],[-81.1983164410584,41.6240568069756],[-81.1983202858146,41.624742889393],[-81.1986860134853,41.6247462850872],[-81.2009277806114,41.6247670307184],[-81.2009387907532,41.6263085715614],[-81.2009407231579,41.6265790803437],[-81.2000163021163,41.6265780764665],[-81.1995266531995,41.6265775416702],[-81.1993048417085,41.6265772982571],[-81.1984840537246,41.6265763955126],[-81.1979354128041,41.6265757886391],[-81.1973867454964,41.6265751788801],[-81.1968966285796,41.626574632262]]]},"properties":{"source_county":"Geauga","jurisdiction":"Chardon Township","parcel_id":"06-067700","owner_name":"SHAULIS SARAH TOD & MICHAEL TOD","property_address":"12237 PEARL RD","property_city":"CHARDON","property_zip":"44024"}},{"type":"Feature","geometry":{"type":"Polygon","coordinates":[[[-81.1979354128041,41.6265757886391],[-81.1984840537246,41.6265763955126],[-81.19852882835,41.6278819732788],[-81.1979752398336,41.6278819866753],[-81.1979354128041,41.6265757886391]]]},"properties":{"source_county":"Geauga","jurisdiction":"Chardon Township","parcel_id":"06-071240","owner_name":"LEWIS EMMETT R & LORNA F","property_address":"12292 PEARL RD","property_city":"CHARDON","property_zip":"44024"}},{"type":"Feature","geometry":{"type":"Polygon","coordinates":[[[-81.1953701121314,41.6265729168909],[-81.1958808123312,41.6265734928837],[-81.1958899035675,41.6277496406317],[-81.195917867078,41.631354913782],[-81.1947605848227,41.6313567256709],[-81.1947250264637,41.6267653968083],[-81.1952865725306,41.6265978742217],[-81.1953701121314,41.6265729168909]]]},"properties":{"source_county":"Geauga","jurisdiction":"Chardon Township","parcel_id":"06-074810","owner_name":"MORROW CAROLYN","property_address":"12360 PEARL RD","property_city":"CHARDON","property_zip":"44024"}},{"type":"Feature","geometry":{"type":"Polygon","coordinates":[[[-81.1909333451814,41.6383109035884],[-81.19094146142,41.6363247630626],[-81.1909678287116,41.6363245404042],[-81.1935023004723,41.6363031113245],[-81.1960631378276,41.6362814031777],[-81.199639676874,41.6362509917357],[-81.1992464633858,41.6367003884706],[-81.1972914402488,41.6367526785561],[-81.1975429756517,41.637003186083],[-81.1986934395901,41.6381489180375],[-81.2006542624144,41.6381311866301],[-81.200761835789,41.6381503137585],[-81.2003656452764,41.638957664923],[-81.2000079247354,41.6396866047654],[-81.198170535242,41.6412488880253],[-81.190924993177,41.641291944541],[-81.1909211633828,41.6412919671515],[-81.1909333451814,41.6383109035884]]]},"properties":{"source_county":"Geauga","jurisdiction":"Chardon Township","parcel_id":"06-083150","owner_name":"POKORNY RICHARD M TOD & NANCY M & MICHELE A & KELLOGG BARBARA J","property_address":"12229 CLARK RD","property_city":"CHARDON","property_zip":"44024"}},{"type":"Feature","geometry":{"type":"Polygon","coordinates":[[[-81.1984840537246,41.6265763955126],[-81.1993048417085,41.6265772982571],[-81.1998241779394,41.6292713614725],[-81.1985771417793,41.6292897059153],[-81.1985612459826,41.6288265522453],[-81.19852882835,41.6278819732788],[-81.1984840537246,41.6265763955126]]]},"properties":{"source_county":"Geauga","jurisdiction":"Chardon Township","parcel_id":"06-088500","owner_name":"LOVELAND SHARON & BOSNAR LEONARDO M","property_address":"12270 PEARL RD","property_city":"CHARDON","property_zip":"44024"}},{"type":"Feature","geometry":{"type":"Polygon","coordinates":[[[-81.1910054402935,41.6254756915011],[-81.1923115539095,41.6251603701732],[-81.1922725666868,41.6274969817458],[-81.1921287404329,41.6275398831199],[-81.1911949794673,41.6278184116655],[-81.1909759465688,41.627883743927],[-81.1909988335458,41.6262438274839],[-81.191000512223,41.6260485703214],[-81.1910054402935,41.6254756915011]]]},"properties":{"source_county":"Geauga","jurisdiction":"Chardon Township","parcel_id":"06-110400","owner_name":"VAUGHAN JOAN L TOD","property_address":"12449 PEARL RD","property_city":"CHARDON","property_zip":"44024"}},{"type":"Feature","geometry":{"type":"Polygon","coordinates":[[[-81.195917867078,41.631354913782],[-81.1958899035675,41.6277496406317],[-81.1964019854298,41.6277496381196],[-81.1963928878732,41.6265740685509],[-81.1968966285796,41.626574632262],[-81.1973867454964,41.6265751788801],[-81.1974553984034,41.6288265755792],[-81.1985612459826,41.6288265522453],[-81.1985771417793,41.6292897059153],[-81.1986478765264,41.6313505917699],[-81.1960828808716,41.6313546542283],[-81.195917867078,41.631354913782]]]},"properties":{"source_county":"Geauga","jurisdiction":"Chardon Township","parcel_id":"06-116000","owner_name":"JERNEJCIC JEFFREY J & CONNIE A","property_address":"12316 PEARL RD","property_city":"CHARDON","property_zip":"44024"}},{"type":"Feature","geometry":{"type":"Polygon","coordinates":[[[-81.1998921859214,41.6369838476906],[-81.1996025930471,41.6368438724724],[-81.1993921796474,41.637088842809],[-81.1975429756517,41.637003186083],[-81.1972914402488,41.6367526785561],[-81.1992464633858,41.6367003884706],[-81.199639676874,41.6362509917357],[-81.2009522841232,41.6362398020085],[-81.2009638019997,41.636239703798],[-81.2009829990659,41.6376996209708],[-81.2009757484107,41.6377143977679],[-81.2009071724656,41.6378541449933],[-81.2007436239869,41.6376457449422],[-81.1998921859214,41.6369838476906]]]},"properties":{"source_county":"Geauga","jurisdiction":"Chardon Township","parcel_id":"06-120487","owner_name":"KELLOGG TIMOTHY J & LISA M","property_address":"12207 CLARK RD","property_city":"CHARDON","property_zip":"44024"}},{"type":"Feature","geometry":{"type":"Polygon","coordinates":[[[-81.1952703597793,41.6252257008574],[-81.1968812815225,41.6252256925325],[-81.1968966285796,41.626574632262],[-81.1963928878732,41.6265740685509],[-81.1958808123312,41.6265734928837],[-81.1953701121314,41.6265729168909],[-81.1952865725306,41.6265978742217],[-81.1952703597793,41.6252257008574]]]},"properties":{"source_county":"Geauga","jurisdiction":"Chardon Township","parcel_id":"06-120598","owner_name":"LINDAUER CRAIG TOD & LAURA TOD","property_address":"12345 PEARL RD","property_city":"CHARDON","property_zip":"44024"}},{"type":"Feature","geometry":{"type":"Polygon","coordinates":[[[-81.1974553984034,41.6288265755792],[-81.1973867454964,41.6265751788801],[-81.1979354128041,41.6265757886391],[-81.1979752398336,41.6278819866753],[-81.19852882835,41.6278819732788],[-81.1985612459826,41.6288265522453],[-81.1974553984034,41.6288265755792]]]},"properties":{"source_county":"Geauga","jurisdiction":"Chardon Township","parcel_id":"06-120869","owner_name":"LEWIS EMMETT R & LORNA F","property_address":" PEARL RD","property_city":"CHARDON","property_zip":"44024"}},{"type":"Feature","geometry":{"type":"Polygon","coordinates":[[[-81.1986934395901,41.6381489180375],[-81.1975429756517,41.637003186083],[-81.1993921796474,41.637088842809],[-81.1996025930471,41.6368438724724],[-81.1998921859214,41.6369838476906],[-81.2007436239869,41.6376457449422],[-81.2009071724656,41.6378541449933],[-81.200761835789,41.6381503137585],[-81.2006542624144,41.6381311866301],[-81.1986934395901,41.6381489180375]]]},"properties":{"source_county":"Geauga","jurisdiction":"Chardon Township","parcel_id":"06-120922","owner_name":"KELLOGG JAMES B & BARBARA J","property_address":"12211 CLARK RD","property_city":"CHARDON","property_zip":"44024"}},{"type":"Feature","geometry":{"type":"Polygon","coordinates":[[[-81.1930170038383,41.6272749181224],[-81.1947250264637,41.6267653968083],[-81.1947605848227,41.6313567256709],[-81.193522307935,41.6313586521728],[-81.1930098901047,41.6313594462668],[-81.192978473448,41.6272864116916],[-81.1930170038383,41.6272749181224]]]},"properties":{"source_county":"Geauga","jurisdiction":"Chardon Township","parcel_id":"06-707447","owner_name":"GEAUGA PARK DISTRICT","property_address":" PEARL RD","property_city":"CHARDON","property_zip":"44024"}},{"type":"Feature","geometry":{"type":"Polygon","coordinates":[[[-81.195917867078,41.631354913782],[-81.1960828808716,41.6313546542283],[-81.1960631378276,41.6362814031777],[-81.1935023004723,41.6363031113245],[-81.193522307935,41.6313586521728],[-81.1947605848227,41.6313567256709],[-81.195917867078,41.631354913782]]]},"properties":{"source_county":"Geauga","jurisdiction":"Chardon Township","parcel_id":"06-707448","owner_name":"GEAUGA PARK DISTRICT","property_address":" PEARL RD","property_city":"CHARDON","property_zip":"44024"}},{"type":"Feature","geometry":{"type":"Polygon","coordinates":[[[-81.1930098901047,41.6313594462668],[-81.193522307935,41.6313586521728],[-81.1935023004723,41.6363031113245],[-81.1909678287116,41.6363245404042],[-81.19094146142,41.6363247630626],[-81.1909613126528,41.63146575395],[-81.1909613126484,41.6314656341865],[-81.1909617346697,41.6313625946162],[-81.1930098901047,41.6313594462668]]]},"properties":{"source_county":"Geauga","jurisdiction":"Chardon Township","parcel_id":"06-707449","owner_name":"GEAUGA PARK DISTRICT","property_address":" PEARL RD","property_city":"CHARDON","property_zip":"44024"}},{"type":"Feature","geometry":{"type":"Polygon","coordinates":[[[-81.1909617346714,41.6313625946191],[-81.1909689650171,41.6295926954227],[-81.1909759465705,41.6278837439298],[-81.191194979469,41.6278184116683],[-81.1912115680419,41.6299767949826],[-81.1921475065733,41.6299768291127],[-81.1921287404346,41.6275398831227],[-81.1922725666885,41.6274969817487],[-81.1929784734496,41.6272864116944],[-81.1930098901064,41.6313594462697],[-81.1909617346714,41.6313625946191]]]},"properties":{"source_county":"Geauga","jurisdiction":"Chardon Township","parcel_id":"06-012800","owner_name":"KAPITANEC NICHOLAS A","property_address":" PEARL RD","property_city":"CHARDON","property_zip":"44024"}},{"type":"Feature","geometry":{"type":"Polygon","coordinates":[[[-81.1958808123329,41.6265734928865],[-81.1963928878748,41.6265740685537],[-81.1964019854314,41.6277496381224],[-81.1958899035692,41.6277496406345],[-81.1958808123329,41.6265734928865]]]},"properties":{"source_county":"Geauga","jurisdiction":"Chardon Township","parcel_id":"06-036150","owner_name":"YEHL ROBERT C","property_address":"12340 PEARL RD","property_city":"CHARDON","property_zip":"44024"}},{"type":"Feature","geometry":{"type":"Polygon","coordinates":[[[-81.1923115539112,41.625160370176],[-81.1930284488858,41.6249872907404],[-81.1930170038399,41.6272749181252],[-81.1929784734496,41.6272864116944],[-81.1922725666885,41.6274969817487],[-81.1923115539112,41.625160370176]]]},"properties":{"source_county":"Geauga","jurisdiction":"Chardon Township","parcel_id":"06-049720","owner_name":"PLUSH VIRGINA A","property_address":"12435 PEARL RD","property_city":"CHARDON","property_zip":"44024"}},{"type":"Feature","geometry":{"type":"Polygon","coordinates":[[[-81.1986478765281,41.6313505917728],[-81.2008994681573,41.6313469794332],[-81.2009368507257,41.6341901484397],[-81.2009598184629,41.635936824366],[-81.2009638020013,41.6362397038009],[-81.2009522841249,41.6362398020113],[-81.1996396768756,41.6362509917386],[-81.1960631378292,41.6362814031805],[-81.1960828808733,41.6313546542311],[-81.1986478765281,41.6313505917728]]]},"properties":{"source_county":"Geauga","jurisdiction":"Chardon Township","parcel_id":"06-050100","owner_name":"JOHNSON NEIL M TRUSTEE","property_address":" CLARK RD","property_city":"CHARDON","property_zip":"44024"}},{"type":"Feature","geometry":{"type":"Polygon","coordinates":[[[-81.191194979469,41.6278184116683],[-81.1921287404346,41.6275398831227],[-81.1921475065733,41.6299768291127],[-81.1912115680419,41.6299767949826],[-81.191194979469,41.6278184116683]]]},"properties":{"source_county":"Geauga","jurisdiction":"Chardon Township","parcel_id":"06-053050","owner_name":"KAPITANEC NICHOLAS A","property_address":"12444 PEARL RD","property_city":"CHARDON","property_zip":"44024"}},{"type":"Feature","geometry":{"type":"Polygon","coordinates":[[[-81.1968966285812,41.6265746322648],[-81.1968812815242,41.6252256925353],[-81.195270359781,41.6252257008603],[-81.195275722123,41.6240274002962],[-81.1983164410601,41.6240568069784],[-81.1983202858163,41.6247428893958],[-81.198686013487,41.6247462850901],[-81.2009277806131,41.6247670307213],[-81.2009387907548,41.6263085715642],[-81.2009407231596,41.6265790803465],[-81.2000163021179,41.6265780764693],[-81.1995266532011,41.626577541673],[-81.1993048417102,41.6265772982599],[-81.1984840537263,41.6265763955155],[-81.1979354128057,41.6265757886419],[-81.197386745498,41.626575178883],[-81.1968966285812,41.6265746322648]]]},"properties":{"source_county":"Geauga","jurisdiction":"Chardon Township","parcel_id":"06-067700","owner_name":"SHAULIS SARAH TOD & MICHAEL TOD","property_address":"12237 PEARL RD","property_city":"CHARDON","property_zip":"44024"}},{"type":"Feature","geometry":{"type":"Polygon","coordinates":[[[-81.1979354128057,41.6265757886419],[-81.1984840537263,41.6265763955155],[-81.1985288283516,41.6278819732816],[-81.1979752398353,41.6278819866782],[-81.1979354128057,41.6265757886419]]]},"properties":{"source_county":"Geauga","jurisdiction":"Chardon Township","parcel_id":"06-071240","owner_name":"LEWIS EMMETT R & LORNA F","property_address":"12292 PEARL RD","property_city":"CHARDON","property_zip":"44024"}},{"type":"Feature","geometry":{"type":"Polygon","coordinates":[[[-81.1953701121331,41.6265729168938],[-81.1958808123329,41.6265734928865],[-81.1958899035692,41.6277496406345],[-81.1959178670797,41.6313549137849],[-81.1947605848244,41.6313567256737],[-81.1947250264654,41.6267653968112],[-81.1952865725322,41.6265978742246],[-81.1953701121331,41.6265729168938]]]},"properties":{"source_county":"Geauga","jurisdiction":"Chardon Township","parcel_id":"06-074810","owner_name":"MORROW CAROLYN","property_address":"12360 PEARL RD","property_city":"CHARDON","property_zip":"44024"}},{"type":"Feature","geometry":{"type":"Polygon","coordinates":[[[-81.1909333451831,41.6383109035913],[-81.1909414614217,41.6363247630654],[-81.1909678287133,41.636324540407],[-81.193502300474,41.6363031113274],[-81.1960631378292,41.6362814031805],[-81.1996396768756,41.6362509917386],[-81.1992464633875,41.6367003884735],[-81.1972914402505,41.636752678559],[-81.1975429756533,41.6370031860858],[-81.1986934395918,41.6381489180403],[-81.2006542624161,41.638131186633],[-81.2007618357906,41.6381503137613],[-81.2003656452781,41.6389576649259],[-81.2000079247371,41.6396866047683],[-81.1981705352436,41.6412488880282],[-81.1909249931787,41.6412919445439],[-81.1909211633844,41.6412919671543],[-81.1909333451831,41.6383109035913]]]},"properties":{"source_county":"Geauga","jurisdiction":"Chardon Township","parcel_id":"06-083150","owner_name":"POKORNY RICHARD M TOD & NANCY M & MICHELE A & KELLOGG BARBARA J","property_address":"12229 CLARK RD","property_city":"CHARDON","property_zip":"44024"}},{"type":"Feature","geometry":{"type":"Polygon","coordinates":[[[-81.1984840537263,41.6265763955155],[-81.1993048417102,41.6265772982599],[-81.1998241779412,41.6292713614754],[-81.1985771417809,41.6292897059181],[-81.1985612459842,41.6288265522481],[-81.1985288283516,41.6278819732816],[-81.1984840537263,41.6265763955155]]]},"properties":{"source_county":"Geauga","jurisdiction":"Chardon Township","parcel_id":"06-088500","owner_name":"LOVELAND SHARON & BOSNAR LEONARDO M","property_address":"12270 PEARL RD","property_city":"CHARDON","property_zip":"44024"}},{"type":"Feature","geometry":{"type":"Polygon","coordinates":[[[-81.1910054402951,41.625475691504],[-81.1923115539112,41.625160370176],[-81.1922725666885,41.6274969817487],[-81.1921287404346,41.6275398831227],[-81.191194979469,41.6278184116683],[-81.1909759465705,41.6278837439298],[-81.1909988335475,41.6262438274867],[-81.1910005122246,41.6260485703243],[-81.1910054402951,41.625475691504]]]},"properties":{"source_county":"Geauga","jurisdiction":"Chardon Township","parcel_id":"06-110400","owner_name":"VAUGHAN JOAN L TOD","property_address":"12449 PEARL RD","property_city":"CHARDON","property_zip":"44024"}},{"type":"Feature","geometry":{"type":"Polygon","coordinates":[[[-81.1959178670797,41.6313549137849],[-81.1958899035692,41.6277496406345],[-81.1964019854314,41.6277496381224],[-81.1963928878748,41.6265740685537],[-81.1968966285812,41.6265746322648],[-81.197386745498,41.626575178883],[-81.1974553984051,41.6288265755821],[-81.1985612459842,41.6288265522481],[-81.1985771417809,41.6292897059181],[-81.1986478765281,41.6313505917728],[-81.1960828808733,41.6313546542311],[-81.1959178670797,41.6313549137849]]]},"properties":{"source_county":"Geauga","jurisdiction":"Chardon Township","parcel_id":"06-116000","owner_name":"JERNEJCIC JEFFREY J & CONNIE A","property_address":"12316 PEARL RD","property_city":"CHARDON","property_zip":"44024"}},{"type":"Feature","geometry":{"type":"Polygon","coordinates":[[[-81.1998921859231,41.6369838476934],[-81.1996025930488,41.6368438724752],[-81.199392179649,41.6370888428118],[-81.1975429756533,41.6370031860858],[-81.1972914402505,41.636752678559],[-81.1992464633875,41.6367003884735],[-81.1996396768756,41.6362509917386],[-81.2009522841249,41.6362398020113],[-81.2009638020013,41.6362397038009],[-81.2009829990676,41.6376996209736],[-81.2009757484124,41.6377143977708],[-81.2009071724673,41.6378541449961],[-81.2007436239885,41.637645744945],[-81.1998921859231,41.6369838476934]]]},"properties":{"source_county":"Geauga","jurisdiction":"Chardon Township","parcel_id":"06-120487","owner_name":"KELLOGG TIMOTHY J & LISA M","property_address":"12207 CLARK RD","property_city":"CHARDON","property_zip":"44024"}},{"type":"Feature","geometry":{"type":"Polygon","coordinates":[[[-81.195270359781,41.6252257008603],[-81.1968812815242,41.6252256925353],[-81.1968966285812,41.6265746322648],[-81.1963928878748,41.6265740685537],[-81.1958808123329,41.6265734928865],[-81.1953701121331,41.6265729168938],[-81.1952865725322,41.6265978742246],[-81.195270359781,41.6252257008603]]]},"properties":{"source_county":"Geauga","jurisdiction":"Chardon Township","parcel_id":"06-120598","owner_name":"LINDAUER CRAIG TOD & LAURA TOD","property_address":"12345 PEARL RD","property_city":"CHARDON","property_zip":"44024"}},{"type":"Feature","geometry":{"type":"Polygon","coordinates":[[[-81.1974553984051,41.6288265755821],[-81.197386745498,41.626575178883],[-81.1979354128057,41.6265757886419],[-81.1979752398353,41.6278819866782],[-81.1985288283516,41.6278819732816],[-81.1985612459842,41.6288265522481],[-81.1974553984051,41.6288265755821]]]},"properties":{"source_county":"Geauga","jurisdiction":"Chardon Township","parcel_id":"06-120869","owner_name":"LEWIS EMMETT R & LORNA F","property_address":" PEARL RD","property_city":"CHARDON","property_zip":"44024"}},{"type":"Feature","geometry":{"type":"Polygon","coordinates":[[[-81.1986934395918,41.6381489180403],[-81.1975429756533,41.6370031860858],[-81.199392179649,41.6370888428118],[-81.1996025930488,41.6368438724752],[-81.1998921859231,41.6369838476934],[-81.2007436239885,41.637645744945],[-81.2009071724673,41.6378541449961],[-81.2007618357906,41.6381503137613],[-81.2006542624161,41.638131186633],[-81.1986934395918,41.6381489180403]]]},"properties":{"source_county":"Geauga","jurisdiction":"Chardon Township","parcel_id":"06-120922","owner_name":"KELLOGG JAMES B & BARBARA J","property_address":"12211 CLARK RD","property_city":"CHARDON","property_zip":"44024"}},{"type":"Feature","geometry":{"type":"Polygon","coordinates":[[[-81.1930170038399,41.6272749181252],[-81.1947250264654,41.6267653968112],[-81.1947605848244,41.6313567256737],[-81.1935223079367,41.6313586521756],[-81.1930098901064,41.6313594462697],[-81.1929784734496,41.6272864116944],[-81.1930170038399,41.6272749181252]]]},"properties":{"source_county":"Geauga","jurisdiction":"Chardon Township","parcel_id":"06-707447","owner_name":"GEAUGA PARK DISTRICT","property_address":" PEARL RD","property_city":"CHARDON","property_zip":"44024"}},{"type":"Feature","geometry":{"type":"Polygon","coordinates":[[[-81.1959178670797,41.6313549137849],[-81.1960828808733,41.6313546542311],[-81.1960631378292,41.6362814031805],[-81.193502300474,41.6363031113274],[-81.1935223079367,41.6313586521756],[-81.1947605848244,41.6313567256737],[-81.1959178670797,41.6313549137849]]]},"properties":{"source_county":"Geauga","jurisdiction":"Chardon Township","parcel_id":"06-707448","owner_name":"GEAUGA PARK DISTRICT","property_address":" PEARL RD","property_city":"CHARDON","property_zip":"44024"}},{"type":"Feature","geometry":{"type":"Polygon","coordinates":[[[-81.1930098901064,41.6313594462697],[-81.1935223079367,41.6313586521756],[-81.193502300474,41.6363031113274],[-81.1909678287133,41.636324540407],[-81.1909414614217,41.6363247630654],[-81.1909613126544,41.6314657539528],[-81.1909613126501,41.6314656341893],[-81.1909617346714,41.6313625946191],[-81.1930098901064,41.6313594462697]]]},"properties":{"source_county":"Geauga","jurisdiction":"Chardon Township","parcel_id":"06-707449","owner_name":"GEAUGA PARK DISTRICT","property_address":" PEARL RD","property_city":"CHARDON","property_zip":"44024"}}]}