{"type":"FeatureCollection","features":[{"type":"Feature","geometry":{"type":"Polygon","coordinates":[[[-81.1961389308105,41.3505322692525],[-81.1962707638521,41.3490499269748],[-81.1980122158725,41.3492758836576],[-81.1979656693671,41.3497996395586],[-81.1961389308105,41.3505322692525]]]},"properties":{"source_county":"Geauga","jurisdiction":"Auburn Township","parcel_id":"01-109800","owner_name":"DAVIS GREGORY E","property_address":"19120 FOX RD","property_city":"AUBURN TOWNSHIP","property_zip":"44023"}},{"type":"Feature","geometry":{"type":"Polygon","coordinates":[[[-81.1990621541691,41.3475568292278],[-81.2032190468667,41.3475425127891],[-81.2032138598497,41.3483761720157],[-81.201502052577,41.3483812135912],[-81.1990612050793,41.3483883571575],[-81.1963288927491,41.3483962935444],[-81.1964027388834,41.3475659097115],[-81.1990621541691,41.3475568292278]]]},"properties":{"source_county":"Geauga","jurisdiction":"Auburn Township","parcel_id":"01-110010","owner_name":"VICICH GARY J & CAREN L","property_address":"19180 FOX RD","property_city":"AUBURN TOWNSHIP","property_zip":"44023"}},{"type":"Feature","geometry":{"type":"Polygon","coordinates":[[[-81.1990612050793,41.3483883571575],[-81.201502052577,41.3483812135912],[-81.1990600965281,41.3493606890957],[-81.1979656693671,41.3497996395586],[-81.1980122158725,41.3492758836576],[-81.1962707638521,41.3490499269748],[-81.1963288927491,41.3483962935444],[-81.1990612050793,41.3483883571575]]]},"properties":{"source_county":"Geauga","jurisdiction":"Auburn Township","parcel_id":"01-708983","owner_name":"CITY OF AKRON DEPT OF PUBLIC UTITLITIES","property_address":" FOX RD","property_city":"AUBURN TOWNSHIP","property_zip":"44023"}},{"type":"Feature","geometry":{"type":"Polygon","coordinates":[[[-81.1913234592424,41.347576955193],[-81.1964027388834,41.3475659097115],[-81.1963288927491,41.3483962935444],[-81.1962707638521,41.3490499269748],[-81.1961389308105,41.3505322692525],[-81.1960290023677,41.3505763555772],[-81.1926940417159,41.3504314753718],[-81.1912808113216,41.3500093873176],[-81.1912915911399,41.3493610363413],[-81.1913234592424,41.347576955193]]]},"properties":{"source_county":"Geauga","jurisdiction":"Auburn Township","parcel_id":"01-709013","owner_name":"CITY OF AKRON","property_address":" FOX RD","property_city":"HIRAM","property_zip":"44234"}},{"type":"Feature","geometry":{"type":"Polygon","coordinates":[[[-81.1961389308122,41.3505322692554],[-81.1962707638538,41.3490499269777],[-81.1980122158742,41.3492758836604],[-81.1979656693687,41.3497996395615],[-81.1961389308122,41.3505322692554]]]},"properties":{"source_county":"Geauga","jurisdiction":"Auburn Township","parcel_id":"01-109800","owner_name":"DAVIS GREGORY E","property_address":"19120 FOX RD","property_city":"AUBURN TOWNSHIP","property_zip":"44023"}},{"type":"Feature","geometry":{"type":"Polygon","coordinates":[[[-81.1990621541708,41.3475568292307],[-81.2032190468684,41.347542512792],[-81.2032138598514,41.3483761720185],[-81.2015020525788,41.348381213594],[-81.1990612050809,41.3483883571604],[-81.1963288927508,41.3483962935472],[-81.1964027388851,41.3475659097143],[-81.1990621541708,41.3475568292307]]]},"properties":{"source_county":"Geauga","jurisdiction":"Auburn Township","parcel_id":"01-110010","owner_name":"VICICH GARY J & CAREN L","property_address":"19180 FOX RD","property_city":"AUBURN TOWNSHIP","property_zip":"44023"}},{"type":"Feature","geometry":{"type":"Polygon","coordinates":[[[-81.1990612050809,41.3483883571604],[-81.2015020525788,41.348381213594],[-81.1990600965298,41.3493606890985],[-81.1979656693687,41.3497996395615],[-81.1980122158742,41.3492758836604],[-81.1962707638538,41.3490499269777],[-81.1963288927508,41.3483962935472],[-81.1990612050809,41.3483883571604]]]},"properties":{"source_county":"Geauga","jurisdiction":"Auburn Township","parcel_id":"01-708983","owner_name":"CITY OF AKRON DEPT OF PUBLIC UTITLITIES","property_address":" FOX RD","property_city":"AUBURN TOWNSHIP","property_zip":"44023"}},{"type":"Feature","geometry":{"type":"Polygon","coordinates":[[[-81.191323459244,41.3475769551959],[-81.1964027388851,41.3475659097143],[-81.1963288927508,41.3483962935472],[-81.1962707638538,41.3490499269777],[-81.1961389308122,41.3505322692554],[-81.1960290023693,41.3505763555801],[-81.1926940417176,41.3504314753746],[-81.1912808113233,41.3500093873204],[-81.1912915911415,41.3493610363442],[-81.191323459244,41.3475769551959]]]},"properties":{"source_county":"Geauga","jurisdiction":"Auburn Township","parcel_id":"01-709013","owner_name":"CITY OF AKRON","property_address":" FOX RD","property_city":"HIRAM","property_zip":"44234"}}]}