{"type":"FeatureCollection","features":[{"type":"Feature","geometry":{"type":"Polygon","coordinates":[[[-81.1912197481409,41.3536817248818],[-81.1912264517955,41.353278598647],[-81.1935070571384,41.353436010151],[-81.1919422000939,41.3547954029903],[-81.1911903680704,41.3554484903166],[-81.1912197481409,41.3536817248818]]]},"properties":{"source_county":"Geauga","jurisdiction":"Auburn Township","parcel_id":"01-000350","owner_name":"WEIBEL ELIZABETH A TRUSTEE","property_address":" FOX RD","property_city":"AUBURN TOWNSHIP","property_zip":"44023"}},{"type":"Feature","geometry":{"type":"Polygon","coordinates":[[[-81.1911572118544,41.3615720177046],[-81.1919950005681,41.3615806304413],[-81.1919920324974,41.3621295414125],[-81.1911542072073,41.3621209733487],[-81.1911572118544,41.3615720177046]]]},"properties":{"source_county":"Geauga","jurisdiction":"Auburn Township","parcel_id":"01-011500","owner_name":"SPRUTE DANIEL L","property_address":"18724 SHAW RD","property_city":"AUBURN TOWNSHIP","property_zip":"44023"}},{"type":"Feature","geometry":{"type":"Polygon","coordinates":[[[-81.1919950005681,41.3615806304413],[-81.1927490118148,41.3615883756533],[-81.1927460500427,41.3621372866427],[-81.1919920324974,41.3621295414125],[-81.1919950005681,41.3615806304413]]]},"properties":{"source_county":"Geauga","jurisdiction":"Auburn Township","parcel_id":"01-011501","owner_name":"SPRUTE DANIEL L","property_address":" SHAW RD","property_city":"AUBURN TOWNSHIP","property_zip":"44023"}},{"type":"Feature","geometry":{"type":"Polygon","coordinates":[[[-81.191178173802,41.3576988360891],[-81.1989323389527,41.3577205587573],[-81.1989172664266,41.3582831590052],[-81.1911751241494,41.3582614702681],[-81.191175202929,41.3582468344838],[-81.191178173802,41.3576988360891]]]},"properties":{"source_county":"Geauga","jurisdiction":"Auburn Township","parcel_id":"01-011650","owner_name":"DOMBEK JOSHUA ALAN","property_address":"18824 SHAW RD","property_city":"AUBURN TOWNSHIP","property_zip":"44023"}},{"type":"Feature","geometry":{"type":"Polygon","coordinates":[[[-81.1910619079615,41.3710598135246],[-81.1910665459743,41.3707349991389],[-81.1910697823686,41.3705117283273],[-81.1921613391453,41.3705008927814],[-81.1921578471101,41.3706929944913],[-81.1938997866637,41.3706756808675],[-81.1939097496392,41.3701268186641],[-81.1956430180397,41.3701095648679],[-81.1956256956865,41.3710151756869],[-81.1910619079615,41.3710598135246]]]},"properties":{"source_county":"Geauga","jurisdiction":"Auburn Township","parcel_id":"01-029400","owner_name":"JOHNSON CHRISTOPHER ALEXANDER","property_address":"18338 SHAW RD","property_city":"AUBURN TOWNSHIP","property_zip":"44023"}},{"type":"Feature","geometry":{"type":"Polygon","coordinates":[[[-81.191131389718,41.3657711739255],[-81.1927941247299,41.3657885185228],[-81.1935226813279,41.3657961111802],[-81.1935000106274,41.3670310486715],[-81.1927714415333,41.3670234558874],[-81.1911201440337,41.3670062307373],[-81.1911263440766,41.3665726210834],[-81.191131389718,41.3657711739255]]]},"properties":{"source_county":"Geauga","jurisdiction":"Auburn Township","parcel_id":"01-043400","owner_name":"GREITZER LOUIS","property_address":"18492 SHAW RD","property_city":"AUBURN TOWNSHIP","property_zip":"44023"}},{"type":"Feature","geometry":{"type":"Polygon","coordinates":[[[-81.1924799893805,41.357136507046],[-81.1924831407748,41.3565875965603],[-81.1911842268277,41.3565818835635],[-81.1911892004372,41.3556639659005],[-81.1911903680704,41.3554484903166],[-81.1923130183611,41.3559037123187],[-81.1932033913349,41.3565710322077],[-81.1946471764351,41.3565631884925],[-81.1919422000939,41.3547954029903],[-81.1935070571384,41.353436010151],[-81.1939977223965,41.353017112813],[-81.1989694709043,41.3563346233503],[-81.1989323389527,41.3577205587573],[-81.191178173802,41.3576988360891],[-81.1911812521922,41.3571307961361],[-81.1924799893805,41.357136507046]]]},"properties":{"source_county":"Geauga","jurisdiction":"Auburn Township","parcel_id":"01-054300","owner_name":"KETO STEPHEN A & SMITH MICHELLE A","property_address":"18956 FOX RD","property_city":"AUBURN TOWNSHIP","property_zip":"44023"}},{"type":"Feature","geometry":{"type":"Polygon","coordinates":[[[-81.1910279584214,41.373422715827],[-81.194349389627,41.3733897110525],[-81.1943368207523,41.3740461417628],[-81.1910185263728,41.3740791135698],[-81.191021637983,41.3738883405389],[-81.1910221224813,41.373826827747],[-81.1910279584214,41.373422715827]]]},"properties":{"source_county":"Geauga","jurisdiction":"Auburn Township","parcel_id":"01-071600","owner_name":"SCHREIBER ALLEN","property_address":"18230 SHAW RD","property_city":"AUBURN TOWNSHIP","property_zip":"44023"}},{"type":"Feature","geometry":{"type":"Polygon","coordinates":[[[-81.1910540122969,41.3716093789051],[-81.1956151982864,41.3715640326271],[-81.195601522476,41.3722789733005],[-81.1910437413319,41.3723242851434],[-81.1910540122969,41.3716093789051]]]},"properties":{"source_county":"Geauga","jurisdiction":"Auburn Township","parcel_id":"01-095360","owner_name":"SEMAN DAVID M & STANTON MELANIE HTTA SEMAN MELANIE","property_address":"18310 SHAW RD","property_city":"AUBURN TOWNSHIP","property_zip":"44023"}},{"type":"Feature","geometry":{"type":"Polygon","coordinates":[[[-81.1927460500427,41.3621372866427],[-81.1927490118148,41.3615883756533],[-81.1919950005681,41.3615806304413],[-81.1911572118544,41.3615720177046],[-81.191160160033,41.3610225939567],[-81.1939550814615,41.3610513004491],[-81.1947302426338,41.3610592057195],[-81.1947243494832,41.3621575852834],[-81.1927460500427,41.3621372866427]]]},"properties":{"source_county":"Geauga","jurisdiction":"Auburn Township","parcel_id":"01-109510","owner_name":"DJB & KMB","property_address":"18754 SHAW RD","property_city":"CHAGRIN FALLS","property_zip":"44023"}},{"type":"Feature","geometry":{"type":"Polygon","coordinates":[[[-81.1912513245278,41.364070880113],[-81.1911420391613,41.3640697390378],[-81.1911441308183,41.3637307917366],[-81.1912822484721,41.3637299011497],[-81.1927835150265,41.3637326069146],[-81.1927862055872,41.3642515741778],[-81.1914688508846,41.364237833866],[-81.1914264547385,41.3642336658007],[-81.1913858661505,41.3642235411762],[-81.1913485456638,41.3642078243184],[-81.1913158362195,41.3641870807839],[-81.1912889148314,41.3641620570094],[-81.1912687502325,41.3641336534509],[-81.1912560680162,41.3641028921816],[-81.1912513245278,41.364070880113]]]},"properties":{"source_county":"Geauga","jurisdiction":"Auburn Township","parcel_id":"01-117219","owner_name":"KM RESALE LLC","property_address":"18620 SHAW RD","property_city":"AUBURN TOWNSHIP","property_zip":"44023"}},{"type":"Feature","geometry":{"type":"Polygon","coordinates":[[[-81.191467821281,41.3644024834245],[-81.1927870077769,41.364416244396],[-81.1927895696082,41.3649102630644],[-81.1911368862929,41.3648930227945],[-81.1911389469535,41.3645637345231],[-81.1912482331596,41.3645648747007],[-81.1912530711939,41.3645330122542],[-81.1912659925504,41.3645024551165],[-81.1912865099054,41.3644743557121],[-81.1913138494642,41.3644497737738],[-81.191346980145,41.3644296363765],[-81.1913846524651,41.3644147029745],[-81.1914254456631,41.3644055367603],[-81.191467821281,41.3644024834245]]]},"properties":{"source_county":"Geauga","jurisdiction":"Auburn Township","parcel_id":"01-117220","owner_name":"HRUBIK MICHELLE MANDALFINO & BRIAN","property_address":"18580 SHAW RD","property_city":"AUBURN TOWNSHIP","property_zip":"44023"}},{"type":"Feature","geometry":{"type":"Polygon","coordinates":[[[-81.1911368862929,41.3648930227945],[-81.1927895696082,41.3649102630644],[-81.1927918477514,41.3653493908259],[-81.1911341374263,41.3653320983788],[-81.1911368862929,41.3648930227945]]]},"properties":{"source_county":"Geauga","jurisdiction":"Auburn Township","parcel_id":"01-117221","owner_name":"BERTOVIC ROSIKA","property_address":"18570 SHAW RD","property_city":"AUBURN TOWNSHIP","property_zip":"44023"}},{"type":"Feature","geometry":{"type":"Polygon","coordinates":[[[-81.1911341374263,41.3653320983788],[-81.1927918477514,41.3653493908259],[-81.1927941247299,41.3657885185228],[-81.191131389718,41.3657711739255],[-81.1911341374263,41.3653320983788]]]},"properties":{"source_county":"Geauga","jurisdiction":"Auburn Township","parcel_id":"01-117222","owner_name":"SLOBODA CHRISTOPHER W","property_address":"18550 SHAW RD","property_city":"AUBURN TOWNSHIP","property_zip":"44023"}},{"type":"Feature","geometry":{"type":"Polygon","coordinates":[[[-81.1911138747317,41.3674425925402],[-81.1911201440337,41.3670062307373],[-81.1927714415333,41.3670234558874],[-81.1927635948087,41.3674598016422],[-81.1911138747317,41.3674425925402]]]},"properties":{"source_county":"Geauga","jurisdiction":"Auburn Township","parcel_id":"01-117223","owner_name":"TEAM JONES CONSULTING LLC","property_address":"18490 SHAW RD","property_city":"AUBURN TOWNSHIP","property_zip":"44023"}},{"type":"Feature","geometry":{"type":"Polygon","coordinates":[[[-81.1911127358754,41.3675198558613],[-81.1911138747317,41.3674425925402],[-81.1927635948087,41.3674598016422],[-81.1927557479441,41.3678961491465],[-81.1911076065057,41.3678789561065],[-81.1911127358754,41.3675198558613]]]},"properties":{"source_county":"Geauga","jurisdiction":"Auburn Township","parcel_id":"01-117224","owner_name":"EVANS VICTORIA & ELIZABETH & PAULA","property_address":"18480 SHAW RD","property_city":"AUBURN TOWNSHIP","property_zip":"44023"}},{"type":"Feature","geometry":{"type":"Polygon","coordinates":[[[-81.1911028798562,41.3682059598713],[-81.1911076065057,41.3678789561065],[-81.1927557479441,41.3678961491465],[-81.1927479010111,41.3683324947991],[-81.1911013382323,41.3683153178212],[-81.1911028798562,41.3682059598713]]]},"properties":{"source_county":"Geauga","jurisdiction":"Auburn Township","parcel_id":"01-117225","owner_name":"TRAUTMAN BRIAN & WEBER ALEXZANDRA","property_address":"18460 SHAW RD","property_city":"AUBURN TOWNSHIP","property_zip":"44023"}},{"type":"Feature","geometry":{"type":"Polygon","coordinates":[[[-81.191206670045,41.3685918337975],[-81.1910973819399,41.3685906927356],[-81.1911013382323,41.3683153178212],[-81.1927479010111,41.3683324947991],[-81.1927399891543,41.3687725184132],[-81.1914228820821,41.368758779614],[-81.191380229174,41.3687552088512],[-81.1913393199557,41.3687454396506],[-81.191301725794,41.3687298472578],[-81.1912688907181,41.3687090305932],[-81.1912420759524,41.3686837892465],[-81.1912223114714,41.368655092763],[-81.1912103564382,41.368624043402],[-81.191206670045,41.3685918337975]]]},"properties":{"source_county":"Geauga","jurisdiction":"Auburn Township","parcel_id":"01-117226","owner_name":"ZELLE EDWARD A & LORETTA M","property_address":"18440 SHAW RD","property_city":"AUBURN TOWNSHIP","property_zip":"44023"}},{"type":"Feature","geometry":{"type":"Polygon","coordinates":[[[-81.1914205167802,41.3689234390938],[-81.1928462525405,41.3689383099429],[-81.192838473217,41.3693477298144],[-81.1910867681075,41.3693294557268],[-81.1910902845672,41.3690846810727],[-81.1911995746891,41.3690858221547],[-81.1912043478562,41.3690538038085],[-81.1912173058708,41.3690230984848],[-81.1912379526606,41.3689948816512],[-81.1912654978128,41.3689702335087],[-81.1912988868339,41.3689500976401],[-81.1913368415185,41.3689352448883],[-81.1913779088814,41.3689262438468],[-81.1914205167802,41.3689234390938]]]},"properties":{"source_county":"Geauga","jurisdiction":"Auburn Township","parcel_id":"01-117227","owner_name":"SUGLIA TONY F & DENISE L","property_address":"18420 SHAW RD","property_city":"AUBURN TOWNSHIP","property_zip":"44023"}},{"type":"Feature","geometry":{"type":"Polygon","coordinates":[[[-81.1910867681075,41.3693294557268],[-81.192838473217,41.3693477298144],[-81.1928313583345,41.3697259747271],[-81.1921027521815,41.3697332133081],[-81.1917382501241,41.3697479603222],[-81.1910808545645,41.3697410994014],[-81.1910831580087,41.3695786888278],[-81.1910867681075,41.3693294557268]]]},"properties":{"source_county":"Geauga","jurisdiction":"Auburn Township","parcel_id":"01-117228","owner_name":"BALOI NICOLAE A & DANIELA S","property_address":"18400 SHAW RD","property_city":"AUBURN TOWNSHIP","property_zip":"44023"}},{"type":"Feature","geometry":{"type":"Polygon","coordinates":[[[-81.1921027521815,41.3697332133081],[-81.1928313583345,41.3697259747271],[-81.1928235740344,41.3701376179135],[-81.1910749082854,41.3701549823276],[-81.1910808545645,41.3697410994014],[-81.1917382501241,41.3697479603222],[-81.1921027521815,41.3697332133081]]]},"properties":{"source_county":"Geauga","jurisdiction":"Auburn Township","parcel_id":"01-117229","owner_name":"PISCURA GERALD C III","property_address":"18380 SHAW RD","property_city":"AUBURN TOWNSHIP","property_zip":"44023"}},{"type":"Feature","geometry":{"type":"Polygon","coordinates":[[[-81.191149314536,41.3629073901052],[-81.1929612915935,41.3629094469481],[-81.192963478489,41.3633211296127],[-81.1911467375006,41.3633190676964],[-81.191149314536,41.3629073901052]]]},"properties":{"source_county":"Geauga","jurisdiction":"Auburn Township","parcel_id":"01-117338","owner_name":"KDDS PROPERTIES LLC","property_address":"18650 SHAW RD","property_city":"AUBURN TOWNSHIP","property_zip":"44023"}},{"type":"Feature","geometry":{"type":"Polygon","coordinates":[[[-81.1911467375006,41.3633190676964],[-81.192963478489,41.3633211296127],[-81.1929656654119,41.3637328122325],[-81.1927835150265,41.3637326069146],[-81.1912822484721,41.3637299011497],[-81.1911441308183,41.3637307917366],[-81.1911441370748,41.363729697638],[-81.1911458069559,41.3634629841354],[-81.1911467375006,41.3633190676964]]]},"properties":{"source_county":"Geauga","jurisdiction":"Auburn Township","parcel_id":"01-117339","owner_name":"SCHIRALDI ANDREW DAVID & MEGHAN ELISABETH","property_address":"18630 SHAW RD","property_city":"AUBURN TOWNSHIP","property_zip":"44023"}},{"type":"Feature","geometry":{"type":"Polygon","coordinates":[[[-81.194284820026,41.3527720039266],[-81.1943351335707,41.3527290496153],[-81.1944013799094,41.3527729991737],[-81.1960240572372,41.3538494907992],[-81.1989817374237,41.3558767542429],[-81.1989694709043,41.3563346233503],[-81.1939977223965,41.353017112813],[-81.194284820026,41.3527720039266]]]},"properties":{"source_county":"Geauga","jurisdiction":"Auburn Township","parcel_id":"01-117436","owner_name":"BATTAGLIA JOSEPH M JR","property_address":"18980 FOX RD","property_city":"AUBURN TOWNSHIP","property_zip":"44023"}},{"type":"Feature","geometry":{"type":"Polygon","coordinates":[[[-81.1949966503796,41.3521642721388],[-81.1954480040522,41.3517789150267],[-81.1968198598172,41.3527936155242],[-81.1990207257955,41.3544213965839],[-81.1990064992042,41.3549524550897],[-81.1958903114169,41.3527856973698],[-81.1949966503796,41.3521642721388]]]},"properties":{"source_county":"Geauga","jurisdiction":"Auburn Township","parcel_id":"01-117437","owner_name":"GIBBONS LILLIAN D TOD","property_address":"19020 FOX RD","property_city":"AUBURN TOWNSHIP","property_zip":"44023"}},{"type":"Feature","geometry":{"type":"Polygon","coordinates":[[[-81.1946950394627,41.3524217772979],[-81.1949966503796,41.3521642721388],[-81.1958903114169,41.3527856973698],[-81.1990064992042,41.3549524550897],[-81.1989927122862,41.3554670906012],[-81.1963496691291,41.3535691732423],[-81.1952114846281,41.3527799105729],[-81.1946950394627,41.3524217772979]]]},"properties":{"source_county":"Geauga","jurisdiction":"Auburn Township","parcel_id":"01-117438","owner_name":"KOMLOS BRYAN P TOD & WENDY L TOD","property_address":"19000 FOX RD","property_city":"AUBURN TOWNSHIP","property_zip":"44023"}},{"type":"Feature","geometry":{"type":"Polygon","coordinates":[[[-81.1943351335707,41.3527290496153],[-81.1946950394627,41.3524217772979],[-81.1952114846281,41.3527799105729],[-81.1963496691291,41.3535691732423],[-81.1960240572372,41.3538494907992],[-81.1944013799094,41.3527729991737],[-81.1943351335707,41.3527290496153]]]},"properties":{"source_county":"Geauga","jurisdiction":"Auburn Township","parcel_id":"01-117439","owner_name":"BATTAGLIA JOSEPH M & CONNIE","property_address":"18990 FOX RD","property_city":"AUBURN TOWNSHIP","property_zip":"44023"}},{"type":"Feature","geometry":{"type":"Polygon","coordinates":[[[-81.1911842268277,41.3565818835635],[-81.1924831407748,41.3565875965603],[-81.1924799893805,41.357136507046],[-81.1911812521922,41.3571307961361],[-81.1911842268277,41.3565818835635]]]},"properties":{"source_county":"Geauga","jurisdiction":"Auburn Township","parcel_id":"01-117443","owner_name":"FOLEY CHARLES TOD","property_address":"18858 SHAW RD","property_city":"AUBURN TOWNSHIP","property_zip":"44023"}},{"type":"Feature","geometry":{"type":"Polygon","coordinates":[[[-81.1946260589026,41.3596969972404],[-81.194630082151,41.359010173137],[-81.1937541916483,41.3590083409219],[-81.1933568035681,41.3590075082459],[-81.193357509008,41.358876648035],[-81.1933587998021,41.3586371941881],[-81.1911731164192,41.3586319842563],[-81.1911740834174,41.358453588607],[-81.1962724553565,41.3584655590355],[-81.1962653098163,41.3597005341274],[-81.1946260589026,41.3596969972404]]]},"properties":{"source_county":"Geauga","jurisdiction":"Auburn Township","parcel_id":"01-117476","owner_name":"FORD ROBERT TRUSTEE","property_address":"18810 SHAW RD","property_city":"AUBURN TOWNSHIP","property_zip":"44023"}},{"type":"Feature","geometry":{"type":"Polygon","coordinates":[[[-81.1910619079615,41.3710598135246],[-81.1956256956865,41.3710151756869],[-81.1956151982864,41.3715640326271],[-81.1910540122969,41.3716093789051],[-81.1910619079615,41.3710598135246]]]},"properties":{"source_county":"Geauga","jurisdiction":"Auburn Township","parcel_id":"01-117655","owner_name":"STONE NATHALEE K TRUSTEE","property_address":"18330 SHAW RD","property_city":"AUBURN TOWNSHIP","property_zip":"44023"}},{"type":"Feature","geometry":{"type":"Polygon","coordinates":[[[-81.1970864114582,41.3596503676028],[-81.1970946149752,41.3584674680963],[-81.1962724553565,41.3584655590355],[-81.1911740834174,41.358453588607],[-81.1911751241494,41.3582614702681],[-81.1989172664266,41.3582831590052],[-81.1989077937772,41.3596554280754],[-81.1970864114582,41.3596503676028]]]},"properties":{"source_county":"Geauga","jurisdiction":"Auburn Township","parcel_id":"01-117692","owner_name":"VRATARICH MATTHEW JOHN & JANE ASHLEY","property_address":"18818 SHAW RD","property_city":"AUBURN TOWNSHIP","property_zip":"44023"}},{"type":"Feature","geometry":{"type":"Polygon","coordinates":[[[-81.1911903680704,41.3554484903166],[-81.1919422000939,41.3547954029903],[-81.1946471764351,41.3565631884925],[-81.1932033913349,41.3565710322077],[-81.1923130183611,41.3559037123187],[-81.1911903680704,41.3554484903166]]]},"properties":{"source_county":"Geauga","jurisdiction":"Auburn Township","parcel_id":"01-117781","owner_name":"CHISMAR SANDRA","property_address":"18930 FOX RD","property_city":"AUBURN TOWNSHIP","property_zip":"44023"}},{"type":"Feature","geometry":{"type":"Polygon","coordinates":[[[-81.1910437413319,41.3723242851434],[-81.195601522476,41.3722789733005],[-81.1955910191324,41.372828048824],[-81.1910358520753,41.3728733334981],[-81.1910418584098,41.3724553216304],[-81.1910437413319,41.3723242851434]]]},"properties":{"source_county":"Geauga","jurisdiction":"Auburn Township","parcel_id":"01-117808","owner_name":"RADER JAMES","property_address":"18260 SHAW RD","property_city":"AUBURN TOWNSHIP","property_zip":"44023"}},{"type":"Feature","geometry":{"type":"Polygon","coordinates":[[[-81.1910358520753,41.3728733334981],[-81.1955910191324,41.372828048824],[-81.1955847518799,41.3731557155491],[-81.1943536353978,41.3731679728411],[-81.194349389627,41.3733897110525],[-81.1910279584214,41.373422715827],[-81.1910358520753,41.3728733334981]]]},"properties":{"source_county":"Geauga","jurisdiction":"Auburn Township","parcel_id":"01-117809","owner_name":"SCHREIBER ALLEN","property_address":" SHAW RD","property_city":"AUBURN TOWNSHIP","property_zip":"44023"}},{"type":"Feature","geometry":{"type":"Polygon","coordinates":[[[-81.1911731164192,41.3586319842563],[-81.1933587998021,41.3586371941881],[-81.193357509008,41.358876648035],[-81.1911719110641,41.3588543880825],[-81.1911731164192,41.3586319842563]]]},"properties":{"source_county":"Geauga","jurisdiction":"Auburn Township","parcel_id":"01-117861","owner_name":"FORD ROBERT TRUSTEE","property_address":" SHAW RD","property_city":"AUBURN TOWNSHIP","property_zip":"44023"}},{"type":"Feature","geometry":{"type":"Polygon","coordinates":[[[-81.1930957961479,41.3601076390719],[-81.1939605164705,41.3601166598424],[-81.1939550814615,41.3610513004491],[-81.191160160033,41.3610225939567],[-81.1911631350387,41.360473681046],[-81.1920761197381,41.3604829571887],[-81.1920768217999,41.360262927053],[-81.192294448008,41.3600996114896],[-81.1930957961479,41.3601076390719]]]},"properties":{"source_county":"Geauga","jurisdiction":"Auburn Township","parcel_id":"01-117863","owner_name":"WHITEFORD SEAN MICHAEL & MARY MARGARET","property_address":"18758 SHAW RD","property_city":"AUBURN TOWNSHIP","property_zip":"44023"}},{"type":"Feature","geometry":{"type":"Polygon","coordinates":[[[-81.1921578471101,41.3706929944913],[-81.1921613391453,41.3705008927814],[-81.1910697823686,41.3705117283273],[-81.1910749082854,41.3701549823276],[-81.1928235740344,41.3701376179135],[-81.1939097496392,41.3701268186641],[-81.1938997866637,41.3706756808675],[-81.1921578471101,41.3706929944913]]]},"properties":{"source_county":"Geauga","jurisdiction":"Auburn Township","parcel_id":"01-117871","owner_name":"AQUILA JOSEPH T & BARBARA A","property_address":"18360 SHAW RD","property_city":"AUBURN TOWNSHIP","property_zip":"44023"}},{"type":"Feature","geometry":{"type":"Polygon","coordinates":[[[-81.1939550814615,41.3610513004491],[-81.1939605164705,41.3601166598424],[-81.1930957961479,41.3601076390719],[-81.1930994892771,41.3594230139371],[-81.1937519257763,41.3594295456521],[-81.1937541916483,41.3590083409219],[-81.194630082151,41.359010173137],[-81.1946260589026,41.3596969972404],[-81.1962653098163,41.3597005341274],[-81.1962724553565,41.3584655590355],[-81.1970946149752,41.3584674680963],[-81.1970864114582,41.3596503676028],[-81.1989077937772,41.3596554280754],[-81.1988978075044,41.3611019025331],[-81.1947302426338,41.3610592057195],[-81.1939550814615,41.3610513004491]]]},"properties":{"source_county":"Geauga","jurisdiction":"Auburn Township","parcel_id":"01-118521","owner_name":"FORD ROBERT TRUSTEE","property_address":" SHAW RD","property_city":"AUBURN TOWNSHIP","property_zip":"44023"}},{"type":"Feature","geometry":{"type":"Polygon","coordinates":[[[-81.1960240572372,41.3538494907992],[-81.1963496691291,41.3535691732423],[-81.1989927122862,41.3554670906012],[-81.1989817374237,41.3558767542429],[-81.1960240572372,41.3538494907992]]]},"properties":{"source_county":"Geauga","jurisdiction":"Auburn Township","parcel_id":"01-118664","owner_name":"BATTAGLIA JOSEPH M & CONNIE","property_address":" FOX RD","property_city":"AUBURN TOWNSHIP","property_zip":"44023"}},{"type":"Feature","geometry":{"type":"Polygon","coordinates":[[[-81.2052977166009,41.369025123563],[-81.2060596284477,41.3690202086514],[-81.2060084486658,41.3717768180235],[-81.2059585227599,41.3744657327536],[-81.2034206963893,41.3744757457972],[-81.1910124862084,41.3745239468078],[-81.1910185263728,41.3740791135698],[-81.1943368207523,41.3740461417628],[-81.1980529522106,41.3740091041236],[-81.1980697171727,41.3731309346544],[-81.1981001033635,41.371539251069],[-81.1985297004202,41.3715349614715],[-81.1985670152366,41.3700803987457],[-81.1986168974511,41.3700799004539],[-81.19864432413,41.3690678312078],[-81.2052977166009,41.369025123563]]]},"properties":{"source_county":"Geauga","jurisdiction":"Auburn Township","parcel_id":"01-708905","owner_name":"CITY OF AKRON OHIO THE","property_address":" SHAW RD","property_city":"AUBURN TOWNSHIP","property_zip":"44023"}},{"type":"Feature","geometry":{"type":"Polygon","coordinates":[[[-81.201502052577,41.3483812135912],[-81.2032138598497,41.3483761720157],[-81.203200165998,41.3494409985128],[-81.2031569183209,41.3528034192769],[-81.1990561582386,41.3528126334567],[-81.1957234295729,41.3515437599429],[-81.1960757218209,41.351242972519],[-81.1961389308105,41.3505322692525],[-81.1979656693671,41.3497996395586],[-81.1990600965281,41.3493606890957],[-81.201502052577,41.3483812135912]]]},"properties":{"source_county":"Geauga","jurisdiction":"Auburn Township","parcel_id":"01-708916","owner_name":"CITY OF AKRON","property_address":" FOX RD","property_city":"AUBURN TOWNSHIP","property_zip":"44023"}},{"type":"Feature","geometry":{"type":"Polygon","coordinates":[[[-81.1956151982864,41.3715640326271],[-81.1981001033635,41.371539251069],[-81.1980697171727,41.3731309346544],[-81.1955847518799,41.3731557155491],[-81.1955910191324,41.372828048824],[-81.195601522476,41.3722789733005],[-81.1956151982864,41.3715640326271]]]},"properties":{"source_county":"Geauga","jurisdiction":"Auburn Township","parcel_id":"01-708935","owner_name":"CITY OF AKRON OHIO THE","property_address":" SHAW RD","property_city":"AUBURN TOWNSHIP","property_zip":"44023"}},{"type":"Feature","geometry":{"type":"Polygon","coordinates":[[[-81.1943536353978,41.3731679728411],[-81.1955847518799,41.3731557155491],[-81.1980697171727,41.3731309346544],[-81.1980529522106,41.3740091041236],[-81.1943368207523,41.3740461417628],[-81.194349389627,41.3733897110525],[-81.1943536353978,41.3731679728411]]]},"properties":{"source_county":"Geauga","jurisdiction":"Auburn Township","parcel_id":"01-708936","owner_name":"CITY OF AKRON OHIO THE","property_address":" SHAW RD","property_city":"AUBURN TOWNSHIP","property_zip":"44023"}},{"type":"Feature","geometry":{"type":"Polygon","coordinates":[[[-81.1956430180397,41.3701095648679],[-81.1985670152366,41.3700803987457],[-81.1985297004202,41.3715349614715],[-81.1981001033635,41.371539251069],[-81.1956151982864,41.3715640326271],[-81.1956256956865,41.3710151756869],[-81.1956430180397,41.3701095648679]]]},"properties":{"source_county":"Geauga","jurisdiction":"Auburn Township","parcel_id":"01-708965","owner_name":"CITY OF AKRON OHIO THE","property_address":" SHAW RD","property_city":"AUBURN TOWNSHIP","property_zip":"44023"}},{"type":"Feature","geometry":{"type":"Polygon","coordinates":[[[-81.192838473217,41.3693477298144],[-81.1928462525405,41.3689383099429],[-81.1914205167802,41.3689234390938],[-81.1913779088814,41.3689262438468],[-81.1913368415185,41.3689352448883],[-81.1912988868339,41.3689500976401],[-81.1912654978128,41.3689702335087],[-81.1912379526606,41.3689948816512],[-81.1912173058708,41.3690230984848],[-81.1912043478562,41.3690538038085],[-81.1911995746891,41.3690858221547],[-81.1910902845672,41.3690846810727],[-81.191093015635,41.3688925850833],[-81.1910973819399,41.3685906927356],[-81.191206670045,41.3685918337975],[-81.1912103564382,41.368624043402],[-81.1912223114714,41.368655092763],[-81.1912420759524,41.3686837892465],[-81.1912688907181,41.3687090305932],[-81.191301725794,41.3687298472578],[-81.1913393199557,41.3687454396506],[-81.191380229174,41.3687552088512],[-81.1914228820821,41.368758779614],[-81.1927399891543,41.3687725184132],[-81.1927479010111,41.3683324947991],[-81.1927557479441,41.3678961491465],[-81.1927635948087,41.3674598016422],[-81.1927714415333,41.3670234558874],[-81.1935000106274,41.3670310486715],[-81.1935226813279,41.3657961111802],[-81.1927941247299,41.3657885185228],[-81.1927918477514,41.3653493908259],[-81.1927895696082,41.3649102630644],[-81.1927870077769,41.364416244396],[-81.191467821281,41.3644024834245],[-81.1914254456631,41.3644055367603],[-81.1913846524651,41.3644147029745],[-81.191346980145,41.3644296363765],[-81.1913138494642,41.3644497737738],[-81.1912865099054,41.3644743557121],[-81.1912659925504,41.3645024551165],[-81.1912530711939,41.3645330122542],[-81.1912482331596,41.3645648747007],[-81.1911389469535,41.3645637345231],[-81.1911420391613,41.3640697390378],[-81.1912513245278,41.364070880113],[-81.1912560680162,41.3641028921816],[-81.1912687502325,41.3641336534509],[-81.1912889148314,41.3641620570094],[-81.1913158362195,41.3641870807839],[-81.1913485456638,41.3642078243184],[-81.1913858661505,41.3642235411762],[-81.1914264547385,41.3642336658007],[-81.1914688508846,41.364237833866],[-81.1927862055872,41.3642515741778],[-81.1927835150265,41.3637326069146],[-81.1929656654119,41.3637328122325],[-81.192963478489,41.3633211296127],[-81.1929612915935,41.3629094469481],[-81.191149314536,41.3629073901052],[-81.1911525683958,41.3623826505134],[-81.1911542072073,41.3621209733487],[-81.1919920324974,41.3621295414125],[-81.1927460500427,41.3621372866427],[-81.1947243494832,41.3621575852834],[-81.1947302426338,41.3610592057195],[-81.1988978075044,41.3611019025331],[-81.1989077937772,41.3596554280754],[-81.1989172664266,41.3582831590052],[-81.2010194985283,41.358272986481],[-81.2009139415605,41.3636673907744],[-81.2029192259973,41.3636542845875],[-81.206961360812,41.3636277604993],[-81.2069034089957,41.3667390184828],[-81.2052977166009,41.369025123563],[-81.19864432413,41.3690678312078],[-81.1986168974511,41.3700799004539],[-81.1985670152366,41.3700803987457],[-81.1956430180397,41.3701095648679],[-81.1939097496392,41.3701268186641],[-81.1928235740344,41.3701376179135],[-81.1928313583345,41.3697259747271],[-81.192838473217,41.3693477298144]]]},"properties":{"source_county":"Geauga","jurisdiction":"Auburn Township","parcel_id":"01-708979","owner_name":"CITY OF AKRON","property_address":" SHAW RD","property_city":"AUBURN TOWNSHIP","property_zip":"44023"}},{"type":"Feature","geometry":{"type":"Polygon","coordinates":[[[-81.1954480040522,41.3517789150267],[-81.1957234295729,41.3515437599429],[-81.1990561582386,41.3528126334567],[-81.1990207257955,41.3544213965839],[-81.1968198598172,41.3527936155242],[-81.1954480040522,41.3517789150267]]]},"properties":{"source_county":"Geauga","jurisdiction":"Auburn Township","parcel_id":"01-708982","owner_name":"CITY OF AKRON DEPT OF PUBLIC UTILITIES","property_address":" FOX RD","property_city":"AUBURN TOWNSHIP","property_zip":"44023"}},{"type":"Feature","geometry":{"type":"Polygon","coordinates":[[[-81.191235275692,41.3527479500556],[-81.1912808113216,41.3500093873176],[-81.1926940417159,41.3504314753718],[-81.1960290023677,41.3505763555772],[-81.1961389308105,41.3505322692525],[-81.1960757218209,41.351242972519],[-81.1957234295729,41.3515437599429],[-81.1954480040522,41.3517789150267],[-81.1949966503796,41.3521642721388],[-81.1946950394627,41.3524217772979],[-81.1943351335707,41.3527290496153],[-81.194284820026,41.3527720039266],[-81.1939977223965,41.353017112813],[-81.1935070571384,41.353436010151],[-81.1912264517955,41.353278598647],[-81.191235275692,41.3527479500556]]]},"properties":{"source_county":"Geauga","jurisdiction":"Auburn Township","parcel_id":"01-709020","owner_name":"CITY OF AKRON","property_address":" FOX RD","property_city":"AUBURN TOWNSHIP","property_zip":"44023"}},{"type":"Feature","geometry":{"type":"Polygon","coordinates":[[[-81.191168936205,41.3594033012275],[-81.1911719110641,41.3588543880825],[-81.193357509008,41.358876648035],[-81.1933568035681,41.3590075082459],[-81.1937541916483,41.3590083409219],[-81.1937519257763,41.3594295456521],[-81.1930994892771,41.3594230139371],[-81.1930957961479,41.3601076390719],[-81.192294448008,41.3600996114896],[-81.1920768217999,41.360262927053],[-81.1920761197381,41.3604829571887],[-81.1911631350387,41.360473681046],[-81.1911659530524,41.3599537082153],[-81.191168936205,41.3594033012275]]]},"properties":{"source_county":"Geauga","jurisdiction":"Auburn Township","parcel_id":"01-046400","owner_name":"CHITTOCK DAVID B JR TRUSTEE","property_address":"18760 SHAW RD","property_city":"AUBURN TOWNSHIP","property_zip":"44023"}},{"type":"Feature","geometry":{"type":"Polygon","coordinates":[[[-81.1912197481425,41.3536817248847],[-81.1912264517971,41.3532785986498],[-81.1935070571402,41.3534360101538],[-81.1919422000957,41.3547954029932],[-81.191190368072,41.3554484903194],[-81.1912197481425,41.3536817248847]]]},"properties":{"source_county":"Geauga","jurisdiction":"Auburn Township","parcel_id":"01-000350","owner_name":"WEIBEL ELIZABETH A TRUSTEE","property_address":" FOX RD","property_city":"AUBURN TOWNSHIP","property_zip":"44023"}},{"type":"Feature","geometry":{"type":"Polygon","coordinates":[[[-81.1911572118561,41.3615720177074],[-81.1919950005698,41.3615806304442],[-81.1919920324991,41.3621295414153],[-81.191154207209,41.3621209733515],[-81.1911572118561,41.3615720177074]]]},"properties":{"source_county":"Geauga","jurisdiction":"Auburn Township","parcel_id":"01-011500","owner_name":"SPRUTE DANIEL L","property_address":"18724 SHAW RD","property_city":"AUBURN TOWNSHIP","property_zip":"44023"}},{"type":"Feature","geometry":{"type":"Polygon","coordinates":[[[-81.1919950005698,41.3615806304442],[-81.1927490118164,41.3615883756562],[-81.1927460500443,41.3621372866456],[-81.1919920324991,41.3621295414153],[-81.1919950005698,41.3615806304442]]]},"properties":{"source_county":"Geauga","jurisdiction":"Auburn Township","parcel_id":"01-011501","owner_name":"SPRUTE DANIEL L","property_address":" SHAW RD","property_city":"AUBURN TOWNSHIP","property_zip":"44023"}},{"type":"Feature","geometry":{"type":"Polygon","coordinates":[[[-81.1911781738037,41.3576988360919],[-81.1989323389543,41.3577205587602],[-81.1989172664283,41.358283159008],[-81.1911751241511,41.3582614702709],[-81.1911752029306,41.3582468344866],[-81.1911781738037,41.3576988360919]]]},"properties":{"source_county":"Geauga","jurisdiction":"Auburn Township","parcel_id":"01-011650","owner_name":"DOMBEK JOSHUA ALAN","property_address":"18824 SHAW RD","property_city":"AUBURN TOWNSHIP","property_zip":"44023"}},{"type":"Feature","geometry":{"type":"Polygon","coordinates":[[[-81.1910619079632,41.3710598135275],[-81.1910665459759,41.3707349991417],[-81.1910697823703,41.3705117283302],[-81.1921613391469,41.3705008927843],[-81.1921578471118,41.3706929944942],[-81.1938997866654,41.3706756808703],[-81.1939097496409,41.3701268186669],[-81.1956430180413,41.3701095648707],[-81.1956256956882,41.3710151756898],[-81.1910619079632,41.3710598135275]]]},"properties":{"source_county":"Geauga","jurisdiction":"Auburn Township","parcel_id":"01-029400","owner_name":"JOHNSON CHRISTOPHER ALEXANDER","property_address":"18338 SHAW RD","property_city":"AUBURN TOWNSHIP","property_zip":"44023"}},{"type":"Feature","geometry":{"type":"Polygon","coordinates":[[[-81.1911313897197,41.3657711739284],[-81.1927941247316,41.3657885185256],[-81.1935226813296,41.3657961111831],[-81.193500010629,41.3670310486744],[-81.1927714415349,41.3670234558902],[-81.1911201440353,41.3670062307401],[-81.1911263440783,41.3665726210863],[-81.1911313897197,41.3657711739284]]]},"properties":{"source_county":"Geauga","jurisdiction":"Auburn Township","parcel_id":"01-043400","owner_name":"GREITZER LOUIS","property_address":"18492 SHAW RD","property_city":"AUBURN TOWNSHIP","property_zip":"44023"}},{"type":"Feature","geometry":{"type":"Polygon","coordinates":[[[-81.1924799893821,41.3571365070489],[-81.1924831407765,41.3565875965632],[-81.1911842268293,41.3565818835663],[-81.1911892004389,41.3556639659034],[-81.191190368072,41.3554484903194],[-81.1923130183627,41.3559037123215],[-81.1932033913366,41.3565710322105],[-81.1946471764368,41.3565631884954],[-81.1919422000957,41.3547954029932],[-81.1935070571402,41.3534360101538],[-81.1939977223982,41.3530171128159],[-81.1989694709059,41.3563346233532],[-81.1989323389543,41.3577205587602],[-81.1911781738037,41.3576988360919],[-81.1911812521939,41.3571307961389],[-81.1924799893821,41.3571365070489]]]},"properties":{"source_county":"Geauga","jurisdiction":"Auburn Township","parcel_id":"01-054300","owner_name":"KETO STEPHEN A & SMITH MICHELLE A","property_address":"18956 FOX RD","property_city":"AUBURN TOWNSHIP","property_zip":"44023"}},{"type":"Feature","geometry":{"type":"Polygon","coordinates":[[[-81.1910279584231,41.3734227158299],[-81.1943493896286,41.3733897110554],[-81.194336820754,41.3740461417656],[-81.1910185263745,41.3740791135726],[-81.1910216379847,41.3738883405417],[-81.191022122483,41.3738268277498],[-81.1910279584231,41.3734227158299]]]},"properties":{"source_county":"Geauga","jurisdiction":"Auburn Township","parcel_id":"01-071600","owner_name":"SCHREIBER ALLEN","property_address":"18230 SHAW RD","property_city":"AUBURN TOWNSHIP","property_zip":"44023"}},{"type":"Feature","geometry":{"type":"Polygon","coordinates":[[[-81.1910540122986,41.371609378908],[-81.1956151982881,41.3715640326299],[-81.1956015224776,41.3722789733033],[-81.1910437413336,41.3723242851463],[-81.1910540122986,41.371609378908]]]},"properties":{"source_county":"Geauga","jurisdiction":"Auburn Township","parcel_id":"01-095360","owner_name":"SEMAN DAVID M & STANTON MELANIE HTTA SEMAN MELANIE","property_address":"18310 SHAW RD","property_city":"AUBURN TOWNSHIP","property_zip":"44023"}},{"type":"Feature","geometry":{"type":"Polygon","coordinates":[[[-81.1927460500443,41.3621372866456],[-81.1927490118164,41.3615883756562],[-81.1919950005698,41.3615806304442],[-81.1911572118561,41.3615720177074],[-81.1911601600346,41.3610225939596],[-81.1939550814632,41.361051300452],[-81.1947302426354,41.3610592057223],[-81.1947243494848,41.3621575852863],[-81.1927460500443,41.3621372866456]]]},"properties":{"source_county":"Geauga","jurisdiction":"Auburn Township","parcel_id":"01-109510","owner_name":"DJB & KMB","property_address":"18754 SHAW RD","property_city":"CHAGRIN FALLS","property_zip":"44023"}},{"type":"Feature","geometry":{"type":"Polygon","coordinates":[[[-81.1912513245295,41.3640708801158],[-81.191142039163,41.3640697390407],[-81.19114413082,41.3637307917394],[-81.1912822484739,41.3637299011525],[-81.1927835150282,41.3637326069175],[-81.1927862055889,41.3642515741807],[-81.1914688508862,41.3642378338688],[-81.1914311036996,41.3642344277008],[-81.1913946533471,41.3642262904665],[-81.1913605368355,41.3642136536689],[-81.1913297247726,41.3641968768231],[-81.1913030937534,41.3641764372271],[-81.1912814014209,41.3641529163836],[-81.1912652649115,41.364126983455],[-81.1912551432979,41.3640993762266],[-81.1912513245295,41.3640708801158]]]},"properties":{"source_county":"Geauga","jurisdiction":"Auburn Township","parcel_id":"01-117219","owner_name":"KM RESALE LLC","property_address":"18620 SHAW RD","property_city":"AUBURN TOWNSHIP","property_zip":"44023"}},{"type":"Feature","geometry":{"type":"Polygon","coordinates":[[[-81.1914678212827,41.3644024834273],[-81.1927870077786,41.3644162443989],[-81.1927895696098,41.3649102630673],[-81.1911368862946,41.3648930227974],[-81.1911389469552,41.364563734526],[-81.1912482331613,41.3645648747035],[-81.1912521284438,41.3645365097855],[-81.1912624428909,41.3645090726152],[-81.1912788689358,41.3644833813218],[-81.1913009167762,41.3644602019739],[-81.1913279289797,41.3644402257382],[-81.1913591000878,41.3644240482693],[-81.1913935006331,41.3644121519494],[-81.1914301048545,41.3644048915045],[-81.1914678212827,41.3644024834273]]]},"properties":{"source_county":"Geauga","jurisdiction":"Auburn Township","parcel_id":"01-117220","owner_name":"HRUBIK MICHELLE MANDALFINO & BRIAN","property_address":"18580 SHAW RD","property_city":"AUBURN TOWNSHIP","property_zip":"44023"}},{"type":"Feature","geometry":{"type":"Polygon","coordinates":[[[-81.1911368862946,41.3648930227974],[-81.1927895696098,41.3649102630673],[-81.1927918477531,41.3653493908288],[-81.1911341374279,41.3653320983817],[-81.1911368862946,41.3648930227974]]]},"properties":{"source_county":"Geauga","jurisdiction":"Auburn Township","parcel_id":"01-117221","owner_name":"BERTOVIC ROSIKA","property_address":"18570 SHAW RD","property_city":"AUBURN TOWNSHIP","property_zip":"44023"}},{"type":"Feature","geometry":{"type":"Polygon","coordinates":[[[-81.1911341374279,41.3653320983817],[-81.1927918477531,41.3653493908288],[-81.1927941247316,41.3657885185256],[-81.1911313897197,41.3657711739284],[-81.1911341374279,41.3653320983817]]]},"properties":{"source_county":"Geauga","jurisdiction":"Auburn Township","parcel_id":"01-117222","owner_name":"SLOBODA CHRISTOPHER W","property_address":"18550 SHAW RD","property_city":"AUBURN TOWNSHIP","property_zip":"44023"}},{"type":"Feature","geometry":{"type":"Polygon","coordinates":[[[-81.1911138747333,41.3674425925431],[-81.1911201440353,41.3670062307401],[-81.1927714415349,41.3670234558902],[-81.1927635948104,41.367459801645],[-81.1911138747333,41.3674425925431]]]},"properties":{"source_county":"Geauga","jurisdiction":"Auburn Township","parcel_id":"01-117223","owner_name":"TEAM JONES CONSULTING LLC","property_address":"18490 SHAW RD","property_city":"AUBURN TOWNSHIP","property_zip":"44023"}},{"type":"Feature","geometry":{"type":"Polygon","coordinates":[[[-81.1911127358771,41.3675198558641],[-81.1911138747333,41.3674425925431],[-81.1927635948104,41.367459801645],[-81.1927557479458,41.3678961491494],[-81.1911076065074,41.3678789561094],[-81.1911127358771,41.3675198558641]]]},"properties":{"source_county":"Geauga","jurisdiction":"Auburn Township","parcel_id":"01-117224","owner_name":"EVANS VICTORIA & ELIZABETH & PAULA","property_address":"18480 SHAW RD","property_city":"AUBURN TOWNSHIP","property_zip":"44023"}},{"type":"Feature","geometry":{"type":"Polygon","coordinates":[[[-81.1911028798578,41.3682059598742],[-81.1911076065074,41.3678789561094],[-81.1927557479458,41.3678961491494],[-81.1927479010128,41.368332494802],[-81.191101338234,41.368315317824],[-81.1911028798578,41.3682059598742]]]},"properties":{"source_county":"Geauga","jurisdiction":"Auburn Township","parcel_id":"01-117225","owner_name":"TRAUTMAN BRIAN & WEBER ALEXZANDRA","property_address":"18460 SHAW RD","property_city":"AUBURN TOWNSHIP","property_zip":"44023"}},{"type":"Feature","geometry":{"type":"Polygon","coordinates":[[[-81.1912066700467,41.3685918338003],[-81.1910973819416,41.3685906927385],[-81.191101338234,41.368315317824],[-81.1927479010128,41.368332494802],[-81.192739989156,41.3687725184161],[-81.1914228820838,41.3687587796168],[-81.1913849118931,41.3687559163017],[-81.191348178148,41.3687481306665],[-81.191313796451,41.3687356591608],[-81.1912828109718,41.3687188805437],[-81.1912561627345,41.3686983043811],[-81.1912346610399,41.3686745555692],[-81.1912189588862,41.3686483553569],[-81.1912095331384,41.3686204994409],[-81.1912066700467,41.3685918338003]]]},"properties":{"source_county":"Geauga","jurisdiction":"Auburn Township","parcel_id":"01-117226","owner_name":"ZELLE EDWARD A & LORETTA M","property_address":"18440 SHAW RD","property_city":"AUBURN TOWNSHIP","property_zip":"44023"}},{"type":"Feature","geometry":{"type":"Polygon","coordinates":[[[-81.1914205167818,41.3689234390966],[-81.1928462525422,41.3689383099457],[-81.1928384732187,41.3693477298172],[-81.1910867681092,41.3693294557297],[-81.1910902845689,41.3690846810755],[-81.1911995746908,41.3690858221575],[-81.1912034072205,41.3690573187182],[-81.1912137396103,41.3690297470371],[-81.1912302591114,41.369003941654],[-81.191252465705,41.3689806836455],[-81.1912796872379,41.3689606769837],[-81.1913110997669,41.3689445272284],[-81.1913457524986,41.3689327231987],[-81.1913825965674,41.3689256221772],[-81.1914205167818,41.3689234390966]]]},"properties":{"source_county":"Geauga","jurisdiction":"Auburn Township","parcel_id":"01-117227","owner_name":"SUGLIA TONY F & DENISE L","property_address":"18420 SHAW RD","property_city":"AUBURN TOWNSHIP","property_zip":"44023"}},{"type":"Feature","geometry":{"type":"Polygon","coordinates":[[[-81.1910867681092,41.3693294557297],[-81.1928384732187,41.3693477298172],[-81.1928313583361,41.3697259747299],[-81.1921027521831,41.369733213311],[-81.1917382501258,41.369747960325],[-81.1910808545663,41.3697410994043],[-81.1910831580103,41.3695786888306],[-81.1910867681092,41.3693294557297]]]},"properties":{"source_county":"Geauga","jurisdiction":"Auburn Township","parcel_id":"01-117228","owner_name":"BALOI NICOLAE A & DANIELA S","property_address":"18400 SHAW RD","property_city":"AUBURN TOWNSHIP","property_zip":"44023"}},{"type":"Feature","geometry":{"type":"Polygon","coordinates":[[[-81.1921027521831,41.369733213311],[-81.1928313583361,41.3697259747299],[-81.192823574036,41.3701376179163],[-81.1910749082871,41.3701549823305],[-81.1910808545663,41.3697410994043],[-81.1917382501258,41.369747960325],[-81.1921027521831,41.369733213311]]]},"properties":{"source_county":"Geauga","jurisdiction":"Auburn Township","parcel_id":"01-117229","owner_name":"PISCURA GERALD C III","property_address":"18380 SHAW RD","property_city":"AUBURN TOWNSHIP","property_zip":"44023"}},{"type":"Feature","geometry":{"type":"Polygon","coordinates":[[[-81.1911493145377,41.3629073901081],[-81.1929612915952,41.362909446951],[-81.1929634784907,41.3633211296156],[-81.1911467375023,41.3633190676993],[-81.1911493145377,41.3629073901081]]]},"properties":{"source_county":"Geauga","jurisdiction":"Auburn Township","parcel_id":"01-117338","owner_name":"KDDS PROPERTIES LLC","property_address":"18650 SHAW RD","property_city":"AUBURN TOWNSHIP","property_zip":"44023"}},{"type":"Feature","geometry":{"type":"Polygon","coordinates":[[[-81.1911467375023,41.3633190676993],[-81.1929634784907,41.3633211296156],[-81.1929656654135,41.3637328122353],[-81.1927835150282,41.3637326069175],[-81.1912822484739,41.3637299011525],[-81.19114413082,41.3637307917394],[-81.1911441370765,41.3637296976408],[-81.1911458069575,41.3634629841383],[-81.1911467375023,41.3633190676993]]]},"properties":{"source_county":"Geauga","jurisdiction":"Auburn Township","parcel_id":"01-117339","owner_name":"SCHIRALDI ANDREW DAVID & MEGHAN ELISABETH","property_address":"18630 SHAW RD","property_city":"AUBURN TOWNSHIP","property_zip":"44023"}},{"type":"Feature","geometry":{"type":"Polygon","coordinates":[[[-81.1942848200277,41.3527720039294],[-81.1943351335724,41.3527290496181],[-81.1944013799111,41.3527729991765],[-81.1960240572389,41.3538494908021],[-81.1989817374253,41.3558767542458],[-81.1989694709059,41.3563346233532],[-81.1939977223982,41.3530171128159],[-81.1942848200277,41.3527720039294]]]},"properties":{"source_county":"Geauga","jurisdiction":"Auburn Township","parcel_id":"01-117436","owner_name":"BATTAGLIA JOSEPH M JR","property_address":"18980 FOX RD","property_city":"AUBURN TOWNSHIP","property_zip":"44023"}},{"type":"Feature","geometry":{"type":"Polygon","coordinates":[[[-81.1949966503813,41.3521642721416],[-81.1954480040539,41.3517789150295],[-81.1968198598189,41.352793615527],[-81.1990207257971,41.3544213965868],[-81.1990064992059,41.3549524550925],[-81.1958903114186,41.3527856973726],[-81.1949966503813,41.3521642721416]]]},"properties":{"source_county":"Geauga","jurisdiction":"Auburn Township","parcel_id":"01-117437","owner_name":"GIBBONS LILLIAN D TOD","property_address":"19020 FOX RD","property_city":"AUBURN TOWNSHIP","property_zip":"44023"}},{"type":"Feature","geometry":{"type":"Polygon","coordinates":[[[-81.1946950394643,41.3524217773008],[-81.1949966503813,41.3521642721416],[-81.1958903114186,41.3527856973726],[-81.1990064992059,41.3549524550925],[-81.1989927122879,41.3554670906041],[-81.1963496691308,41.3535691732451],[-81.1952114846298,41.3527799105757],[-81.1946950394643,41.3524217773008]]]},"properties":{"source_county":"Geauga","jurisdiction":"Auburn Township","parcel_id":"01-117438","owner_name":"KOMLOS BRYAN P TOD & WENDY L TOD","property_address":"19000 FOX RD","property_city":"AUBURN TOWNSHIP","property_zip":"44023"}},{"type":"Feature","geometry":{"type":"Polygon","coordinates":[[[-81.1943351335724,41.3527290496181],[-81.1946950394643,41.3524217773008],[-81.1952114846298,41.3527799105757],[-81.1963496691308,41.3535691732451],[-81.1960240572389,41.3538494908021],[-81.1944013799111,41.3527729991765],[-81.1943351335724,41.3527290496181]]]},"properties":{"source_county":"Geauga","jurisdiction":"Auburn Township","parcel_id":"01-117439","owner_name":"BATTAGLIA JOSEPH M & CONNIE","property_address":"18990 FOX RD","property_city":"AUBURN TOWNSHIP","property_zip":"44023"}},{"type":"Feature","geometry":{"type":"Polygon","coordinates":[[[-81.1911842268293,41.3565818835663],[-81.1924831407765,41.3565875965632],[-81.1924799893821,41.3571365070489],[-81.1911812521939,41.3571307961389],[-81.1911842268293,41.3565818835663]]]},"properties":{"source_county":"Geauga","jurisdiction":"Auburn Township","parcel_id":"01-117443","owner_name":"FOLEY CHARLES TOD","property_address":"18858 SHAW RD","property_city":"AUBURN TOWNSHIP","property_zip":"44023"}},{"type":"Feature","geometry":{"type":"Polygon","coordinates":[[[-81.1946260589043,41.3596969972432],[-81.1946300821526,41.3590101731398],[-81.1937541916499,41.3590083409247],[-81.1933568035698,41.3590075082488],[-81.1933575090097,41.3588766480379],[-81.1933587998038,41.3586371941909],[-81.1911731164208,41.3586319842592],[-81.1911740834191,41.3584535886099],[-81.1962724553581,41.3584655590383],[-81.196265309818,41.3597005341302],[-81.1946260589043,41.3596969972432]]]},"properties":{"source_county":"Geauga","jurisdiction":"Auburn Township","parcel_id":"01-117476","owner_name":"FORD ROBERT TRUSTEE","property_address":"18810 SHAW RD","property_city":"AUBURN TOWNSHIP","property_zip":"44023"}},{"type":"Feature","geometry":{"type":"Polygon","coordinates":[[[-81.1910619079632,41.3710598135275],[-81.1956256956882,41.3710151756898],[-81.1956151982881,41.3715640326299],[-81.1910540122986,41.371609378908],[-81.1910619079632,41.3710598135275]]]},"properties":{"source_county":"Geauga","jurisdiction":"Auburn Township","parcel_id":"01-117655","owner_name":"STONE NATHALEE K TRUSTEE","property_address":"18330 SHAW RD","property_city":"AUBURN TOWNSHIP","property_zip":"44023"}},{"type":"Feature","geometry":{"type":"Polygon","coordinates":[[[-81.1970864114599,41.3596503676056],[-81.1970946149768,41.3584674680991],[-81.1962724553581,41.3584655590383],[-81.1911740834191,41.3584535886099],[-81.1911751241511,41.3582614702709],[-81.1989172664283,41.358283159008],[-81.1989077937789,41.3596554280782],[-81.1970864114599,41.3596503676056]]]},"properties":{"source_county":"Geauga","jurisdiction":"Auburn Township","parcel_id":"01-117692","owner_name":"VRATARICH MATTHEW JOHN & JANE ASHLEY","property_address":"18818 SHAW RD","property_city":"AUBURN TOWNSHIP","property_zip":"44023"}},{"type":"Feature","geometry":{"type":"Polygon","coordinates":[[[-81.191190368072,41.3554484903194],[-81.1919422000957,41.3547954029932],[-81.1946471764368,41.3565631884954],[-81.1932033913366,41.3565710322105],[-81.1923130183627,41.3559037123215],[-81.191190368072,41.3554484903194]]]},"properties":{"source_county":"Geauga","jurisdiction":"Auburn Township","parcel_id":"01-117781","owner_name":"CHISMAR SANDRA","property_address":"18930 FOX RD","property_city":"AUBURN TOWNSHIP","property_zip":"44023"}},{"type":"Feature","geometry":{"type":"Polygon","coordinates":[[[-81.1910437413336,41.3723242851463],[-81.1956015224776,41.3722789733033],[-81.195591019134,41.3728280488269],[-81.191035852077,41.3728733335009],[-81.1910418584116,41.3724553216333],[-81.1910437413336,41.3723242851463]]]},"properties":{"source_county":"Geauga","jurisdiction":"Auburn Township","parcel_id":"01-117808","owner_name":"RADER JAMES","property_address":"18260 SHAW RD","property_city":"AUBURN TOWNSHIP","property_zip":"44023"}},{"type":"Feature","geometry":{"type":"Polygon","coordinates":[[[-81.191035852077,41.3728733335009],[-81.195591019134,41.3728280488269],[-81.1955847518816,41.3731557155519],[-81.1943536353994,41.3731679728439],[-81.1943493896286,41.3733897110554],[-81.1910279584231,41.3734227158299],[-81.191035852077,41.3728733335009]]]},"properties":{"source_county":"Geauga","jurisdiction":"Auburn Township","parcel_id":"01-117809","owner_name":"SCHREIBER ALLEN","property_address":" SHAW RD","property_city":"AUBURN TOWNSHIP","property_zip":"44023"}},{"type":"Feature","geometry":{"type":"Polygon","coordinates":[[[-81.1911731164208,41.3586319842592],[-81.1933587998038,41.3586371941909],[-81.1933575090097,41.3588766480379],[-81.1911719110658,41.3588543880854],[-81.1911731164208,41.3586319842592]]]},"properties":{"source_county":"Geauga","jurisdiction":"Auburn Township","parcel_id":"01-117861","owner_name":"FORD ROBERT TRUSTEE","property_address":" SHAW RD","property_city":"AUBURN TOWNSHIP","property_zip":"44023"}},{"type":"Feature","geometry":{"type":"Polygon","coordinates":[[[-81.1930957961497,41.3601076390747],[-81.1939605164722,41.3601166598452],[-81.1939550814632,41.361051300452],[-81.1911601600346,41.3610225939596],[-81.1911631350404,41.3604736810489],[-81.1920761197398,41.3604829571915],[-81.1920768218015,41.3602629270559],[-81.1922944480096,41.3600996114925],[-81.1930957961497,41.3601076390747]]]},"properties":{"source_county":"Geauga","jurisdiction":"Auburn Township","parcel_id":"01-117863","owner_name":"WHITEFORD SEAN MICHAEL & MARY MARGARET","property_address":"18758 SHAW RD","property_city":"AUBURN TOWNSHIP","property_zip":"44023"}},{"type":"Feature","geometry":{"type":"Polygon","coordinates":[[[-81.1921578471118,41.3706929944942],[-81.1921613391469,41.3705008927843],[-81.1910697823703,41.3705117283302],[-81.1910749082871,41.3701549823305],[-81.192823574036,41.3701376179163],[-81.1939097496409,41.3701268186669],[-81.1938997866654,41.3706756808703],[-81.1921578471118,41.3706929944942]]]},"properties":{"source_county":"Geauga","jurisdiction":"Auburn Township","parcel_id":"01-117871","owner_name":"AQUILA JOSEPH T & BARBARA A","property_address":"18360 SHAW RD","property_city":"AUBURN TOWNSHIP","property_zip":"44023"}},{"type":"Feature","geometry":{"type":"Polygon","coordinates":[[[-81.1939550814632,41.361051300452],[-81.1939605164722,41.3601166598452],[-81.1930957961497,41.3601076390747],[-81.1930994892788,41.3594230139399],[-81.1937519257779,41.359429545655],[-81.1937541916499,41.3590083409247],[-81.1946300821526,41.3590101731398],[-81.1946260589043,41.3596969972432],[-81.196265309818,41.3597005341302],[-81.1962724553581,41.3584655590383],[-81.1970946149768,41.3584674680991],[-81.1970864114599,41.3596503676056],[-81.1989077937789,41.3596554280782],[-81.198897807506,41.3611019025359],[-81.1947302426354,41.3610592057223],[-81.1939550814632,41.361051300452]]]},"properties":{"source_county":"Geauga","jurisdiction":"Auburn Township","parcel_id":"01-118521","owner_name":"FORD ROBERT TRUSTEE","property_address":" SHAW RD","property_city":"AUBURN TOWNSHIP","property_zip":"44023"}},{"type":"Feature","geometry":{"type":"Polygon","coordinates":[[[-81.1960240572389,41.3538494908021],[-81.1963496691308,41.3535691732451],[-81.1989927122879,41.3554670906041],[-81.1989817374253,41.3558767542458],[-81.1960240572389,41.3538494908021]]]},"properties":{"source_county":"Geauga","jurisdiction":"Auburn Township","parcel_id":"01-118664","owner_name":"BATTAGLIA JOSEPH M & CONNIE","property_address":" FOX RD","property_city":"AUBURN TOWNSHIP","property_zip":"44023"}},{"type":"Feature","geometry":{"type":"Polygon","coordinates":[[[-81.2052977166025,41.3690251235658],[-81.2060596284494,41.3690202086542],[-81.2060084486675,41.3717768180264],[-81.2059585227616,41.3744657327564],[-81.203420696391,41.3744757458],[-81.1910124862101,41.3745239468107],[-81.1910185263745,41.3740791135726],[-81.194336820754,41.3740461417656],[-81.1980529522123,41.3740091041264],[-81.1980697171743,41.3731309346573],[-81.1981001033652,41.3715392510719],[-81.1985297004218,41.3715349614743],[-81.1985670152383,41.3700803987486],[-81.1986168974528,41.3700799004567],[-81.1986443241316,41.3690678312106],[-81.2052977166025,41.3690251235658]]]},"properties":{"source_county":"Geauga","jurisdiction":"Auburn Township","parcel_id":"01-708905","owner_name":"CITY OF AKRON OHIO THE","property_address":" SHAW RD","property_city":"AUBURN TOWNSHIP","property_zip":"44023"}},{"type":"Feature","geometry":{"type":"Polygon","coordinates":[[[-81.2015020525788,41.348381213594],[-81.2032138598514,41.3483761720185],[-81.2032001659997,41.3494409985157],[-81.2031569183225,41.3528034192798],[-81.1990561582403,41.3528126334595],[-81.1957234295746,41.3515437599458],[-81.1960757218225,41.3512429725218],[-81.1961389308122,41.3505322692554],[-81.1979656693687,41.3497996395615],[-81.1990600965298,41.3493606890985],[-81.2015020525788,41.348381213594]]]},"properties":{"source_county":"Geauga","jurisdiction":"Auburn Township","parcel_id":"01-708916","owner_name":"CITY OF AKRON","property_address":" FOX RD","property_city":"AUBURN TOWNSHIP","property_zip":"44023"}},{"type":"Feature","geometry":{"type":"Polygon","coordinates":[[[-81.1956151982881,41.3715640326299],[-81.1981001033652,41.3715392510719],[-81.1980697171743,41.3731309346573],[-81.1955847518816,41.3731557155519],[-81.195591019134,41.3728280488269],[-81.1956015224776,41.3722789733033],[-81.1956151982881,41.3715640326299]]]},"properties":{"source_county":"Geauga","jurisdiction":"Auburn Township","parcel_id":"01-708935","owner_name":"CITY OF AKRON OHIO THE","property_address":" SHAW RD","property_city":"AUBURN TOWNSHIP","property_zip":"44023"}},{"type":"Feature","geometry":{"type":"Polygon","coordinates":[[[-81.1943536353994,41.3731679728439],[-81.1955847518816,41.3731557155519],[-81.1980697171743,41.3731309346573],[-81.1980529522123,41.3740091041264],[-81.194336820754,41.3740461417656],[-81.1943493896286,41.3733897110554],[-81.1943536353994,41.3731679728439]]]},"properties":{"source_county":"Geauga","jurisdiction":"Auburn Township","parcel_id":"01-708936","owner_name":"CITY OF AKRON OHIO THE","property_address":" SHAW RD","property_city":"AUBURN TOWNSHIP","property_zip":"44023"}},{"type":"Feature","geometry":{"type":"Polygon","coordinates":[[[-81.1956430180413,41.3701095648707],[-81.1985670152383,41.3700803987486],[-81.1985297004218,41.3715349614743],[-81.1981001033652,41.3715392510719],[-81.1956151982881,41.3715640326299],[-81.1956256956882,41.3710151756898],[-81.1956430180413,41.3701095648707]]]},"properties":{"source_county":"Geauga","jurisdiction":"Auburn Township","parcel_id":"01-708965","owner_name":"CITY OF AKRON OHIO THE","property_address":" SHAW RD","property_city":"AUBURN TOWNSHIP","property_zip":"44023"}},{"type":"Feature","geometry":{"type":"Polygon","coordinates":[[[-81.1928384732187,41.3693477298172],[-81.1928462525422,41.3689383099457],[-81.1914205167818,41.3689234390966],[-81.1913825965674,41.3689256221772],[-81.1913457524986,41.3689327231987],[-81.1913110997669,41.3689445272285],[-81.1912796872379,41.3689606769838],[-81.191252465705,41.3689806836455],[-81.1912302591114,41.369003941654],[-81.1912137396103,41.3690297470371],[-81.1912034072205,41.3690573187182],[-81.1911995746908,41.3690858221575],[-81.1910902845689,41.3690846810755],[-81.1910930156367,41.3688925850862],[-81.1910973819416,41.3685906927385],[-81.1912066700467,41.3685918338003],[-81.1912095331384,41.3686204994409],[-81.1912189588862,41.3686483553569],[-81.1912346610399,41.3686745555692],[-81.1912561627345,41.3686983043811],[-81.1912828109718,41.3687188805437],[-81.191313796451,41.3687356591608],[-81.191348178148,41.3687481306665],[-81.1913849118931,41.3687559163017],[-81.1914228820838,41.3687587796168],[-81.192739989156,41.3687725184161],[-81.1927479010128,41.368332494802],[-81.1927557479458,41.3678961491494],[-81.1927635948104,41.367459801645],[-81.1927714415349,41.3670234558902],[-81.193500010629,41.3670310486744],[-81.1935226813296,41.3657961111831],[-81.1927941247316,41.3657885185256],[-81.1927918477531,41.3653493908288],[-81.1927895696098,41.3649102630673],[-81.1927870077786,41.3644162443989],[-81.1914678212827,41.3644024834273],[-81.1914301048545,41.3644048915045],[-81.1913935006331,41.3644121519494],[-81.1913591000878,41.3644240482693],[-81.1913279289797,41.3644402257382],[-81.1913009167762,41.3644602019739],[-81.1912788689358,41.3644833813218],[-81.1912624428909,41.3645090726153],[-81.1912521284438,41.3645365097855],[-81.1912482331613,41.3645648747035],[-81.1911389469552,41.364563734526],[-81.191142039163,41.3640697390407],[-81.1912513245295,41.3640708801158],[-81.1912551432979,41.3640993762266],[-81.1912652649115,41.364126983455],[-81.1912814014209,41.3641529163836],[-81.1913030937534,41.3641764372271],[-81.1913297247726,41.3641968768231],[-81.1913605368355,41.3642136536689],[-81.1913946533471,41.3642262904665],[-81.1914311036996,41.3642344277008],[-81.1914688508862,41.3642378338688],[-81.1927862055889,41.3642515741807],[-81.1927835150282,41.3637326069175],[-81.1929656654135,41.3637328122353],[-81.1929634784907,41.3633211296156],[-81.1929612915952,41.362909446951],[-81.1911493145377,41.3629073901081],[-81.1911525683975,41.3623826505162],[-81.191154207209,41.3621209733515],[-81.1919920324991,41.3621295414153],[-81.1927460500443,41.3621372866456],[-81.1947243494848,41.3621575852863],[-81.1947302426354,41.3610592057223],[-81.198897807506,41.3611019025359],[-81.1989077937789,41.3596554280782],[-81.1989172664283,41.358283159008],[-81.20101949853,41.3582729864839],[-81.2009139415621,41.3636673907772],[-81.2029192259989,41.3636542845903],[-81.2069613608137,41.3636277605021],[-81.2069034089974,41.3667390184856],[-81.2052977166025,41.3690251235658],[-81.1986443241316,41.3690678312106],[-81.1986168974528,41.3700799004567],[-81.1985670152383,41.3700803987486],[-81.1956430180413,41.3701095648707],[-81.1939097496409,41.3701268186669],[-81.192823574036,41.3701376179163],[-81.1928313583361,41.3697259747299],[-81.1928384732187,41.3693477298172]]]},"properties":{"source_county":"Geauga","jurisdiction":"Auburn Township","parcel_id":"01-708979","owner_name":"CITY OF AKRON","property_address":" SHAW RD","property_city":"AUBURN TOWNSHIP","property_zip":"44023"}},{"type":"Feature","geometry":{"type":"Polygon","coordinates":[[[-81.1954480040539,41.3517789150295],[-81.1957234295746,41.3515437599458],[-81.1990561582403,41.3528126334595],[-81.1990207257971,41.3544213965868],[-81.1968198598189,41.352793615527],[-81.1954480040539,41.3517789150295]]]},"properties":{"source_county":"Geauga","jurisdiction":"Auburn Township","parcel_id":"01-708982","owner_name":"CITY OF AKRON DEPT OF PUBLIC UTILITIES","property_address":" FOX RD","property_city":"AUBURN TOWNSHIP","property_zip":"44023"}},{"type":"Feature","geometry":{"type":"Polygon","coordinates":[[[-81.1912352756937,41.3527479500584],[-81.1912808113233,41.3500093873204],[-81.1926940417176,41.3504314753746],[-81.1960290023693,41.3505763555801],[-81.1961389308122,41.3505322692554],[-81.1960757218225,41.3512429725218],[-81.1957234295746,41.3515437599458],[-81.1954480040539,41.3517789150295],[-81.1949966503813,41.3521642721416],[-81.1946950394643,41.3524217773008],[-81.1943351335724,41.3527290496181],[-81.1942848200277,41.3527720039294],[-81.1939977223982,41.3530171128159],[-81.1935070571402,41.3534360101538],[-81.1912264517971,41.3532785986498],[-81.1912352756937,41.3527479500584]]]},"properties":{"source_county":"Geauga","jurisdiction":"Auburn Township","parcel_id":"01-709020","owner_name":"CITY OF AKRON","property_address":" FOX RD","property_city":"AUBURN TOWNSHIP","property_zip":"44023"}},{"type":"Feature","geometry":{"type":"Polygon","coordinates":[[[-81.1911689362067,41.3594033012303],[-81.1911719110658,41.3588543880854],[-81.1933575090097,41.3588766480379],[-81.1933568035698,41.3590075082488],[-81.1937541916499,41.3590083409247],[-81.1937519257779,41.359429545655],[-81.1930994892788,41.3594230139399],[-81.1930957961497,41.3601076390747],[-81.1922944480096,41.3600996114925],[-81.1920768218015,41.3602629270559],[-81.1920761197398,41.3604829571915],[-81.1911631350404,41.3604736810489],[-81.1911659530541,41.3599537082182],[-81.1911689362067,41.3594033012303]]]},"properties":{"source_county":"Geauga","jurisdiction":"Auburn Township","parcel_id":"01-046400","owner_name":"CHITTOCK DAVID B JR TRUSTEE","property_address":"18760 SHAW RD","property_city":"AUBURN TOWNSHIP","property_zip":"44023"}}]}