{"type":"FeatureCollection","features":[{"type":"Feature","geometry":{"type":"Polygon","coordinates":[[[-81.2109364680674,41.4244145841776],[-81.2117327798716,41.4244219639469],[-81.2116522443489,41.4254153871265],[-81.2116468742921,41.4254792247025],[-81.2116450029447,41.4254792282089],[-81.210919433788,41.4254806290771],[-81.2109364680674,41.4244145841776]]]},"properties":{"source_county":"Geauga","jurisdiction":"Auburn Township","parcel_id":"01-025870","owner_name":"MURRAY ROBERT D TOD & BORELLI KATHLEEN TOD","property_address":"15775 MESSENGER RD","property_city":"AUBURN TOWNSHIP","property_zip":"44023"}},{"type":"Feature","geometry":{"type":"Polygon","coordinates":[[[-81.20998288815,41.4254825376671],[-81.2101716690358,41.4243429382975],[-81.2109364680674,41.4244145841776],[-81.210919433788,41.4254806290771],[-81.2109156563853,41.425480636581],[-81.2108920610893,41.4254806829515],[-81.20998288815,41.4254825376671]]]},"properties":{"source_county":"Geauga","jurisdiction":"Auburn Township","parcel_id":"01-095400","owner_name":"TALAI LALEH","property_address":"15755 MESSENGER RD","property_city":"AUBURN TOWNSHIP","property_zip":"44023"}},{"type":"Feature","geometry":{"type":"Polygon","coordinates":[[[-81.20813510693,41.4254859632525],[-81.2081830870349,41.4249291933617],[-81.2086724448539,41.4249407700979],[-81.2099573748294,41.4249711588883],[-81.2100659095696,41.4249813770811],[-81.20998288815,41.4254825376671],[-81.2099105405654,41.4254825696535],[-81.2086685397796,41.4254849466194],[-81.20813510693,41.4254859632525]]]},"properties":{"source_county":"Geauga","jurisdiction":"Auburn Township","parcel_id":"01-118089","owner_name":"P W & WILKS MELISSA K","property_address":"16315 RAVENNA RD","property_city":"AUBURN TOWNSHIP","property_zip":"44023"}},{"type":"Feature","geometry":{"type":"Polygon","coordinates":[[[-81.210936468069,41.4244145841804],[-81.2117327798733,41.4244219639497],[-81.2116522443506,41.4254153871293],[-81.2116468742937,41.4254792247053],[-81.2116450029463,41.4254792282118],[-81.2109194337897,41.4254806290799],[-81.210936468069,41.4244145841804]]]},"properties":{"source_county":"Geauga","jurisdiction":"Auburn Township","parcel_id":"01-025870","owner_name":"MURRAY ROBERT D TOD & BORELLI KATHLEEN TOD","property_address":"15775 MESSENGER RD","property_city":"AUBURN TOWNSHIP","property_zip":"44023"}},{"type":"Feature","geometry":{"type":"Polygon","coordinates":[[[-81.2099828881517,41.4254825376699],[-81.2101716690375,41.4243429383003],[-81.210936468069,41.4244145841804],[-81.2109194337897,41.4254806290799],[-81.210915656387,41.4254806365838],[-81.2108920610909,41.4254806829543],[-81.2099828881517,41.4254825376699]]]},"properties":{"source_county":"Geauga","jurisdiction":"Auburn Township","parcel_id":"01-095400","owner_name":"TALAI LALEH","property_address":"15755 MESSENGER RD","property_city":"AUBURN TOWNSHIP","property_zip":"44023"}},{"type":"Feature","geometry":{"type":"Polygon","coordinates":[[[-81.2081351069316,41.4254859632553],[-81.2081830870366,41.4249291933645],[-81.2086724448556,41.4249407701007],[-81.209957374831,41.4249711588912],[-81.2100659095713,41.4249813770839],[-81.2099828881517,41.4254825376699],[-81.2099105405671,41.4254825696563],[-81.2086685397813,41.4254849466223],[-81.2081351069316,41.4254859632553]]]},"properties":{"source_county":"Geauga","jurisdiction":"Auburn Township","parcel_id":"01-118089","owner_name":"P W & WILKS MELISSA K","property_address":"16315 RAVENNA RD","property_city":"AUBURN TOWNSHIP","property_zip":"44023"}}]}