{"type":"FeatureCollection","features":[{"type":"Feature","geometry":{"type":"Polygon","coordinates":[[[-81.2606303236633,41.4251982640183],[-81.2606904889279,41.4251979926228],[-81.2606877174781,41.4253418011762],[-81.2606870081442,41.4253786097621],[-81.2605666665328,41.4253796584984],[-81.2606303236633,41.4251982640183]]]},"properties":{"source_county":"Geauga","jurisdiction":"Auburn Township","parcel_id":"01-119194","owner_name":"DUCH FARMS LLC","property_address":" FRANKS RD","property_city":"AUBURN TOWNSHIP","property_zip":"44023"}},{"type":"Feature","geometry":{"type":"Polygon","coordinates":[[[-81.260630323665,41.4251982640211],[-81.2606904889296,41.4251979926256],[-81.2606877174798,41.4253418011791],[-81.2606870081459,41.425378609765],[-81.2605666665345,41.4253796585012],[-81.260630323665,41.4251982640211]]]},"properties":{"source_county":"Geauga","jurisdiction":"Auburn Township","parcel_id":"01-119194","owner_name":"DUCH FARMS LLC","property_address":" FRANKS RD","property_city":"AUBURN TOWNSHIP","property_zip":"44023"}}]}