{"type":"FeatureCollection","features":[{"type":"Feature","geometry":{"type":"Polygon","coordinates":[[[-81.2978257109058,41.4631260452351],[-81.2983729698237,41.4631223280998],[-81.2983728703378,41.4631497187803],[-81.2983686184029,41.4643177962014],[-81.2978213495783,41.4643215097135],[-81.2978256116534,41.4631534107056],[-81.2978257109058,41.4631260452351]]]},"properties":{"source_county":"Geauga","jurisdiction":"Russell Township","parcel_id":"26-010910","owner_name":"BERK PETER & OLGA","property_address":"9658 KINSMAN RD","property_city":"NOVELTY","property_zip":"44072"}},{"type":"Feature","geometry":{"type":"Polygon","coordinates":[[[-81.2972799712859,41.4631297494343],[-81.2978257109058,41.4631260452351],[-81.2978256116534,41.4631534107056],[-81.2978213495783,41.4643215097135],[-81.2972744411009,41.4643252171771],[-81.2972740807082,41.464325219742],[-81.2972764762076,41.4637573425484],[-81.2972788830876,41.4632048397869],[-81.2972795884683,41.4631573551027],[-81.2972799712859,41.4631297494343]]]},"properties":{"source_county":"Geauga","jurisdiction":"Russell Township","parcel_id":"26-132920","owner_name":"BURKE MICHELLE L TOD & JEFFREY A TOD","property_address":"9674 KINSMAN RD","property_city":"NOVELTY","property_zip":"44072"}},{"type":"Feature","geometry":{"type":"Polygon","coordinates":[[[-81.298920228696,41.4631186074811],[-81.2994687566285,41.4631148758089],[-81.299468742855,41.4631423178018],[-81.2994645100103,41.4643103529372],[-81.2989158871656,41.4643140801062],[-81.2989201289605,41.4631460242719],[-81.298920228696,41.4631186074811]]]},"properties":{"source_county":"Geauga","jurisdiction":"Russell Township","parcel_id":"26-141600","owner_name":"ERVIN NOELLE P & ALEX","property_address":"9638 KINSMAN RD","property_city":"NOVELTY","property_zip":"44072"}},{"type":"Feature","geometry":{"type":"Polygon","coordinates":[[[-81.2983729698237,41.4631223280998],[-81.298920228696,41.4631186074811],[-81.2989201289605,41.4631460242719],[-81.2989158871656,41.4643140801062],[-81.2983686184029,41.4643177962014],[-81.2983728703378,41.4631497187803],[-81.2983729698237,41.4631223280998]]]},"properties":{"source_county":"Geauga","jurisdiction":"Russell Township","parcel_id":"26-141700","owner_name":"PAONSHA RAYMOND T & KRATZER KAREN D","property_address":"9642 KINSMAN RD","property_city":"NOVELTY","property_zip":"44072"}},{"type":"Feature","geometry":{"type":"Polygon","coordinates":[[[-81.2972578288185,41.4681292544279],[-81.3003204932807,41.4681259579157],[-81.300318597789,41.470277622162],[-81.2972504747397,41.4702645485334],[-81.2972495477128,41.4700613059146],[-81.2972578288185,41.4681292544279]]]},"properties":{"source_county":"Geauga","jurisdiction":"Russell Township","parcel_id":"26-182500","owner_name":"STAY S FINLEY TRUSTEE","property_address":" PEKIN RD","property_city":"NOVELTY","property_zip":"44072"}},{"type":"Feature","geometry":{"type":"Polygon","coordinates":[[[-81.2972630517683,41.4669108137498],[-81.3004382505279,41.4668874966695],[-81.3004327227244,41.4675736134989],[-81.3003249380651,41.4675744064794],[-81.3001385165234,41.4675757813927],[-81.2972601107405,41.4675969702081],[-81.2972630517683,41.4669108137498]]]},"properties":{"source_county":"Geauga","jurisdiction":"Russell Township","parcel_id":"26-206116","owner_name":"BELLITTO PAUL & KAREN M","property_address":"14711 SLEEPY HOLLOW DR","property_city":"NOVELTY","property_zip":"44072"}},{"type":"Feature","geometry":{"type":"Polygon","coordinates":[[[-81.2972650509267,41.4664442239573],[-81.300443999838,41.4661739407874],[-81.3004382505279,41.4668874966695],[-81.2972630517353,41.4669108155505],[-81.2972650509267,41.4664442239573]]]},"properties":{"source_county":"Geauga","jurisdiction":"Russell Township","parcel_id":"26-206117","owner_name":"KARPA IHOR V & OLEKSANDRA V","property_address":"14745 SLEEPY HOLLOW DR","property_city":"NOVELTY","property_zip":"44072"}},{"type":"Feature","geometry":{"type":"Polygon","coordinates":[[[-81.297267893689,41.4657810508486],[-81.3003487903934,41.4654840996628],[-81.3003717831628,41.4655234785674],[-81.3003918109869,41.4655637633912],[-81.3004088111232,41.4656048279424],[-81.3004227303132,41.4656465435867],[-81.3004335249491,41.4656887796495],[-81.3004411612106,41.4657314038263],[-81.3004456151708,41.4657742825962],[-81.3004468728713,41.4658172816406],[-81.300443999838,41.4661739407874],[-81.2972650520577,41.4664442275711],[-81.297267893689,41.4657810508486]]]},"properties":{"source_county":"Geauga","jurisdiction":"Russell Township","parcel_id":"26-206118","owner_name":"HELKOWSKI SARAH & DEAN","property_address":"14765 SLEEPY HOLLOW DR","property_city":"NOVELTY","property_zip":"44072"}},{"type":"Feature","geometry":{"type":"Polygon","coordinates":[[[-81.2972707258995,41.4651202782596],[-81.2997931092841,41.4649419630281],[-81.300212052939,41.4653224310464],[-81.3002512123487,41.4653603563709],[-81.3002871464071,41.465400047274],[-81.3003197148101,41.4654413487896],[-81.3003487903934,41.4654840996628],[-81.297267893656,41.4657810526493],[-81.2972707258995,41.4651202782596]]]},"properties":{"source_county":"Geauga","jurisdiction":"Russell Township","parcel_id":"26-206119","owner_name":"STERNIN VLADISLAV TOD & TOPILINA NINA TOD","property_address":"14789 SLEEPY HOLLOW DR","property_city":"NOVELTY","property_zip":"44072"}},{"type":"Feature","geometry":{"type":"Polygon","coordinates":[[[-81.2989158871656,41.4643140801062],[-81.2994645100103,41.4643103529372],[-81.2994690369938,41.4643901385859],[-81.2994827153639,41.4644693312827],[-81.2995054427651,41.4645473382385],[-81.2995370491051,41.4646235755376],[-81.2995772978263,41.4646974725092],[-81.2996258876764,41.4647684759989],[-81.299682454962,41.4648360545097],[-81.2997465762709,41.4648997021808],[-81.2997931092841,41.4649419630281],[-81.2972707258995,41.4651202782596],[-81.297273010842,41.464578806599],[-81.2972740807082,41.464325219742],[-81.2972744411009,41.4643252171771],[-81.2978213495783,41.4643215097135],[-81.2983686184029,41.4643177962014],[-81.2989158871656,41.4643140801062]]]},"properties":{"source_county":"Geauga","jurisdiction":"Russell Township","parcel_id":"26-206120","owner_name":"MUCCI LOUIS A & LANDETA PERLA CASTILLO","property_address":"14825 SLEEPY HOLLOW DR","property_city":"NOVELTY","property_zip":"44072"}},{"type":"Feature","geometry":{"type":"Polygon","coordinates":[[[-81.2972504747397,41.4702645485334],[-81.300318597789,41.470277622162],[-81.300318602997,41.4708264924632],[-81.3003186163405,41.4720015134649],[-81.300318627138,41.4730842419669],[-81.2978434310837,41.4731033700822],[-81.2972634455177,41.4731078447372],[-81.2972504747397,41.4702645485334]]]},"properties":{"source_county":"Geauga","jurisdiction":"Russell Township","parcel_id":"26-214152","owner_name":"STAY S FINLEY TRUSTEE","property_address":" PEKIN RD","property_city":"NOVELTY","property_zip":"44072"}},{"type":"Feature","geometry":{"type":"Polygon","coordinates":[[[-81.2973636062373,41.4537458183692],[-81.2973977171773,41.4465676909873],[-81.2981264587439,41.4464869003842],[-81.2980498496977,41.4470155948784],[-81.2981848052322,41.448556875953],[-81.2992882577407,41.4485021385185],[-81.2994495232122,41.4502613211901],[-81.2984814924654,41.4500790695547],[-81.2988085637569,41.4537364533043],[-81.2988087614414,41.4537386661107],[-81.2973636034337,41.4537464937246],[-81.2973636062373,41.4537458183692]]]},"properties":{"source_county":"Geauga","jurisdiction":"Russell Township","parcel_id":"26-214300","owner_name":"KOELZ ALICIA M TRUSTEE","property_address":" MUSIC ST","property_city":"NOVELTY","property_zip":"44072"}},{"type":"Feature","geometry":{"type":"Polygon","coordinates":[[[-81.3001385165234,41.4675757813927],[-81.3003249380651,41.4675744064794],[-81.3003249282832,41.4675755959498],[-81.3003248382404,41.4675868036473],[-81.3003204932807,41.4681259579157],[-81.2972578288185,41.4681292544279],[-81.2972601107405,41.4675969702081],[-81.3001385165234,41.4675757813927]]]},"properties":{"source_county":"Geauga","jurisdiction":"Russell Township","parcel_id":"26-601900","owner_name":"CLEVELAND ELECTRIC ILLUMINATING COMPANY THE","property_address":" KINSMAN RD","property_city":"NOVELTY","property_zip":"44072"}},{"type":"Feature","geometry":{"type":"Polygon","coordinates":[[[-81.2973254640321,41.4600729782932],[-81.2983262711722,41.4590440758873],[-81.2989134467098,41.458984328977],[-81.3000123551722,41.4593579863468],[-81.3006864026976,41.4590946803908],[-81.3013710674878,41.4583992090669],[-81.3028318743261,41.4583786318646],[-81.3029019359415,41.4611919107446],[-81.3011701350093,41.4612172355763],[-81.3000828231256,41.4614878807897],[-81.3001273749618,41.4630799652744],[-81.3001281314555,41.4631070019026],[-81.2996876758586,41.4631133901077],[-81.2994687566285,41.4631148758089],[-81.2972799712859,41.4631297494343],[-81.2972804058599,41.4631024549785],[-81.2973000601394,41.4617810546645],[-81.2973254640321,41.4600729782932]]]},"properties":{"source_county":"Geauga","jurisdiction":"Russell Township","parcel_id":"26-707010","owner_name":"AMERICAN SOCIETY FOR METALS","property_address":"9639 KINSMAN RD","property_city":"NOVELTY","property_zip":"44072"}},{"type":"Feature","geometry":{"type":"Polygon","coordinates":[[[-81.2978257109075,41.4631260452379],[-81.2983729698254,41.4631223281026],[-81.2983728703394,41.4631497187832],[-81.2983686184046,41.4643177962042],[-81.29782134958,41.4643215097162],[-81.297825611655,41.4631534107084],[-81.2978257109075,41.4631260452379]]]},"properties":{"source_county":"Geauga","jurisdiction":"Russell Township","parcel_id":"26-010910","owner_name":"BERK PETER & OLGA","property_address":"9658 KINSMAN RD","property_city":"NOVELTY","property_zip":"44072"}},{"type":"Feature","geometry":{"type":"Polygon","coordinates":[[[-81.2972799712875,41.4631297494371],[-81.2978257109075,41.4631260452379],[-81.297825611655,41.4631534107084],[-81.29782134958,41.4643215097162],[-81.2972744411025,41.4643252171799],[-81.2972740807099,41.4643252197449],[-81.2972764762092,41.4637573425513],[-81.2972788830892,41.4632048397898],[-81.29727958847,41.4631573551056],[-81.2972799712875,41.4631297494371]]]},"properties":{"source_county":"Geauga","jurisdiction":"Russell Township","parcel_id":"26-132920","owner_name":"BURKE MICHELLE L TOD & JEFFREY A TOD","property_address":"9674 KINSMAN RD","property_city":"NOVELTY","property_zip":"44072"}},{"type":"Feature","geometry":{"type":"Polygon","coordinates":[[[-81.2989202286977,41.4631186074839],[-81.2994687566301,41.4631148758118],[-81.2994687428567,41.4631423178047],[-81.299464510012,41.46431035294],[-81.2989158871673,41.464314080109],[-81.2989201289622,41.4631460242748],[-81.2989202286977,41.4631186074839]]]},"properties":{"source_county":"Geauga","jurisdiction":"Russell Township","parcel_id":"26-141600","owner_name":"ERVIN NOELLE P & ALEX","property_address":"9638 KINSMAN RD","property_city":"NOVELTY","property_zip":"44072"}},{"type":"Feature","geometry":{"type":"Polygon","coordinates":[[[-81.2983729698254,41.4631223281026],[-81.2989202286977,41.4631186074839],[-81.2989201289622,41.4631460242748],[-81.2989158871673,41.464314080109],[-81.2983686184046,41.4643177962042],[-81.2983728703394,41.4631497187832],[-81.2983729698254,41.4631223281026]]]},"properties":{"source_county":"Geauga","jurisdiction":"Russell Township","parcel_id":"26-141700","owner_name":"PAONSHA RAYMOND T & KRATZER KAREN D","property_address":"9642 KINSMAN RD","property_city":"NOVELTY","property_zip":"44072"}},{"type":"Feature","geometry":{"type":"Polygon","coordinates":[[[-81.2972578288202,41.4681292544307],[-81.3003204932824,41.4681259579185],[-81.3003185977906,41.4702776221648],[-81.2972504747414,41.4702645485362],[-81.2972495477144,41.4700613059174],[-81.2972578288202,41.4681292544307]]]},"properties":{"source_county":"Geauga","jurisdiction":"Russell Township","parcel_id":"26-182500","owner_name":"STAY S FINLEY TRUSTEE","property_address":" PEKIN RD","property_city":"NOVELTY","property_zip":"44072"}},{"type":"Feature","geometry":{"type":"Polygon","coordinates":[[[-81.2972630517699,41.4669108137526],[-81.3004382505296,41.4668874966723],[-81.3004327227261,41.4675736135018],[-81.3003249380668,41.4675744064822],[-81.3001385165251,41.4675757813955],[-81.2972601107421,41.4675969702109],[-81.2972630517699,41.4669108137526]]]},"properties":{"source_county":"Geauga","jurisdiction":"Russell Township","parcel_id":"26-206116","owner_name":"BELLITTO PAUL & KAREN M","property_address":"14711 SLEEPY HOLLOW DR","property_city":"NOVELTY","property_zip":"44072"}},{"type":"Feature","geometry":{"type":"Polygon","coordinates":[[[-81.2972650509284,41.4664442239601],[-81.3004439998397,41.4661739407902],[-81.3004382505296,41.4668874966723],[-81.2972630517369,41.4669108155533],[-81.2972650509284,41.4664442239601]]]},"properties":{"source_county":"Geauga","jurisdiction":"Russell Township","parcel_id":"26-206117","owner_name":"KARPA IHOR V & OLEKSANDRA V","property_address":"14745 SLEEPY HOLLOW DR","property_city":"NOVELTY","property_zip":"44072"}},{"type":"Feature","geometry":{"type":"Polygon","coordinates":[[[-81.2972678936907,41.4657810508515],[-81.3003487903951,41.4654840996656],[-81.3003841598783,41.4655475487715],[-81.3004118429739,41.4656131231415],[-81.3004316177532,41.4656802971368],[-81.3004433256781,41.4657485322944],[-81.300446872873,41.4658172816435],[-81.3004439998397,41.4661739407902],[-81.2972650520594,41.4664442275739],[-81.2972678936907,41.4657810508515]]]},"properties":{"source_county":"Geauga","jurisdiction":"Russell Township","parcel_id":"26-206118","owner_name":"HELKOWSKI SARAH & DEAN","property_address":"14765 SLEEPY HOLLOW DR","property_city":"NOVELTY","property_zip":"44072"}},{"type":"Feature","geometry":{"type":"Polygon","coordinates":[[[-81.2972707259011,41.4651202782624],[-81.2997931092858,41.4649419630309],[-81.3002120529407,41.4653224310492],[-81.3002635559354,41.4653733980158],[-81.3003092407648,41.465427412495],[-81.3003487903951,41.4654840996656],[-81.2972678936576,41.4657810526521],[-81.2972707259011,41.4651202782624]]]},"properties":{"source_county":"Geauga","jurisdiction":"Russell Township","parcel_id":"26-206119","owner_name":"STERNIN VLADISLAV TOD & TOPILINA NINA TOD","property_address":"14789 SLEEPY HOLLOW DR","property_city":"NOVELTY","property_zip":"44072"}},{"type":"Feature","geometry":{"type":"Polygon","coordinates":[[[-81.2989158871673,41.464314080109],[-81.299464510012,41.46431035294],[-81.2994690369955,41.4643901385887],[-81.2994827153655,41.4644693312856],[-81.2995054427668,41.4645473382413],[-81.2995370491067,41.4646235755405],[-81.299577297828,41.4646974725121],[-81.2996258876781,41.4647684760018],[-81.2996824549637,41.4648360545125],[-81.2997465762726,41.4648997021836],[-81.2997931092858,41.4649419630309],[-81.2972707259011,41.4651202782624],[-81.2972730108437,41.4645788066019],[-81.2972740807099,41.4643252197449],[-81.2972744411025,41.4643252171799],[-81.29782134958,41.4643215097162],[-81.2983686184046,41.4643177962042],[-81.2989158871673,41.464314080109]]]},"properties":{"source_county":"Geauga","jurisdiction":"Russell Township","parcel_id":"26-206120","owner_name":"MUCCI LOUIS A & LANDETA PERLA CASTILLO","property_address":"14825 SLEEPY HOLLOW DR","property_city":"NOVELTY","property_zip":"44072"}},{"type":"Feature","geometry":{"type":"Polygon","coordinates":[[[-81.2972504747414,41.4702645485362],[-81.3003185977906,41.4702776221648],[-81.3003186029986,41.470826492466],[-81.3003186163423,41.4720015134677],[-81.3003186271397,41.4730842419697],[-81.2978434310854,41.4731033700851],[-81.2972634455194,41.47310784474],[-81.2972504747414,41.4702645485362]]]},"properties":{"source_county":"Geauga","jurisdiction":"Russell Township","parcel_id":"26-214152","owner_name":"STAY S FINLEY TRUSTEE","property_address":" PEKIN RD","property_city":"NOVELTY","property_zip":"44072"}},{"type":"Feature","geometry":{"type":"Polygon","coordinates":[[[-81.297363606239,41.4537458183721],[-81.297397717179,41.4465676909902],[-81.2981264587455,41.446486900387],[-81.2980498496993,41.4470155948812],[-81.2981848052338,41.4485568759558],[-81.2992882577424,41.4485021385213],[-81.2994495232138,41.450261321193],[-81.2984814924671,41.4500790695575],[-81.2988085637586,41.4537364533071],[-81.298808761443,41.4537386661135],[-81.2973636034354,41.4537464937274],[-81.297363606239,41.4537458183721]]]},"properties":{"source_county":"Geauga","jurisdiction":"Russell Township","parcel_id":"26-214300","owner_name":"KOELZ ALICIA M TRUSTEE","property_address":" MUSIC ST","property_city":"NOVELTY","property_zip":"44072"}},{"type":"Feature","geometry":{"type":"Polygon","coordinates":[[[-81.3001385165251,41.4675757813955],[-81.3003249380668,41.4675744064822],[-81.3003249282849,41.4675755959527],[-81.3003248382421,41.4675868036502],[-81.3003204932824,41.4681259579185],[-81.2972578288202,41.4681292544307],[-81.2972601107421,41.4675969702109],[-81.3001385165251,41.4675757813955]]]},"properties":{"source_county":"Geauga","jurisdiction":"Russell Township","parcel_id":"26-601900","owner_name":"CLEVELAND ELECTRIC ILLUMINATING COMPANY THE","property_address":" KINSMAN RD","property_city":"NOVELTY","property_zip":"44072"}},{"type":"Feature","geometry":{"type":"Polygon","coordinates":[[[-81.2973254640338,41.460072978296],[-81.298326271174,41.4590440758901],[-81.2989134467114,41.4589843289798],[-81.3000123551739,41.4593579863496],[-81.3006864026993,41.4590946803936],[-81.3013710674895,41.4583992090697],[-81.3028318743278,41.4583786318674],[-81.3029019359432,41.4611919107474],[-81.301170135011,41.4612172355792],[-81.3000828231273,41.4614878807925],[-81.3001273749634,41.4630799652772],[-81.3001281314571,41.4631070019055],[-81.2996876758602,41.4631133901105],[-81.2994687566301,41.4631148758118],[-81.2972799712875,41.4631297494371],[-81.2972804058617,41.4631024549814],[-81.2973000601411,41.4617810546673],[-81.2973254640338,41.460072978296]]]},"properties":{"source_county":"Geauga","jurisdiction":"Russell Township","parcel_id":"26-707010","owner_name":"AMERICAN SOCIETY FOR METALS","property_address":"9639 KINSMAN RD","property_city":"NOVELTY","property_zip":"44072"}}]}