{"type":"FeatureCollection","features":[{"type":"Feature","geometry":{"type":"Polygon","coordinates":[[[-81.3267686024229,41.3475765191763],[-81.3272835558151,41.3475814188045],[-81.3272834717361,41.3475859296314],[-81.3272597643477,41.3488634209847],[-81.3267134842763,41.3488578678686],[-81.3267371905792,41.3475810320961],[-81.3267372793089,41.3475762628627],[-81.3267372800483,41.3475762214457],[-81.3267686024229,41.3475765191763]]]},"properties":{"source_county":"Geauga","jurisdiction":"Bainbridge Township","parcel_id":"02-031100","owner_name":"BLANKS ROBERT E & THOMAS BLANKS ANNIE","property_address":"8830 CRACKEL RD","property_city":"CHAGRIN FALLS","property_zip":"44023"}},{"type":"Feature","geometry":{"type":"Polygon","coordinates":[[[-81.3256410556758,41.3475675341612],[-81.3261873483785,41.347571779599],[-81.3261872712342,41.3475760986824],[-81.3261644000171,41.348852283731],[-81.3256181201148,41.3488467263451],[-81.3256409902246,41.3475711968732],[-81.3256410556758,41.3475675341612]]]},"properties":{"source_county":"Geauga","jurisdiction":"Bainbridge Township","parcel_id":"02-078900","owner_name":"BROOKS BARBARA K","property_address":"8860 CRACKEL RD","property_city":"CHAGRIN FALLS","property_zip":"44023"}},{"type":"Feature","geometry":{"type":"Polygon","coordinates":[[[-81.3278298316522,41.3475866144851],[-81.3283761075917,41.3475918066871],[-81.3283760355051,41.3475957160784],[-81.3283523247833,41.3488745185813],[-81.3278060445274,41.3488689706221],[-81.3278297529906,41.3475908236879],[-81.3278298316522,41.3475866144851]]]},"properties":{"source_county":"Geauga","jurisdiction":"Bainbridge Township","parcel_id":"02-236600","owner_name":"MARTIN JEFFREY L","property_address":"8804 CRACKEL RD","property_city":"CHAGRIN FALLS","property_zip":"44023"}},{"type":"Feature","geometry":{"type":"Polygon","coordinates":[[[-81.3300149370905,41.3476073696349],[-81.3305611667772,41.3476125510521],[-81.3305611481172,41.3476152785818],[-81.3305589021028,41.3479475989416],[-81.3305524873608,41.3488968357175],[-81.3299911661202,41.3488911460881],[-81.3300148809224,41.3476103903597],[-81.3300149370905,41.3476073696349]]]},"properties":{"source_county":"Geauga","jurisdiction":"Bainbridge Township","parcel_id":"02-268800","owner_name":"BAGLEY ROBERT JOSEPH & LINDA M","property_address":"8732 CRACKEL RD","property_city":"CHAGRIN FALLS","property_zip":"44023"}},{"type":"Feature","geometry":{"type":"Polygon","coordinates":[[[-81.3272835558151,41.3475814188045],[-81.3278298316522,41.3475866144851],[-81.3278297529906,41.3475908236879],[-81.3278060445274,41.3488689706221],[-81.3272597643477,41.3488634209847],[-81.3272834717361,41.3475859296314],[-81.3272835558151,41.3475814188045]]]},"properties":{"source_county":"Geauga","jurisdiction":"Bainbridge Township","parcel_id":"02-270140","owner_name":"POTOMA EDITH DARLENE & MICHAEL P JR","property_address":"8820 CRACKEL RD","property_city":"CHAGRIN FALLS","property_zip":"44023"}},{"type":"Feature","geometry":{"type":"Polygon","coordinates":[[[-81.3294686597135,41.3476021842558],[-81.3300149370905,41.3476073696349],[-81.3300148809224,41.3476103903597],[-81.3299911661202,41.3488911460881],[-81.3294448855878,41.3488856058641],[-81.3294685982922,41.3476054985018],[-81.3294686597135,41.3476021842558]]]},"properties":{"source_county":"Geauga","jurisdiction":"Bainbridge Township","parcel_id":"02-283200","owner_name":"STAFFORD DAVID N & DOROTHY T","property_address":"8746 CRACKEL RD","property_city":"CHAGRIN FALLS","property_zip":"44023"}},{"type":"Feature","geometry":{"type":"Polygon","coordinates":[[[-81.3404705294934,41.3477005408582],[-81.3420500396275,41.3477155992318],[-81.3420518788821,41.3483347472934],[-81.3399069065126,41.3483089774511],[-81.3399031727265,41.3476951269042],[-81.3404705294934,41.3477005408582]]]},"properties":{"source_county":"Geauga","jurisdiction":"Bainbridge Township","parcel_id":"02-313101","owner_name":"KAUFMAN IBOLYKA TRUSTEE & KAUFMAN IBOLYKA & RONALD L TRUSTEES","property_address":"19180 CHILLICOTHE RD","property_city":"CHAGRIN FALLS","property_zip":"44023"}},{"type":"Feature","geometry":{"type":"Polygon","coordinates":[[[-81.33991064644,41.3489224839573],[-81.3399069065126,41.3483089774511],[-81.3420518788821,41.3483347472934],[-81.342053461185,41.3487617559944],[-81.3420538178972,41.3489482355068],[-81.33991064644,41.3489224839573]]]},"properties":{"source_county":"Geauga","jurisdiction":"Bainbridge Township","parcel_id":"02-313102","owner_name":"CONROY LEO F JR & DIANE","property_address":"19166 CHILLICOTHE RD","property_city":"CHAGRIN FALLS","property_zip":"44023"}},{"type":"Feature","geometry":{"type":"Polygon","coordinates":[[[-81.3399134729251,41.3495361532104],[-81.33991064644,41.3489224839573],[-81.3420538178972,41.3489482355068],[-81.3420558075335,41.3495071716871],[-81.3420557539183,41.3495618955937],[-81.3399134729251,41.3495361532104]]]},"properties":{"source_county":"Geauga","jurisdiction":"Bainbridge Township","parcel_id":"02-313103","owner_name":"MANOCCHIO TIMOTHY W & JODI","property_address":"19130 CHILLICOTHE RD","property_city":"CHAGRIN FALLS","property_zip":"44023"}},{"type":"Feature","geometry":{"type":"Polygon","coordinates":[[[-81.3399172099478,41.350149831492],[-81.3399134729251,41.3495361532104],[-81.3420557539183,41.3495618955937],[-81.3420576899756,41.3501755555826],[-81.3399172099478,41.350149831492]]]},"properties":{"source_county":"Geauga","jurisdiction":"Bainbridge Township","parcel_id":"02-313104","owner_name":"RICE STEPHEN A","property_address":"19124 CHILLICOTHE RD","property_city":"CHAGRIN FALLS","property_zip":"44023"}},{"type":"Feature","geometry":{"type":"Polygon","coordinates":[[[-81.3420557539183,41.3495618955937],[-81.3420558075335,41.3495071716871],[-81.3428844563334,41.349614047179],[-81.3440773917828,41.3497678956131],[-81.3440513782989,41.3498993379727],[-81.3440321840083,41.3500314445304],[-81.3440198381283,41.3501640144788],[-81.3440143594669,41.3502968463048],[-81.3428814542447,41.350298738484],[-81.3420582272574,41.3503001072442],[-81.3420576899756,41.3501755555826],[-81.3420557539183,41.3495618955937]]]},"properties":{"source_county":"Geauga","jurisdiction":"Bainbridge Township","parcel_id":"02-313117","owner_name":"JANSZEN JEREMY T & THERESA A TRUSTEES","property_address":"19133 RIDGEVIEW DR","property_city":"CHAGRIN FALLS","property_zip":"44023"}},{"type":"Feature","geometry":{"type":"Polygon","coordinates":[[[-81.3420538178972,41.3489482355068],[-81.342053461185,41.3487617559944],[-81.3428872990729,41.3489657545737],[-81.3442314185572,41.3492945789122],[-81.344183977826,41.3494111664237],[-81.3441424544996,41.3495290289625],[-81.3441069086697,41.349647996051],[-81.3440773917828,41.3497678956131],[-81.3428844563334,41.349614047179],[-81.3420558075335,41.3495071716871],[-81.3420538178972,41.3489482355068]]]},"properties":{"source_county":"Geauga","jurisdiction":"Bainbridge Township","parcel_id":"02-313118","owner_name":"ELLIOTT ROBERT & MEAGAN","property_address":"19155 RIDGEVIEW DR","property_city":"CHAGRIN FALLS","property_zip":"44023"}},{"type":"Feature","geometry":{"type":"Polygon","coordinates":[[[-81.3420518788821,41.3483347472934],[-81.3420500396275,41.3477155992318],[-81.3428907166929,41.348186394214],[-81.3443752375232,41.3490177245767],[-81.344358517185,41.3490373551523],[-81.3443448499215,41.3490582845834],[-81.3442851522831,41.3491756188984],[-81.3442314185572,41.3492945789122],[-81.3428872990729,41.3489657545737],[-81.342053461185,41.3487617559944],[-81.3420518788821,41.3483347472934]]]},"properties":{"source_county":"Geauga","jurisdiction":"Bainbridge Township","parcel_id":"02-313119","owner_name":"CHMIELEWSKI TERESA L TOD","property_address":"19161 RIDGEVIEW DR","property_city":"CHAGRIN FALLS","property_zip":"44023"}},{"type":"Feature","geometry":{"type":"Polygon","coordinates":[[[-81.3443752351018,41.3490177263536],[-81.3428907166929,41.348186394214],[-81.3420500396275,41.3477155992318],[-81.3428927463736,41.3477236137537],[-81.3448506185956,41.347742213661],[-81.3446348202893,41.3489346874268],[-81.3445979084984,41.3489326571072],[-81.3445609711251,41.3489344033635],[-81.3445246855124,41.3489398941736],[-81.344489717052,41.3489490288492],[-81.3444567069827,41.348961639882],[-81.3444262606321,41.3489774960157],[-81.3443989363163,41.3489963064861],[-81.3443752351018,41.3490177263536]]]},"properties":{"source_county":"Geauga","jurisdiction":"Bainbridge Township","parcel_id":"02-313120","owner_name":"PAKHOMOV ALEXEI & LEVINA MARINA","property_address":"19178 RIDGEVIEW DR","property_city":"CHAGRIN FALLS","property_zip":"44023"}},{"type":"Feature","geometry":{"type":"Polygon","coordinates":[[[-81.3448506185956,41.347742213661],[-81.3471358804238,41.347763800914],[-81.3448206647601,41.3490207702443],[-81.3448034649024,41.349004085318],[-81.3447840871041,41.3489888160543],[-81.3447627352971,41.3489751231458],[-81.3447396341873,41.3489631506956],[-81.3447150268897,41.3489530247008],[-81.34468917237,41.3489448517264],[-81.3446623427189,41.3489387177841],[-81.3446348202893,41.3489346874268],[-81.3448506185956,41.347742213661]]]},"properties":{"source_county":"Geauga","jurisdiction":"Bainbridge Township","parcel_id":"02-313121","owner_name":"JAMES THOMAS E","property_address":"19172 RIDGEVIEW DR","property_city":"CHAGRIN FALLS","property_zip":"44023"}},{"type":"Feature","geometry":{"type":"Polygon","coordinates":[[[-81.3445611315876,41.3493428184925],[-81.3446004859128,41.3493445298346],[-81.3446397575956,41.3493419572155],[-81.3446781296499,41.3493351541544],[-81.3447148038058,41.3493242621784],[-81.3447490171161,41.3493095078779],[-81.3447800578292,41.3492911981925],[-81.3448072801956,41.3492697140259],[-81.3448301179022,41.3492455023214],[-81.344848095853,41.3492190667635],[-81.3448608400529,41.3491909573],[-81.344868085387,41.3491617587007],[-81.3448696811362,41.3491320783921],[-81.3448655941112,41.3491025338213],[-81.3448559093429,41.3490737396106],[-81.3448408283127,41.3490462947717],[-81.3448206647601,41.3490207702443],[-81.3471358804238,41.347763800914],[-81.3471382969246,41.3486123196025],[-81.3458060991656,41.3493355123356],[-81.3443627025899,41.3495448113508],[-81.3443818694514,41.3494906214165],[-81.3443935542764,41.3494534975073],[-81.3444095671877,41.3494173020099],[-81.3444191643271,41.3494004062918],[-81.3444323782424,41.3493849590345],[-81.3444488362636,41.3493713958917],[-81.3444680742293,41.3493600993798],[-81.3444895495773,41.34935138809],[-81.3445126566459,41.3493455077034],[-81.3445367437557,41.3493426240622],[-81.3445611315876,41.3493428184925]]]},"properties":{"source_county":"Geauga","jurisdiction":"Bainbridge Township","parcel_id":"02-313122","owner_name":"COOK ROBERT J TOD & MLAKAR KATHLEEN M TOD","property_address":"19156 RIDGEVIEW DR","property_city":"CHAGRIN FALLS","property_zip":"44023"}},{"type":"Feature","geometry":{"type":"Polygon","coordinates":[[[-81.3458060991656,41.3493355123356],[-81.3471382969246,41.3486123196025],[-81.347141661112,41.349666365948],[-81.3442448144557,41.3500862523077],[-81.3442627146115,41.3499495889782],[-81.3442883630949,41.3498136284464],[-81.3443217128227,41.349678620043],[-81.3443627025899,41.3495448113508],[-81.3458060991656,41.3493355123356]]]},"properties":{"source_county":"Geauga","jurisdiction":"Bainbridge Township","parcel_id":"02-313123","owner_name":"SNYDER BENNJAMIN & JAYDE","property_address":"19132 RIDGEVIEW DR","property_city":"CHAGRIN FALLS","property_zip":"44023"}},{"type":"Feature","geometry":{"type":"Polygon","coordinates":[[[-81.3289223836014,41.3475969972108],[-81.3294686597135,41.3476021842558],[-81.3294685982922,41.3476054985018],[-81.3294448855878,41.3488856058641],[-81.3288986051475,41.3488800630617],[-81.3289223169062,41.3476006058782],[-81.3289223836014,41.3475969972108]]]},"properties":{"source_county":"Geauga","jurisdiction":"Bainbridge Township","parcel_id":"02-328100","owner_name":"SLECHTA PENNY K","property_address":"8764 CRACKEL RD","property_city":"CHAGRIN FALLS","property_zip":"44023"}},{"type":"Feature","geometry":{"type":"Polygon","coordinates":[[[-81.3250947630275,41.3475632870452],[-81.3256410556758,41.3475675341612],[-81.3256409902246,41.3475711968732],[-81.3256181201148,41.3488467263451],[-81.3250718403211,41.3488411654805],[-81.3250947093126,41.3475662915853],[-81.3250947630275,41.3475632870452]]]},"properties":{"source_county":"Geauga","jurisdiction":"Bainbridge Township","parcel_id":"02-383700","owner_name":"WALKER CLARENCE L TOD","property_address":"8876 CRACKEL RD","property_city":"CHAGRIN FALLS","property_zip":"44023"}},{"type":"Feature","geometry":{"type":"Polygon","coordinates":[[[-81.3265331920488,41.3475744656053],[-81.3267372800483,41.3475762214457],[-81.3267372793089,41.3475762628627],[-81.3267371905792,41.3475810320961],[-81.3267134842763,41.3488578678686],[-81.3261644000171,41.348852283731],[-81.3261872712342,41.3475760986824],[-81.3261873483785,41.347571779599],[-81.3265331920488,41.3475744656053]]]},"properties":{"source_county":"Geauga","jurisdiction":"Bainbridge Township","parcel_id":"02-404500","owner_name":"EMERICK KENNETH & PAMELA SUE","property_address":"8850 CRACKEL RD","property_city":"CHAGRIN FALLS","property_zip":"44023"}},{"type":"Feature","geometry":{"type":"Polygon","coordinates":[[[-81.3283761075917,41.3475918066871],[-81.3289223836014,41.3475969972108],[-81.3289223169062,41.3476006058782],[-81.3288986051475,41.3488800630617],[-81.3283523247833,41.3488745185813],[-81.3283760355051,41.3475957160784],[-81.3283761075917,41.3475918066871]]]},"properties":{"source_county":"Geauga","jurisdiction":"Bainbridge Township","parcel_id":"02-414200","owner_name":"TULLER JOSEPH PATRICK","property_address":"8780 CRACKEL RD","property_city":"CHAGRIN FALLS","property_zip":"44023"}},{"type":"Feature","geometry":{"type":"Polygon","coordinates":[[[-81.3379644803447,41.3476793941934],[-81.3396654138001,41.3476939509281],[-81.3396809296231,41.3512781225453],[-81.3379799514878,41.3512803785733],[-81.3379644870381,41.3476809755969],[-81.3379644803447,41.3476793941934]]]},"properties":{"source_county":"Geauga","jurisdiction":"Bainbridge Township","parcel_id":"02-717100","owner_name":"BAINBRIDGE TOWNSHIP BOARD OF TRUSTEES","property_address":" CRACKEL RD","property_city":"CHAGRIN FALLS","property_zip":"44023"}},{"type":"Feature","geometry":{"type":"Polygon","coordinates":[[[-81.3342972545305,41.3476479248713],[-81.3379644803447,41.3476793941934],[-81.3379644870381,41.3476809755969],[-81.3379799514878,41.3512803785733],[-81.334366030327,41.3512850890523],[-81.3342972647488,41.3476484941116],[-81.3342972545305,41.3476479248713]]]},"properties":{"source_county":"Geauga","jurisdiction":"Bainbridge Township","parcel_id":"02-717200","owner_name":"BAINBRIDGE TOWNSHIP BOARD OF TRUSTEES","property_address":"8558 CRACKEL RD","property_city":"CHAGRIN FALLS","property_zip":"44023"}},{"type":"Feature","geometry":{"type":"Polygon","coordinates":[[[-81.3261488420148,41.3510867199027],[-81.3261644000171,41.348852283731],[-81.3267134842763,41.3488578678686],[-81.3272597643477,41.3488634209847],[-81.3278060445274,41.3488689706221],[-81.3283523247833,41.3488745185813],[-81.3288986051475,41.3488800630617],[-81.3294448855878,41.3488856058641],[-81.3299911661202,41.3488911460881],[-81.3305524873608,41.3488968357175],[-81.3305457073726,41.3510878755826],[-81.3289576552655,41.3510874775118],[-81.3287391156571,41.3510874210391],[-81.3275871221827,41.3510871162776],[-81.3270407618252,41.3510869672874],[-81.326494401454,41.3510868166184],[-81.3261488420148,41.3510867199027]]]},"properties":{"source_county":"Geauga","jurisdiction":"Bainbridge Township","parcel_id":"02-717400","owner_name":"BAINBRIDGE TOWNSHIP BOARD OF TRUSTEES","property_address":" CRACKEL RD","property_city":"CHAGRIN FALLS","property_zip":"44023"}},{"type":"Feature","geometry":{"type":"Polygon","coordinates":[[[-81.3267686024245,41.3475765191791],[-81.3272835558168,41.3475814188073],[-81.3272834717378,41.3475859296343],[-81.3272597643494,41.3488634209875],[-81.326713484278,41.3488578678715],[-81.3267371905808,41.3475810320989],[-81.3267372793105,41.3475762628656],[-81.32673728005,41.3475762214485],[-81.3267686024245,41.3475765191791]]]},"properties":{"source_county":"Geauga","jurisdiction":"Bainbridge Township","parcel_id":"02-031100","owner_name":"BLANKS ROBERT E & THOMAS BLANKS ANNIE","property_address":"8830 CRACKEL RD","property_city":"CHAGRIN FALLS","property_zip":"44023"}},{"type":"Feature","geometry":{"type":"Polygon","coordinates":[[[-81.3256410556774,41.347567534164],[-81.3261873483803,41.3475717796018],[-81.3261872712359,41.3475760986852],[-81.3261644000188,41.3488522837338],[-81.3256181201165,41.348846726348],[-81.3256409902263,41.3475711968761],[-81.3256410556774,41.347567534164]]]},"properties":{"source_county":"Geauga","jurisdiction":"Bainbridge Township","parcel_id":"02-078900","owner_name":"BROOKS BARBARA K","property_address":"8860 CRACKEL RD","property_city":"CHAGRIN FALLS","property_zip":"44023"}},{"type":"Feature","geometry":{"type":"Polygon","coordinates":[[[-81.3278298316538,41.347586614488],[-81.3283761075933,41.3475918066899],[-81.3283760355068,41.3475957160812],[-81.328352324785,41.3488745185841],[-81.3278060445291,41.3488689706249],[-81.3278297529922,41.3475908236907],[-81.3278298316538,41.347586614488]]]},"properties":{"source_county":"Geauga","jurisdiction":"Bainbridge Township","parcel_id":"02-236600","owner_name":"MARTIN JEFFREY L","property_address":"8804 CRACKEL RD","property_city":"CHAGRIN FALLS","property_zip":"44023"}},{"type":"Feature","geometry":{"type":"Polygon","coordinates":[[[-81.3300149370921,41.3476073696377],[-81.3305611667788,41.347612551055],[-81.3305611481189,41.3476152785847],[-81.3305589021045,41.3479475989444],[-81.3305524873625,41.3488968357204],[-81.3299911661219,41.3488911460909],[-81.3300148809241,41.3476103903626],[-81.3300149370921,41.3476073696377]]]},"properties":{"source_county":"Geauga","jurisdiction":"Bainbridge Township","parcel_id":"02-268800","owner_name":"BAGLEY ROBERT JOSEPH & LINDA M","property_address":"8732 CRACKEL RD","property_city":"CHAGRIN FALLS","property_zip":"44023"}},{"type":"Feature","geometry":{"type":"Polygon","coordinates":[[[-81.3272835558168,41.3475814188073],[-81.3278298316538,41.347586614488],[-81.3278297529922,41.3475908236907],[-81.3278060445291,41.3488689706249],[-81.3272597643494,41.3488634209875],[-81.3272834717378,41.3475859296343],[-81.3272835558168,41.3475814188073]]]},"properties":{"source_county":"Geauga","jurisdiction":"Bainbridge Township","parcel_id":"02-270140","owner_name":"POTOMA EDITH DARLENE & MICHAEL P JR","property_address":"8820 CRACKEL RD","property_city":"CHAGRIN FALLS","property_zip":"44023"}},{"type":"Feature","geometry":{"type":"Polygon","coordinates":[[[-81.3294686597151,41.3476021842587],[-81.3300149370921,41.3476073696377],[-81.3300148809241,41.3476103903626],[-81.3299911661219,41.3488911460909],[-81.3294448855895,41.348885605867],[-81.3294685982939,41.3476054985046],[-81.3294686597151,41.3476021842587]]]},"properties":{"source_county":"Geauga","jurisdiction":"Bainbridge Township","parcel_id":"02-283200","owner_name":"STAFFORD DAVID N & DOROTHY T","property_address":"8746 CRACKEL RD","property_city":"CHAGRIN FALLS","property_zip":"44023"}},{"type":"Feature","geometry":{"type":"Polygon","coordinates":[[[-81.3404705294951,41.347700540861],[-81.3420500396291,41.3477155992346],[-81.3420518788838,41.3483347472962],[-81.3399069065143,41.3483089774539],[-81.3399031727282,41.347695126907],[-81.3404705294951,41.347700540861]]]},"properties":{"source_county":"Geauga","jurisdiction":"Bainbridge Township","parcel_id":"02-313101","owner_name":"KAUFMAN IBOLYKA TRUSTEE & KAUFMAN IBOLYKA & RONALD L TRUSTEES","property_address":"19180 CHILLICOTHE RD","property_city":"CHAGRIN FALLS","property_zip":"44023"}},{"type":"Feature","geometry":{"type":"Polygon","coordinates":[[[-81.3399106464418,41.3489224839601],[-81.3399069065143,41.3483089774539],[-81.3420518788838,41.3483347472962],[-81.3420534611867,41.3487617559973],[-81.3420538178989,41.3489482355096],[-81.3399106464418,41.3489224839601]]]},"properties":{"source_county":"Geauga","jurisdiction":"Bainbridge Township","parcel_id":"02-313102","owner_name":"CONROY LEO F JR & DIANE","property_address":"19166 CHILLICOTHE RD","property_city":"CHAGRIN FALLS","property_zip":"44023"}},{"type":"Feature","geometry":{"type":"Polygon","coordinates":[[[-81.3399134729267,41.3495361532133],[-81.3399106464418,41.3489224839601],[-81.3420538178989,41.3489482355096],[-81.3420558075352,41.3495071716899],[-81.34205575392,41.3495618955965],[-81.3399134729267,41.3495361532133]]]},"properties":{"source_county":"Geauga","jurisdiction":"Bainbridge Township","parcel_id":"02-313103","owner_name":"MANOCCHIO TIMOTHY W & JODI","property_address":"19130 CHILLICOTHE RD","property_city":"CHAGRIN FALLS","property_zip":"44023"}},{"type":"Feature","geometry":{"type":"Polygon","coordinates":[[[-81.3399172099495,41.3501498314948],[-81.3399134729267,41.3495361532133],[-81.34205575392,41.3495618955965],[-81.3420576899773,41.3501755555854],[-81.3399172099495,41.3501498314948]]]},"properties":{"source_county":"Geauga","jurisdiction":"Bainbridge Township","parcel_id":"02-313104","owner_name":"RICE STEPHEN A","property_address":"19124 CHILLICOTHE RD","property_city":"CHAGRIN FALLS","property_zip":"44023"}},{"type":"Feature","geometry":{"type":"Polygon","coordinates":[[[-81.34205575392,41.3495618955965],[-81.3420558075352,41.3495071716899],[-81.3428844563351,41.3496140471819],[-81.3440773917846,41.3497678956159],[-81.3440513783006,41.3498993379755],[-81.34403218401,41.3500314445333],[-81.34401983813,41.3501640144817],[-81.3440143594686,41.3502968463076],[-81.3428814542464,41.3502987384868],[-81.342058227259,41.3503001072471],[-81.3420576899773,41.3501755555854],[-81.34205575392,41.3495618955965]]]},"properties":{"source_county":"Geauga","jurisdiction":"Bainbridge Township","parcel_id":"02-313117","owner_name":"JANSZEN JEREMY T & THERESA A TRUSTEES","property_address":"19133 RIDGEVIEW DR","property_city":"CHAGRIN FALLS","property_zip":"44023"}},{"type":"Feature","geometry":{"type":"Polygon","coordinates":[[[-81.3420538178989,41.3489482355096],[-81.3420534611867,41.3487617559973],[-81.3428872990746,41.3489657545766],[-81.3442314185588,41.3492945789151],[-81.3441839778277,41.3494111664265],[-81.3441424545013,41.3495290289653],[-81.3441069086714,41.3496479960538],[-81.3440773917846,41.3497678956159],[-81.3428844563351,41.3496140471819],[-81.3420558075352,41.3495071716899],[-81.3420538178989,41.3489482355096]]]},"properties":{"source_county":"Geauga","jurisdiction":"Bainbridge Township","parcel_id":"02-313118","owner_name":"ELLIOTT ROBERT & MEAGAN","property_address":"19155 RIDGEVIEW DR","property_city":"CHAGRIN FALLS","property_zip":"44023"}},{"type":"Feature","geometry":{"type":"Polygon","coordinates":[[[-81.3420518788838,41.3483347472962],[-81.3420500396291,41.3477155992346],[-81.3428907166946,41.3481863942168],[-81.3443752375249,41.3490177245795],[-81.3443585171867,41.3490373551552],[-81.3443448499232,41.3490582845863],[-81.3442851522847,41.3491756189013],[-81.3442314185588,41.3492945789151],[-81.3428872990746,41.3489657545766],[-81.3420534611867,41.3487617559973],[-81.3420518788838,41.3483347472962]]]},"properties":{"source_county":"Geauga","jurisdiction":"Bainbridge Township","parcel_id":"02-313119","owner_name":"CHMIELEWSKI TERESA L TOD","property_address":"19161 RIDGEVIEW DR","property_city":"CHAGRIN FALLS","property_zip":"44023"}},{"type":"Feature","geometry":{"type":"Polygon","coordinates":[[[-81.3443752351035,41.3490177263564],[-81.3428907166946,41.3481863942168],[-81.3420500396291,41.3477155992346],[-81.3428927463753,41.3477236137565],[-81.3448506185973,41.3477422136638],[-81.344634820291,41.3489346874296],[-81.3445926174478,41.3489326753531],[-81.3445505078741,41.3489355931992],[-81.3445094996703,41.3489433711148],[-81.3444705745712,41.3489558228971],[-81.3444346644433,41.3489726504509],[-81.3444026289764,41.3489934509251],[-81.3443752351035,41.3490177263564]]]},"properties":{"source_county":"Geauga","jurisdiction":"Bainbridge Township","parcel_id":"02-313120","owner_name":"PAKHOMOV ALEXEI & LEVINA MARINA","property_address":"19178 RIDGEVIEW DR","property_city":"CHAGRIN FALLS","property_zip":"44023"}},{"type":"Feature","geometry":{"type":"Polygon","coordinates":[[[-81.3448506185973,41.3477422136638],[-81.3471358804255,41.3477638009168],[-81.3448206647619,41.3490207702471],[-81.3447920870158,41.3489947432446],[-81.3447582474908,41.3489725867203],[-81.3447200566223,41.3489548967816],[-81.3446785419135,41.3489421493644],[-81.344634820291,41.3489346874296],[-81.3448506185973,41.3477422136638]]]},"properties":{"source_county":"Geauga","jurisdiction":"Bainbridge Township","parcel_id":"02-313121","owner_name":"JAMES THOMAS E","property_address":"19172 RIDGEVIEW DR","property_city":"CHAGRIN FALLS","property_zip":"44023"}},{"type":"Feature","geometry":{"type":"Polygon","coordinates":[[[-81.3445611315892,41.3493428184953],[-81.3446061203676,41.3493444243195],[-81.3446508482451,41.3493404406064],[-81.3446941005297,41.3493309755431],[-81.3447347026033,41.349316286176],[-81.3447715518228,41.3492967714295],[-81.344803647465,41.3492729612723],[-81.3448301179039,41.3492455023242],[-81.3448502442817,41.3492151402957],[-81.3448634800303,41.3491826997361],[-81.3448694657141,41.3491490616403],[-81.34486803879,41.349115139524],[-81.3448592380205,41.3490818546145],[-81.3448433024199,41.349050110833],[-81.3448206647619,41.3490207702471],[-81.3471358804255,41.3477638009168],[-81.3471382969262,41.3486123196053],[-81.3458060991673,41.3493355123384],[-81.3443627025916,41.3495448113536],[-81.3443818694531,41.3494906214193],[-81.3443935542781,41.3494534975102],[-81.3444095671894,41.3494173020128],[-81.3444191643289,41.3494004062946],[-81.3444323782441,41.3493849590373],[-81.3444488362653,41.3493713958945],[-81.344468074231,41.3493600993826],[-81.3444895495789,41.3493513880928],[-81.3445126566476,41.3493455077062],[-81.3445367437574,41.349342624065],[-81.3445611315892,41.3493428184953]]]},"properties":{"source_county":"Geauga","jurisdiction":"Bainbridge Township","parcel_id":"02-313122","owner_name":"COOK ROBERT J TOD & MLAKAR KATHLEEN M TOD","property_address":"19156 RIDGEVIEW DR","property_city":"CHAGRIN FALLS","property_zip":"44023"}},{"type":"Feature","geometry":{"type":"Polygon","coordinates":[[[-81.3458060991673,41.3493355123384],[-81.3471382969262,41.3486123196053],[-81.3471416611137,41.3496663659508],[-81.3442448144574,41.3500862523105],[-81.3442627146132,41.349949588981],[-81.3442883630966,41.3498136284493],[-81.3443217128244,41.3496786200458],[-81.3443627025916,41.3495448113536],[-81.3458060991673,41.3493355123384]]]},"properties":{"source_county":"Geauga","jurisdiction":"Bainbridge Township","parcel_id":"02-313123","owner_name":"SNYDER BENNJAMIN & JAYDE","property_address":"19132 RIDGEVIEW DR","property_city":"CHAGRIN FALLS","property_zip":"44023"}},{"type":"Feature","geometry":{"type":"Polygon","coordinates":[[[-81.3289223836031,41.3475969972136],[-81.3294686597151,41.3476021842587],[-81.3294685982939,41.3476054985046],[-81.3294448855895,41.348885605867],[-81.3288986051492,41.3488800630646],[-81.3289223169078,41.3476006058811],[-81.3289223836031,41.3475969972136]]]},"properties":{"source_county":"Geauga","jurisdiction":"Bainbridge Township","parcel_id":"02-328100","owner_name":"SLECHTA PENNY K","property_address":"8764 CRACKEL RD","property_city":"CHAGRIN FALLS","property_zip":"44023"}},{"type":"Feature","geometry":{"type":"Polygon","coordinates":[[[-81.3250947630291,41.347563287048],[-81.3256410556774,41.347567534164],[-81.3256409902263,41.3475711968761],[-81.3256181201165,41.348846726348],[-81.3250718403227,41.3488411654834],[-81.3250947093143,41.3475662915881],[-81.3250947630291,41.347563287048]]]},"properties":{"source_county":"Geauga","jurisdiction":"Bainbridge Township","parcel_id":"02-383700","owner_name":"WALKER CLARENCE L TOD","property_address":"8876 CRACKEL RD","property_city":"CHAGRIN FALLS","property_zip":"44023"}},{"type":"Feature","geometry":{"type":"Polygon","coordinates":[[[-81.3265331920505,41.3475744656081],[-81.32673728005,41.3475762214485],[-81.3267372793105,41.3475762628656],[-81.3267371905808,41.3475810320989],[-81.326713484278,41.3488578678715],[-81.3261644000188,41.3488522837338],[-81.3261872712359,41.3475760986852],[-81.3261873483803,41.3475717796018],[-81.3265331920505,41.3475744656081]]]},"properties":{"source_county":"Geauga","jurisdiction":"Bainbridge Township","parcel_id":"02-404500","owner_name":"EMERICK KENNETH & PAMELA SUE","property_address":"8850 CRACKEL RD","property_city":"CHAGRIN FALLS","property_zip":"44023"}},{"type":"Feature","geometry":{"type":"Polygon","coordinates":[[[-81.3283761075933,41.3475918066899],[-81.3289223836031,41.3475969972136],[-81.3289223169078,41.3476006058811],[-81.3288986051492,41.3488800630646],[-81.328352324785,41.3488745185841],[-81.3283760355068,41.3475957160812],[-81.3283761075933,41.3475918066899]]]},"properties":{"source_county":"Geauga","jurisdiction":"Bainbridge Township","parcel_id":"02-414200","owner_name":"TULLER JOSEPH PATRICK","property_address":"8780 CRACKEL RD","property_city":"CHAGRIN FALLS","property_zip":"44023"}},{"type":"Feature","geometry":{"type":"Polygon","coordinates":[[[-81.3379644803464,41.3476793941962],[-81.3396654138018,41.3476939509309],[-81.3396809296248,41.3512781225481],[-81.3379799514895,41.3512803785761],[-81.3379644870397,41.3476809755998],[-81.3379644803464,41.3476793941962]]]},"properties":{"source_county":"Geauga","jurisdiction":"Bainbridge Township","parcel_id":"02-717100","owner_name":"BAINBRIDGE TOWNSHIP BOARD OF TRUSTEES","property_address":" CRACKEL RD","property_city":"CHAGRIN FALLS","property_zip":"44023"}},{"type":"Feature","geometry":{"type":"Polygon","coordinates":[[[-81.3342972545321,41.3476479248741],[-81.3379644803464,41.3476793941962],[-81.3379644870397,41.3476809755998],[-81.3379799514895,41.3512803785761],[-81.3343660303287,41.3512850890551],[-81.3342972647505,41.3476484941144],[-81.3342972545321,41.3476479248741]]]},"properties":{"source_county":"Geauga","jurisdiction":"Bainbridge Township","parcel_id":"02-717200","owner_name":"BAINBRIDGE TOWNSHIP BOARD OF TRUSTEES","property_address":"8558 CRACKEL RD","property_city":"CHAGRIN FALLS","property_zip":"44023"}},{"type":"Feature","geometry":{"type":"Polygon","coordinates":[[[-81.3261488420164,41.3510867199056],[-81.3261644000188,41.3488522837338],[-81.326713484278,41.3488578678715],[-81.3272597643494,41.3488634209875],[-81.3278060445291,41.3488689706249],[-81.328352324785,41.3488745185841],[-81.3288986051492,41.3488800630646],[-81.3294448855895,41.348885605867],[-81.3299911661219,41.3488911460909],[-81.3305524873625,41.3488968357204],[-81.3305457073742,41.3510878755854],[-81.3289576552672,41.3510874775146],[-81.3287391156588,41.3510874210419],[-81.3275871221844,41.3510871162805],[-81.3270407618268,41.3510869672902],[-81.3264944014557,41.3510868166213],[-81.3261488420164,41.3510867199056]]]},"properties":{"source_county":"Geauga","jurisdiction":"Bainbridge Township","parcel_id":"02-717400","owner_name":"BAINBRIDGE TOWNSHIP BOARD OF TRUSTEES","property_address":" CRACKEL RD","property_city":"CHAGRIN FALLS","property_zip":"44023"}}]}