{"type":"FeatureCollection","features":[{"type":"Feature","geometry":{"type":"Polygon","coordinates":[[[-81.297398250072,41.4461926403326],[-81.2973982091171,41.4460700159391],[-81.2973985027713,41.4460700577081],[-81.2982206793929,41.4461865112066],[-81.2982470361508,41.4461958472632],[-81.2988440824921,41.4464073380708],[-81.2981264587439,41.4464869003842],[-81.2973977171773,41.4465676909873],[-81.297398332074,41.4464570178361],[-81.2973982482097,41.4461932643699],[-81.297398250072,41.4461926403326]]]},"properties":{"source_county":"Geauga","jurisdiction":"Russell Township","parcel_id":"26-008300","owner_name":"BAUER WILLIAM F JR & JESSICA R","property_address":" MUSIC ST","property_city":"NOVELTY","property_zip":"44072"}},{"type":"Feature","geometry":{"type":"Polygon","coordinates":[[[-81.2988440824921,41.4464073380708],[-81.2992158541437,41.4463947666301],[-81.2992233536481,41.4464765767965],[-81.2991418770697,41.4469052374149],[-81.2992882577407,41.4485021385185],[-81.2981848052322,41.448556875953],[-81.2980498496977,41.4470155948784],[-81.2981264587439,41.4464869003842],[-81.2988440824921,41.4464073380708]]]},"properties":{"source_county":"Geauga","jurisdiction":"Russell Township","parcel_id":"26-008400","owner_name":"MAHONEY MICHAEL TOD & CHRISTINE TOD","property_address":"9652 MUSIC ST","property_city":"NOVELTY","property_zip":"44072"}},{"type":"Feature","geometry":{"type":"Polygon","coordinates":[[[-81.299317255199,41.4463913379398],[-81.2997685336398,41.4463760754137],[-81.2998954206185,41.4478267259713],[-81.3001303721362,41.450389502583],[-81.2995724229274,41.4502844593982],[-81.2992233536481,41.4464765767965],[-81.2992158541437,41.4463947666301],[-81.299317255199,41.4463913379398]]]},"properties":{"source_county":"Geauga","jurisdiction":"Russell Township","parcel_id":"26-008600","owner_name":"BELL ALEX E & RENEE M","property_address":"9614 MUSIC ST","property_city":"NOVELTY","property_zip":"44072"}},{"type":"Feature","geometry":{"type":"Polygon","coordinates":[[[-81.2991418770697,41.4469052374149],[-81.2992233536481,41.4464765767965],[-81.2995724229274,41.4502844593982],[-81.2994495232122,41.4502613211901],[-81.2992882577407,41.4485021385185],[-81.2991418770697,41.4469052374149]]]},"properties":{"source_county":"Geauga","jurisdiction":"Russell Township","parcel_id":"26-008601","owner_name":"BELL ALEX E & RENEE M","property_address":" MUSIC ST","property_city":"NOVELTY","property_zip":"44072"}},{"type":"Feature","geometry":{"type":"Polygon","coordinates":[[[-81.2974077520759,41.4434926521634],[-81.2989126216096,41.4434441457057],[-81.2989507813755,41.4441144072106],[-81.2990620836757,41.4460693071049],[-81.2991650948426,41.4461993100326],[-81.299317255199,41.4463913379398],[-81.2992158541437,41.4463947666301],[-81.2988440824921,41.4464073380708],[-81.2982470361508,41.4461958472632],[-81.2982206793929,41.4461865112066],[-81.2973985027713,41.4460700577081],[-81.2973982091171,41.4460700159391],[-81.2973988699602,41.4458919244209],[-81.2973996690905,41.4456755948732],[-81.2974077520759,41.4434926521634]]]},"properties":{"source_county":"Geauga","jurisdiction":"Russell Township","parcel_id":"26-119400","owner_name":"BAUER WILLIAM F JR & JESSICA R","property_address":"9651 MUSIC ST","property_city":"NOVELTY","property_zip":"44072"}},{"type":"Feature","geometry":{"type":"Polygon","coordinates":[[[-81.2989507813755,41.4441144072106],[-81.2999201825787,41.4440831546905],[-81.3000408785357,41.4462026052279],[-81.3000502005859,41.4463662918389],[-81.2997685336398,41.4463760754137],[-81.299317255199,41.4463913379398],[-81.2991650948426,41.4461993100326],[-81.2990620836757,41.4460693071049],[-81.2989507813755,41.4441144072106]]]},"properties":{"source_county":"Geauga","jurisdiction":"Russell Township","parcel_id":"26-213130","owner_name":"DONALDSON CAROLINE H","property_address":"9641 MUSIC ST","property_city":"NOVELTY","property_zip":"44072"}},{"type":"Feature","geometry":{"type":"Polygon","coordinates":[[[-81.3000408785357,41.4462026052279],[-81.2999201825787,41.4440831546905],[-81.2989507813755,41.4441144072106],[-81.2989126216096,41.4434441457057],[-81.2974077520759,41.4434926521634],[-81.297413472135,41.4419478574511],[-81.3012317742296,41.44182455238],[-81.3012399233891,41.4433337295136],[-81.3012554401306,41.4462071657026],[-81.301256072771,41.4463243948518],[-81.3000502005859,41.4463662918389],[-81.3000408785357,41.4462026052279]]]},"properties":{"source_county":"Geauga","jurisdiction":"Russell Township","parcel_id":"26-213920","owner_name":"DONALDSON CAROLINE HORNER","property_address":"9575 MUSIC ST","property_city":"NOVELTY","property_zip":"44072"}},{"type":"Feature","geometry":{"type":"Polygon","coordinates":[[[-81.2973982500737,41.4461926403354],[-81.2973982091188,41.446070015942],[-81.2973985027731,41.4460700577109],[-81.2982206793946,41.4461865112094],[-81.2982470361525,41.446195847266],[-81.2988440824937,41.4464073380736],[-81.2981264587455,41.446486900387],[-81.297397717179,41.4465676909902],[-81.2973983320756,41.4464570178389],[-81.2973982482114,41.4461932643727],[-81.2973982500737,41.4461926403354]]]},"properties":{"source_county":"Geauga","jurisdiction":"Russell Township","parcel_id":"26-008300","owner_name":"BAUER WILLIAM F JR & JESSICA R","property_address":" MUSIC ST","property_city":"NOVELTY","property_zip":"44072"}},{"type":"Feature","geometry":{"type":"Polygon","coordinates":[[[-81.2988440824937,41.4464073380736],[-81.2992158541454,41.446394766633],[-81.2992233536499,41.4464765767994],[-81.2991418770714,41.4469052374178],[-81.2992882577424,41.4485021385213],[-81.2981848052338,41.4485568759558],[-81.2980498496993,41.4470155948812],[-81.2981264587455,41.446486900387],[-81.2988440824937,41.4464073380736]]]},"properties":{"source_county":"Geauga","jurisdiction":"Russell Township","parcel_id":"26-008400","owner_name":"MAHONEY MICHAEL TOD & CHRISTINE TOD","property_address":"9652 MUSIC ST","property_city":"NOVELTY","property_zip":"44072"}},{"type":"Feature","geometry":{"type":"Polygon","coordinates":[[[-81.2993172552007,41.4463913379426],[-81.2997685336414,41.4463760754165],[-81.2998954206202,41.4478267259741],[-81.3001303721379,41.4503895025859],[-81.2995724229291,41.450284459401],[-81.2992233536499,41.4464765767994],[-81.2992158541454,41.446394766633],[-81.2993172552007,41.4463913379426]]]},"properties":{"source_county":"Geauga","jurisdiction":"Russell Township","parcel_id":"26-008600","owner_name":"BELL ALEX E & RENEE M","property_address":"9614 MUSIC ST","property_city":"NOVELTY","property_zip":"44072"}},{"type":"Feature","geometry":{"type":"Polygon","coordinates":[[[-81.2991418770714,41.4469052374178],[-81.2992233536499,41.4464765767994],[-81.2995724229291,41.450284459401],[-81.2994495232138,41.450261321193],[-81.2992882577424,41.4485021385213],[-81.2991418770714,41.4469052374178]]]},"properties":{"source_county":"Geauga","jurisdiction":"Russell Township","parcel_id":"26-008601","owner_name":"BELL ALEX E & RENEE M","property_address":" MUSIC ST","property_city":"NOVELTY","property_zip":"44072"}},{"type":"Feature","geometry":{"type":"Polygon","coordinates":[[[-81.2974077520775,41.4434926521663],[-81.2989126216112,41.4434441457085],[-81.2989507813772,41.4441144072135],[-81.2990620836774,41.4460693071078],[-81.2991650948442,41.4461993100355],[-81.2993172552007,41.4463913379426],[-81.2992158541454,41.446394766633],[-81.2988440824937,41.4464073380736],[-81.2982470361525,41.446195847266],[-81.2982206793946,41.4461865112094],[-81.2973985027731,41.4460700577109],[-81.2973982091188,41.446070015942],[-81.2973988699619,41.4458919244237],[-81.2973996690922,41.445675594876],[-81.2974077520775,41.4434926521663]]]},"properties":{"source_county":"Geauga","jurisdiction":"Russell Township","parcel_id":"26-119400","owner_name":"BAUER WILLIAM F JR & JESSICA R","property_address":"9651 MUSIC ST","property_city":"NOVELTY","property_zip":"44072"}},{"type":"Feature","geometry":{"type":"Polygon","coordinates":[[[-81.2989507813772,41.4441144072135],[-81.2999201825804,41.4440831546933],[-81.3000408785373,41.4462026052308],[-81.3000502005876,41.4463662918417],[-81.2997685336414,41.4463760754165],[-81.2993172552007,41.4463913379426],[-81.2991650948442,41.4461993100355],[-81.2990620836774,41.4460693071078],[-81.2989507813772,41.4441144072135]]]},"properties":{"source_county":"Geauga","jurisdiction":"Russell Township","parcel_id":"26-213130","owner_name":"DONALDSON CAROLINE H","property_address":"9641 MUSIC ST","property_city":"NOVELTY","property_zip":"44072"}},{"type":"Feature","geometry":{"type":"Polygon","coordinates":[[[-81.3000408785373,41.4462026052308],[-81.2999201825804,41.4440831546933],[-81.2989507813772,41.4441144072135],[-81.2989126216112,41.4434441457085],[-81.2974077520775,41.4434926521663],[-81.2974134721367,41.4419478574539],[-81.3012317742313,41.4418245523828],[-81.3012399233908,41.4433337295164],[-81.3012554401323,41.4462071657054],[-81.3012560727727,41.4463243948547],[-81.3000502005876,41.4463662918417],[-81.3000408785373,41.4462026052308]]]},"properties":{"source_county":"Geauga","jurisdiction":"Russell Township","parcel_id":"26-213920","owner_name":"DONALDSON CAROLINE HORNER","property_address":"9575 MUSIC ST","property_city":"NOVELTY","property_zip":"44072"}},{"type":"Feature","geometry":{"type":"Polygon","coordinates":[[[-81.2973774409176,41.4326944171763],[-81.2979657010448,41.432424189518],[-81.2980421366173,41.4394713252453],[-81.2974231473226,41.4394975404345],[-81.2974024812612,41.4364217643432],[-81.2973801505555,41.4330978224263],[-81.297379168703,41.432951646465],[-81.2973774409176,41.4326944171763]]]},"properties":{"source_county":"Geauga","jurisdiction":"South Russell Village","parcel_id":"29-012300","owner_name":"GOODRICH GLENN R & DONNA","property_address":"1649 BELL RD","property_city":"NEWBURY","property_zip":"44065"}},{"type":"Feature","geometry":{"type":"Polygon","coordinates":[[[-81.2997140499184,41.432037400418],[-81.3002569246245,41.4320272109386],[-81.3002706440319,41.433344150201],[-81.2994541153057,41.4333597457548],[-81.2994443560482,41.4323991911879],[-81.2997148798334,41.4321195416472],[-81.2997140499184,41.432037400418]]]},"properties":{"source_county":"Geauga","jurisdiction":"South Russell Village","parcel_id":"29-051200","owner_name":"SANDHAM ROBERT","property_address":"1625 BELL RD","property_city":"CHAGRIN FALLS","property_zip":"44022"}},{"type":"Feature","geometry":{"type":"Polygon","coordinates":[[[-81.2979657010448,41.432424189518],[-81.2985730539065,41.4321451858939],[-81.2986491107577,41.4394456143692],[-81.2980421366173,41.4394713252453],[-81.2979657010448,41.432424189518]]]},"properties":{"source_county":"Geauga","jurisdiction":"South Russell Village","parcel_id":"29-060100","owner_name":"GOODRICH DONNA M","property_address":"1645 BELL RD","property_city":"CHAGRIN FALLS","property_zip":"44022"}},{"type":"Feature","geometry":{"type":"Polygon","coordinates":[[[-81.2986491107577,41.4394456143692],[-81.2985730539065,41.4321451858939],[-81.2987687139143,41.4320553029244],[-81.2988095707408,41.4320545260541],[-81.2991635576735,41.4320477830758],[-81.2991865057956,41.4342432578332],[-81.3002334965778,41.4342232612905],[-81.3002409751602,41.4349306111932],[-81.3009701354854,41.4349166850431],[-81.3010169987467,41.4393452845321],[-81.2986491107577,41.4394456143692]]]},"properties":{"source_county":"Geauga","jurisdiction":"South Russell Village","parcel_id":"29-107250","owner_name":"MUSICAL WOODS LLC","property_address":"1633 BELL RD","property_city":"CHAGRIN FALLS","property_zip":"44022"}},{"type":"Feature","geometry":{"type":"Polygon","coordinates":[[[-81.2991865057956,41.4342432578332],[-81.2991635576735,41.4320477830758],[-81.2993432772716,41.4320443583808],[-81.2997140451331,41.4320374003684],[-81.2997148798334,41.4321195416472],[-81.2994443560482,41.4323991911879],[-81.2994541153057,41.4333597457548],[-81.3002706440319,41.433344150201],[-81.3002797929104,41.4342223763102],[-81.3002334965778,41.4342232612905],[-81.2991865057956,41.4342432578332]]]},"properties":{"source_county":"Geauga","jurisdiction":"South Russell Village","parcel_id":"29-107858","owner_name":"LANE BRIAN & KATHLEEN A TRUSTEES","property_address":"1629 BELL RD","property_city":"CHAGRIN FALLS","property_zip":"44022"}},{"type":"Feature","geometry":{"type":"Polygon","coordinates":[[[-81.2993432772716,41.4320443583808],[-81.2993409042013,41.4319605189859],[-81.2993142754712,41.4319591028525],[-81.2992884355545,41.4319540583779],[-81.2992642498345,41.4319455545025],[-81.2992425282947,41.4319338760225],[-81.2992239983915,41.4319194140523],[-81.2992092806917,41.4319026529252],[-81.2991988680898,41.4318841539733],[-81.299193109301,41.4318645367283],[-81.2991926391454,41.4318199259575],[-81.2991894751629,41.4317753773752],[-81.2991836238991,41.4317309830656],[-81.2991750974543,41.4316868347936],[-81.2991639134584,41.4316430238157],[-81.2991500950344,41.4315996406906],[-81.2991336707507,41.4315567750928],[-81.2991146745617,41.4315145156266],[-81.2991188730398,41.4314365839942],[-81.2991309277236,41.4313591177547],[-81.3012314560863,41.4313662351238],[-81.3012276340393,41.4320089833584],[-81.2993432772716,41.4320443583808]]]},"properties":{"source_county":"Geauga","jurisdiction":"South Russell Village","parcel_id":"29-108155","owner_name":"WYLER DANIEL J & LICINA LAUREN K","property_address":"100 ASHLEIGH DR","property_city":"CHAGRIN FALLS","property_zip":"44022"}},{"type":"Feature","geometry":{"type":"Polygon","coordinates":[[[-81.2993250511578,41.4307834207858],[-81.3012348836646,41.4307898904903],[-81.3012314560863,41.4313662351238],[-81.2991309277236,41.4313591177547],[-81.2991438110757,41.4313060992451],[-81.2991603780236,41.4312536633951],[-81.2993132697565,41.4308196661416],[-81.2993250511578,41.4307834207858]]]},"properties":{"source_county":"Geauga","jurisdiction":"South Russell Village","parcel_id":"29-108156","owner_name":"COLEMAN MYRA R & WILLIAM E JR","property_address":"102 ASHLEIGH DR","property_city":"CHAGRIN FALLS","property_zip":"44022"}},{"type":"Feature","geometry":{"type":"Polygon","coordinates":[[[-81.2994262305073,41.4301799628724],[-81.3012384738143,41.4301861014527],[-81.3012357182334,41.4306495975184],[-81.3012348836646,41.4307898904903],[-81.2993250511578,41.4307834207858],[-81.2993471236392,41.4307090785834],[-81.2993665265168,41.4306343157828],[-81.299383245711,41.4305591866709],[-81.2993972690907,41.4304837458006],[-81.2994085864827,41.4304080479509],[-81.2994171896785,41.4303321480873],[-81.2994230724408,41.4302561013217],[-81.2994262305073,41.4301799628724]]]},"properties":{"source_county":"Geauga","jurisdiction":"South Russell Village","parcel_id":"29-108157","owner_name":"SCHRON MATTHEW","property_address":"104 ASHLEIGH DR","property_city":"CHAGRIN FALLS","property_zip":"44022"}},{"type":"Feature","geometry":{"type":"Polygon","coordinates":[[[-81.2993540036957,41.4295759157668],[-81.3012420651106,41.4295823114232],[-81.3012384738143,41.4301861014527],[-81.2994262305073,41.4301799628724],[-81.2994266640569,41.4301040087021],[-81.2994243860138,41.4300280731812],[-81.299419398032,41.4299522111316],[-81.299411703722,41.4298764773214],[-81.2994013086479,41.4298009264262],[-81.2993882203238,41.4297256129893],[-81.2993724482078,41.4296505913826],[-81.2993540036957,41.4295759157668]]]},"properties":{"source_county":"Geauga","jurisdiction":"South Russell Village","parcel_id":"29-108158","owner_name":"WILSON JOHN M JR TOD & JEANINE M TOD","property_address":"106 ASHLEIGH DR","property_city":"CHAGRIN FALLS","property_zip":"44022"}},{"type":"Feature","geometry":{"type":"Polygon","coordinates":[[[-81.2991406971574,41.4290419004998],[-81.3012455732173,41.4289922443311],[-81.3012420651106,41.4295823114232],[-81.2993540036957,41.4295759157668],[-81.2993220771994,41.4294669140966],[-81.2992844579515,41.4293589459924],[-81.2992412046332,41.4292521797905],[-81.299192384709,41.4291467819521],[-81.2991406971574,41.4290419004998]]]},"properties":{"source_county":"Geauga","jurisdiction":"South Russell Village","parcel_id":"29-108159","owner_name":"CURREY BARBARA TOD","property_address":"108 ASHLEIGH DR","property_city":"CHAGRIN FALLS","property_zip":"44022"}},{"type":"Feature","geometry":{"type":"Polygon","coordinates":[[[-81.2988930266021,41.4285252876569],[-81.3012488379086,41.4284433445312],[-81.3012455732173,41.4289922443311],[-81.2991406971574,41.4290419004998],[-81.2989387594157,41.4286321363903],[-81.2989143484955,41.4285790864804],[-81.2988930266021,41.4285252876569]]]},"properties":{"source_county":"Geauga","jurisdiction":"South Russell Village","parcel_id":"29-108160","owner_name":"GILE TREVOR A & COURTNEY A","property_address":"110 ASHLEIGH DR","property_city":"CHAGRIN FALLS","property_zip":"44022"}},{"type":"Feature","geometry":{"type":"Polygon","coordinates":[[[-81.2995899530827,41.4271128162555],[-81.2999348809593,41.4269384150408],[-81.3010732998633,41.4276072500413],[-81.3010716668196,41.4278816995645],[-81.2996425808024,41.428140361079],[-81.2988991875103,41.4278254042242],[-81.2989215044439,41.4277717092709],[-81.2989469110351,41.4277187977946],[-81.298975358946,41.4276667704477],[-81.2990067940538,41.4276157262005],[-81.2990411565535,41.427565762153],[-81.2990783810719,41.4275169733501],[-81.2991183967921,41.4274694526007],[-81.2991611275879,41.4274232903017],[-81.2992064921688,41.4273785742653],[-81.2992544042351,41.4273353895527],[-81.2993047726411,41.4272938183119],[-81.2993575015695,41.4272539396212],[-81.2994124907132,41.4272158293397],[-81.2994696354662,41.4271795599618],[-81.2995288271224,41.4271452004806],[-81.2995899530827,41.4271128162555]]]},"properties":{"source_county":"Geauga","jurisdiction":"South Russell Village","parcel_id":"29-108161","owner_name":"WARD RYAN D & ANDREA D","property_address":"116 ASHLEIGH DR","property_city":"CHAGRIN FALLS","property_zip":"44022"}},{"type":"Feature","geometry":{"type":"Polygon","coordinates":[[[-81.2974104743995,41.4251344886688],[-81.2996459621149,41.4251184236123],[-81.2996460571804,41.4251187208681],[-81.3000981991934,41.4265233929424],[-81.3000680161121,41.4265304971667],[-81.3000391244883,41.4265401764206],[-81.3000119106511,41.4265523012767],[-81.2999867384954,41.4265667096056],[-81.2999639446158,41.4265832087441],[-81.2999438338066,41.4266015780713],[-81.2999266749851,41.4266215719584],[-81.2999126975967,41.4266429230534],[-81.2974043831637,41.4253981913414],[-81.297403893478,41.4253979485217],[-81.2974044533153,41.4252433152489],[-81.297404454305,41.425243261228],[-81.2974046185958,41.4251979199524],[-81.2974048482847,41.4251345770601],[-81.2974048479627,41.4251345293292],[-81.2974057741332,41.4251345227326],[-81.2974104743995,41.4251344886688]]]},"properties":{"source_county":"Geauga","jurisdiction":"South Russell Village","parcel_id":"29-108164","owner_name":"MISTHOS MARIA TOD","property_address":"117 ASHLEIGH DR","property_city":"CHAGRIN FALLS","property_zip":"44022"}},{"type":"Feature","geometry":{"type":"Polygon","coordinates":[[[-81.2973997869756,41.4265319556562],[-81.297403893478,41.4253979485217],[-81.2974043831637,41.4253981913414],[-81.2999126975967,41.4266429230534],[-81.2998997137485,41.4266718569576],[-81.2998925603114,41.4267019182235],[-81.299884403703,41.4267306777799],[-81.2998682928969,41.426757468959],[-81.2998449677515,41.4267810614109],[-81.2998154994377,41.4268003716822],[-81.2994394186724,41.4269908293123],[-81.2993846199707,41.4270204507623],[-81.2993313395129,41.4270516017446],[-81.2992796526241,41.4270842382208],[-81.2992296323766,41.4271183140524],[-81.2991808434805,41.4271533869176],[-81.2991338411619,41.4271898156307],[-81.2990886918926,41.4272275486757],[-81.2990454595242,41.4272665326919],[-81.2990244235357,41.42728637823],[-81.2989785702628,41.4273319006437],[-81.2989352778891,41.4273788219704],[-81.2988946216669,41.4274270606555],[-81.2988566722673,41.4274765328546],[-81.2974017929412,41.4268675127721],[-81.2973985763493,41.4268661664303],[-81.2973997869756,41.4265319556562]]]},"properties":{"source_county":"Geauga","jurisdiction":"South Russell Village","parcel_id":"29-108165","owner_name":"LU GHAI & POKRAE","property_address":"115 ASHLEIGH DR","property_city":"CHAGRIN FALLS","property_zip":"44022"}},{"type":"Feature","geometry":{"type":"Polygon","coordinates":[[[-81.2973970043803,41.4273004211321],[-81.2973985763493,41.4268661664303],[-81.2974017929412,41.4268675127721],[-81.2988566722673,41.4274765328546],[-81.298837098344,41.4275036967251],[-81.2988063661412,41.4275489015181],[-81.2987779137946,41.42759494397],[-81.2987517815413,41.4276417589761],[-81.2987280063376,41.4276892803392],[-81.2987059325096,41.4277372644348],[-81.2986862711978,41.4277858392037],[-81.2986690502072,41.4278349359638],[-81.298654293893,41.4278844852953],[-81.2986398773976,41.4279405708473],[-81.2986285796968,41.4279970599351],[-81.2986204204375,41.4280538543628],[-81.2986154138114,41.4281108554038],[-81.2973945665705,41.4280483671862],[-81.2973942952147,41.4280483535637],[-81.2973970043803,41.4273004211321]]]},"properties":{"source_county":"Geauga","jurisdiction":"South Russell Village","parcel_id":"29-108166","owner_name":"GIBNEY JOY A","property_address":"113 ASHLEIGH DR","property_city":"CHAGRIN FALLS","property_zip":"44022"}},{"type":"Feature","geometry":{"type":"Polygon","coordinates":[[[-81.2973939027997,41.4281568197326],[-81.2973942952147,41.4280483535637],[-81.2973945665705,41.4280483671862],[-81.2986154138114,41.4281108554038],[-81.2986129179075,41.4281629637791],[-81.2986130868529,41.4282151058468],[-81.2986159204036,41.4282672044391],[-81.2986214143726,41.4283191824522],[-81.2986286042118,41.4283696720497],[-81.2986383112176,41.4284199224963],[-81.2986505216689,41.4284698627325],[-81.2986652183046,41.4285194221374],[-81.2986956118424,41.4286052786438],[-81.2987336178667,41.4286893999931],[-81.2987970407556,41.4288180977528],[-81.2973907165402,41.4290366424471],[-81.2973939027997,41.4281568197326]]]},"properties":{"source_county":"Geauga","jurisdiction":"South Russell Village","parcel_id":"29-108167","owner_name":"BARSHAM KELLY J TRUSTEE","property_address":"111 ASHLEIGH DR","property_city":"CHAGRIN FALLS","property_zip":"44022"}},{"type":"Feature","geometry":{"type":"Polygon","coordinates":[[[-81.2973907165402,41.4290366424471],[-81.2987970407556,41.4288180977528],[-81.2989872417563,41.4292040468959],[-81.2990328833126,41.4293025355034],[-81.2990733634943,41.4294022941568],[-81.2991086201333,41.4295031697081],[-81.2991385990797,41.4296050072943],[-81.2973886796884,41.4295990493981],[-81.2973901998604,41.4291793171103],[-81.2973907165402,41.4290366424471]]]},"properties":{"source_county":"Geauga","jurisdiction":"South Russell Village","parcel_id":"29-108168","owner_name":"PEIRISH RONALD W & CIRRINCIONE CARLYN","property_address":"109 ASHLEIGH DR","property_city":"CHAGRIN FALLS","property_zip":"44022"}},{"type":"Feature","geometry":{"type":"Polygon","coordinates":[[[-81.2973886796884,41.4295990493981],[-81.2991385990797,41.4296050072943],[-81.2991571541811,41.4296799965744],[-81.2991728470869,41.4297553551528],[-81.2991856649041,41.4298310211636],[-81.2991955970999,41.4299069324887],[-81.2992026355103,41.4299830268079],[-81.2992067743471,41.4300592416509],[-81.2992080102022,41.4301355144482],[-81.2992063420511,41.4302117825823],[-81.2973864827298,41.4302055863172],[-81.2973867969231,41.4301189569781],[-81.2973886796884,41.4295990493981]]]},"properties":{"source_county":"Geauga","jurisdiction":"South Russell Village","parcel_id":"29-108169","owner_name":"BORNINO BETH LYNN & JEFFREY","property_address":"107 ASHLEIGH DR","property_city":"CHAGRIN FALLS","property_zip":"44022"}},{"type":"Feature","geometry":{"type":"Polygon","coordinates":[[[-81.2973864827298,41.4302055863172],[-81.2992063420511,41.4302117825823],[-81.2992016121513,41.430289870745],[-81.2991938427929,41.4303678210014],[-81.2991830406425,41.4304455663564],[-81.2991692149734,41.4305230399907],[-81.2991523776576,41.430600175318],[-81.2991325431558,41.430676906043],[-81.2991097285046,41.4307531662177],[-81.2990839533024,41.4308288902982],[-81.2973842460995,41.4308231018422],[-81.2973864827298,41.4302055863172]]]},"properties":{"source_county":"Geauga","jurisdiction":"South Russell Village","parcel_id":"29-108170","owner_name":"FLANNERY STEVEN E & LINDSAY M","property_address":"105 ASHLEIGH DR","property_city":"CHAGRIN FALLS","property_zip":"44022"}},{"type":"Feature","geometry":{"type":"Polygon","coordinates":[[[-81.2973842460995,41.4308231018422],[-81.2990839533024,41.4308288902982],[-81.2989489100396,41.4312113753109],[-81.2989260897134,41.4312854695423],[-81.2989096034762,41.4313605093367],[-81.2988995186589,41.4314361883269],[-81.2988958764573,41.4315121975348],[-81.297381741464,41.4315147316407],[-81.2973837142771,41.430969866431],[-81.2973842460995,41.4308231018422]]]},"properties":{"source_county":"Geauga","jurisdiction":"South Russell Village","parcel_id":"29-108171","owner_name":"NAVRATIL CRAIG J & PAIGE E","property_address":"103 ASHLEIGH DR","property_city":"CHAGRIN FALLS","property_zip":"44022"}},{"type":"Feature","geometry":{"type":"Polygon","coordinates":[[[-81.297381741464,41.4315147316407],[-81.2988958764573,41.4315121975348],[-81.2988687618822,41.4316478929206],[-81.2988945004372,41.4318271529828],[-81.298895262195,41.431842640065],[-81.2988931185676,41.431858053558],[-81.2988881122722,41.4318730862937],[-81.2988803430752,41.4318874386919],[-81.2988699658034,41.4319008247301],[-81.2988571872595,41.4319129776439],[-81.2988422621002,41.4319236552432],[-81.2988254877619,41.4319326447387],[-81.2988095707408,41.4320545260541],[-81.2987687139143,41.4320553029244],[-81.2973774409176,41.4326944171763],[-81.2973797589995,41.432062015458],[-81.2973807672049,41.4317837252608],[-81.297381741464,41.4315147316407]]]},"properties":{"source_county":"Geauga","jurisdiction":"South Russell Village","parcel_id":"29-108172","owner_name":"UVEGES KENNETH A & CINDY M TRUSTEES","property_address":"101 ASHLEIGH DR","property_city":"CHAGRIN FALLS","property_zip":"44022"}},{"type":"Feature","geometry":{"type":"Polygon","coordinates":[[[-81.2988991875103,41.4278254042242],[-81.2996425808024,41.428140361079],[-81.3010716668196,41.4278816995645],[-81.3012521726965,41.4278824144412],[-81.3012488379086,41.4284433445312],[-81.2988930266021,41.4285252876569],[-81.2988657628214,41.4284391167459],[-81.2988464211642,41.4283517407549],[-81.2988350928091,41.4282635717264],[-81.2988318311452,41.4281750254413],[-81.2988366515208,41.4280865194578],[-81.298849531172,41.4279984711423],[-81.2988704093304,41.4279112957015],[-81.2988991875103,41.4278254042242]]]},"properties":{"source_county":"Geauga","jurisdiction":"South Russell Village","parcel_id":"29-108173","owner_name":"ASHLEIGH HOMEOWNERS ASSOCIATION INC","property_address":" ASHLEIGH DR","property_city":"CHAGRIN FALLS","property_zip":"44022"}},{"type":"Feature","geometry":{"type":"Polygon","coordinates":[[[-81.2973774409194,41.4326944171791],[-81.2979657010464,41.4324241895208],[-81.2980421366189,41.4394713252481],[-81.2974231473243,41.4394975404374],[-81.2974024812629,41.436421764346],[-81.2973801505572,41.4330978224291],[-81.2973791687047,41.4329516464678],[-81.2973774409194,41.4326944171791]]]},"properties":{"source_county":"Geauga","jurisdiction":"South Russell Village","parcel_id":"29-012300","owner_name":"GOODRICH GLENN R & DONNA","property_address":"1649 BELL RD","property_city":"NEWBURY","property_zip":"44065"}},{"type":"Feature","geometry":{"type":"Polygon","coordinates":[[[-81.2997140499201,41.4320374004208],[-81.3002569246262,41.4320272109414],[-81.3002706440335,41.4333441502038],[-81.2994541153074,41.4333597457576],[-81.2994443560499,41.4323991911907],[-81.2997148798351,41.43211954165],[-81.2997140499201,41.4320374004208]]]},"properties":{"source_county":"Geauga","jurisdiction":"South Russell Village","parcel_id":"29-051200","owner_name":"SANDHAM ROBERT","property_address":"1625 BELL RD","property_city":"CHAGRIN FALLS","property_zip":"44022"}},{"type":"Feature","geometry":{"type":"Polygon","coordinates":[[[-81.2979657010464,41.4324241895208],[-81.2985730539082,41.4321451858967],[-81.2986491107594,41.4394456143721],[-81.2980421366189,41.4394713252481],[-81.2979657010464,41.4324241895208]]]},"properties":{"source_county":"Geauga","jurisdiction":"South Russell Village","parcel_id":"29-060100","owner_name":"GOODRICH DONNA M","property_address":"1645 BELL RD","property_city":"CHAGRIN FALLS","property_zip":"44022"}},{"type":"Feature","geometry":{"type":"Polygon","coordinates":[[[-81.2986491107594,41.4394456143721],[-81.2985730539082,41.4321451858967],[-81.298768713916,41.4320553029273],[-81.2988095707425,41.4320545260569],[-81.2991635576751,41.4320477830786],[-81.2991865057974,41.434243257836],[-81.3002334965796,41.4342232612934],[-81.3002409751619,41.434930611196],[-81.3009701354871,41.4349166850459],[-81.3010169987484,41.4393452845349],[-81.2986491107594,41.4394456143721]]]},"properties":{"source_county":"Geauga","jurisdiction":"South Russell Village","parcel_id":"29-107250","owner_name":"MUSICAL WOODS LLC","property_address":"1633 BELL RD","property_city":"CHAGRIN FALLS","property_zip":"44022"}},{"type":"Feature","geometry":{"type":"Polygon","coordinates":[[[-81.2991865057974,41.434243257836],[-81.2991635576751,41.4320477830786],[-81.2993432772732,41.4320443583836],[-81.2997140451347,41.4320374003713],[-81.2997148798351,41.43211954165],[-81.2994443560499,41.4323991911907],[-81.2994541153074,41.4333597457576],[-81.3002706440335,41.4333441502038],[-81.3002797929121,41.4342223763131],[-81.3002334965796,41.4342232612934],[-81.2991865057974,41.434243257836]]]},"properties":{"source_county":"Geauga","jurisdiction":"South Russell Village","parcel_id":"29-107858","owner_name":"LANE BRIAN & KATHLEEN A TRUSTEES","property_address":"1629 BELL RD","property_city":"CHAGRIN FALLS","property_zip":"44022"}},{"type":"Feature","geometry":{"type":"Polygon","coordinates":[[[-81.2993432772732,41.4320443583836],[-81.299340904203,41.4319605189887],[-81.2993172114579,41.4319594413108],[-81.2992940646031,41.4319554861489],[-81.2992720764966,41.4319487582235],[-81.2992518293155,41.4319394356695],[-81.299233859142,41.4319277653194],[-81.2992186417696,41.4319140561682],[-81.2992065801051,41.4318986711914],[-81.2991979935017,41.4318820177353],[-81.2991931093027,41.4318645367312],[-81.2991910637224,41.4317931834498],[-81.2991821321415,41.4317221308022],[-81.2991663618322,41.4316517546722],[-81.2991438362443,41.4315824273633],[-81.2991146745634,41.4315145156294],[-81.2991188730415,41.431436583997],[-81.2991309277253,41.4313591177576],[-81.301231456088,41.4313662351267],[-81.3012276340409,41.4320089833612],[-81.2993432772732,41.4320443583836]]]},"properties":{"source_county":"Geauga","jurisdiction":"South Russell Village","parcel_id":"29-108155","owner_name":"WYLER DANIEL J & LICINA LAUREN K","property_address":"100 ASHLEIGH DR","property_city":"CHAGRIN FALLS","property_zip":"44022"}},{"type":"Feature","geometry":{"type":"Polygon","coordinates":[[[-81.2993250511595,41.4307834207886],[-81.3012348836664,41.4307898904931],[-81.301231456088,41.4313662351267],[-81.2991309277253,41.4313591177576],[-81.2991438110774,41.431306099248],[-81.2991603780253,41.4312536633979],[-81.2993132697582,41.4308196661444],[-81.2993250511595,41.4307834207886]]]},"properties":{"source_county":"Geauga","jurisdiction":"South Russell Village","parcel_id":"29-108156","owner_name":"COLEMAN MYRA R & WILLIAM E JR","property_address":"102 ASHLEIGH DR","property_city":"CHAGRIN FALLS","property_zip":"44022"}},{"type":"Feature","geometry":{"type":"Polygon","coordinates":[[[-81.299426230509,41.4301799628753],[-81.301238473816,41.4301861014556],[-81.3012357182351,41.4306495975213],[-81.3012348836664,41.4307898904931],[-81.2993250511595,41.4307834207886],[-81.2993590866645,41.4306642679096],[-81.2993862664075,41.4305441216904],[-81.2994065399073,41.4304232054461],[-81.2994198695201,41.4303017439218],[-81.299426230509,41.4301799628753]]]},"properties":{"source_county":"Geauga","jurisdiction":"South Russell Village","parcel_id":"29-108157","owner_name":"SCHRON MATTHEW","property_address":"104 ASHLEIGH DR","property_city":"CHAGRIN FALLS","property_zip":"44022"}},{"type":"Feature","geometry":{"type":"Polygon","coordinates":[[[-81.2993540036973,41.4295759157696],[-81.3012420651123,41.4295823114261],[-81.301238473816,41.4301861014556],[-81.299426230509,41.4301799628753],[-81.2994256225618,41.4300584416451],[-81.299418075528,41.429937052362],[-81.2994036033929,41.4298160193545],[-81.2993822329393,41.4296955662917],[-81.2993540036973,41.4295759157696]]]},"properties":{"source_county":"Geauga","jurisdiction":"South Russell Village","parcel_id":"29-108158","owner_name":"WILSON JOHN M JR TOD & JEANINE M TOD","property_address":"106 ASHLEIGH DR","property_city":"CHAGRIN FALLS","property_zip":"44022"}},{"type":"Feature","geometry":{"type":"Polygon","coordinates":[[[-81.2991406971591,41.4290419005027],[-81.301245573219,41.4289922443339],[-81.3012420651123,41.4295823114261],[-81.2993540036973,41.4295759157696],[-81.299322077201,41.4294669140994],[-81.2992844579532,41.4293589459952],[-81.2992412046349,41.4292521797933],[-81.2991923847107,41.4291467819549],[-81.2991406971591,41.4290419005027]]]},"properties":{"source_county":"Geauga","jurisdiction":"South Russell Village","parcel_id":"29-108159","owner_name":"CURREY BARBARA TOD","property_address":"108 ASHLEIGH DR","property_city":"CHAGRIN FALLS","property_zip":"44022"}},{"type":"Feature","geometry":{"type":"Polygon","coordinates":[[[-81.2988930266037,41.4285252876597],[-81.3012488379103,41.428443344534],[-81.301245573219,41.4289922443339],[-81.2991406971591,41.4290419005027],[-81.2989387594175,41.4286321363931],[-81.2989143484972,41.4285790864832],[-81.2988930266037,41.4285252876597]]]},"properties":{"source_county":"Geauga","jurisdiction":"South Russell Village","parcel_id":"29-108160","owner_name":"GILE TREVOR A & COURTNEY A","property_address":"110 ASHLEIGH DR","property_city":"CHAGRIN FALLS","property_zip":"44022"}},{"type":"Feature","geometry":{"type":"Polygon","coordinates":[[[-81.2995899530844,41.4271128162584],[-81.299934880961,41.4269384150436],[-81.301073299865,41.4276072500441],[-81.3010716668212,41.4278816995673],[-81.299642580804,41.4281403610818],[-81.298899187512,41.4278254042271],[-81.2989363806044,41.4277398618933],[-81.2989814088261,41.4276564798178],[-81.2990340529226,41.4275756639562],[-81.2990940565631,41.4274978077686],[-81.2991611275896,41.4274232903045],[-81.2992349394388,41.4273524743572],[-81.299315132733,41.4272857046978],[-81.2994013170297,41.4272233063968],[-81.2994930727226,41.4271655832417],[-81.2995899530844,41.4271128162584]]]},"properties":{"source_county":"Geauga","jurisdiction":"South Russell Village","parcel_id":"29-108161","owner_name":"WARD RYAN D & ANDREA D","property_address":"116 ASHLEIGH DR","property_city":"CHAGRIN FALLS","property_zip":"44022"}},{"type":"Feature","geometry":{"type":"Polygon","coordinates":[[[-81.2974104744012,41.4251344886716],[-81.2996459621166,41.4251184236151],[-81.2996460571821,41.4251187208709],[-81.3000981991952,41.4265233929452],[-81.3000582225933,41.4265334431707],[-81.3000207725321,41.4265479972843],[-81.299986738497,41.4265667096085],[-81.2999569288408,41.4265891357027],[-81.2999320515839,41.4266147429198],[-81.2999126975984,41.4266429230562],[-81.2974043831653,41.4253981913443],[-81.2974038934797,41.4253979485246],[-81.297404453317,41.4252433152517],[-81.2974044543067,41.4252432612308],[-81.2974046185975,41.4251979199552],[-81.2974048482864,41.4251345770629],[-81.2974048479644,41.4251345293321],[-81.2974057741349,41.4251345227354],[-81.2974104744012,41.4251344886716]]]},"properties":{"source_county":"Geauga","jurisdiction":"South Russell Village","parcel_id":"29-108164","owner_name":"MISTHOS MARIA TOD","property_address":"117 ASHLEIGH DR","property_city":"CHAGRIN FALLS","property_zip":"44022"}},{"type":"Feature","geometry":{"type":"Polygon","coordinates":[[[-81.2973997869773,41.426531955659],[-81.2974038934797,41.4253979485246],[-81.2974043831653,41.4253981913443],[-81.2999126975984,41.4266429230562],[-81.2998997137502,41.4266718569604],[-81.2998925603131,41.4267019182263],[-81.2998866887688,41.4267250420039],[-81.2998756522357,41.4267470701466],[-81.2998597755345,41.4267673543256],[-81.2998395259421,41.4267852975394],[-81.2998154994393,41.426800371685],[-81.2994394186741,41.4269908293151],[-81.2993666873611,41.4270306666088],[-81.2992966999673,41.4270731971489],[-81.2992296323783,41.4271183140553],[-81.2991649741986,41.4271653816802],[-81.29910353176,41.4272148293278],[-81.2990454595259,41.4272665326948],[-81.2990244235374,41.4272863782328],[-81.2989638511199,41.4273473896327],[-81.2989078763788,41.4274108398535],[-81.2988566722689,41.4274765328575],[-81.2974017929429,41.4268675127749],[-81.297398576351,41.4268661664332],[-81.2973997869773,41.426531955659]]]},"properties":{"source_county":"Geauga","jurisdiction":"South Russell Village","parcel_id":"29-108165","owner_name":"LU GHAI & POKRAE","property_address":"115 ASHLEIGH DR","property_city":"CHAGRIN FALLS","property_zip":"44022"}},{"type":"Feature","geometry":{"type":"Polygon","coordinates":[[[-81.2973970043819,41.427300421135],[-81.297398576351,41.4268661664332],[-81.2974017929429,41.4268675127749],[-81.2988566722689,41.4274765328575],[-81.2988370983456,41.427503696728],[-81.298796626656,41.4275641591233],[-81.2987602321566,41.4276260722023],[-81.2987280063393,41.427689280342],[-81.2986991092397,41.4277533937723],[-81.2986745178175,41.427818516652],[-81.2986542938947,41.4278844852981],[-81.2986357638842,41.4279593605451],[-81.298622790488,41.4280348950483],[-81.2986154138131,41.4281108554067],[-81.2973945665722,41.428048367189],[-81.2973942952163,41.4280483535665],[-81.2973970043819,41.427300421135]]]},"properties":{"source_county":"Geauga","jurisdiction":"South Russell Village","parcel_id":"29-108166","owner_name":"GIBNEY JOY A","property_address":"113 ASHLEIGH DR","property_city":"CHAGRIN FALLS","property_zip":"44022"}},{"type":"Feature","geometry":{"type":"Polygon","coordinates":[[[-81.2973939028014,41.4281568197355],[-81.2973942952163,41.4280483535665],[-81.2973945665722,41.428048367189],[-81.2986154138131,41.4281108554067],[-81.2986126780609,41.4281803445384],[-81.2986146799985,41.4282498478372],[-81.2986214143743,41.428319182455],[-81.2986315608014,41.4283864522907],[-81.2986461743524,41.4284532548272],[-81.2986652183063,41.4285194221402],[-81.2986956118441,41.4286052786466],[-81.2987336178684,41.4286893999959],[-81.2987970407573,41.4288180977556],[-81.2973907165419,41.4290366424499],[-81.2973939028014,41.4281568197355]]]},"properties":{"source_county":"Geauga","jurisdiction":"South Russell Village","parcel_id":"29-108167","owner_name":"BARSHAM KELLY J TRUSTEE","property_address":"111 ASHLEIGH DR","property_city":"CHAGRIN FALLS","property_zip":"44022"}},{"type":"Feature","geometry":{"type":"Polygon","coordinates":[[[-81.2973907165419,41.4290366424499],[-81.2987970407573,41.4288180977556],[-81.298987241758,41.4292040468987],[-81.2990328833143,41.4293025355062],[-81.299073363496,41.4294022941596],[-81.299108620135,41.4295031697109],[-81.2991385990814,41.4296050072971],[-81.29738867969,41.429599049401],[-81.2973901998621,41.4291793171132],[-81.2973907165419,41.4290366424499]]]},"properties":{"source_county":"Geauga","jurisdiction":"South Russell Village","parcel_id":"29-108168","owner_name":"PEIRISH RONALD W & CIRRINCIONE CARLYN","property_address":"109 ASHLEIGH DR","property_city":"CHAGRIN FALLS","property_zip":"44022"}},{"type":"Feature","geometry":{"type":"Polygon","coordinates":[[[-81.29738867969,41.429599049401],[-81.2991385990814,41.4296050072971],[-81.2991669142677,41.4297251713617],[-81.2991878824901,41.429846185798],[-81.2992014596449,41.4299677963042],[-81.2992076171594,41.4300897473242],[-81.2992063420527,41.4302117825851],[-81.2973864827315,41.4302055863201],[-81.2973867969247,41.4301189569809],[-81.29738867969,41.429599049401]]]},"properties":{"source_county":"Geauga","jurisdiction":"South Russell Village","parcel_id":"29-108169","owner_name":"BORNINO BETH LYNN & JEFFREY","property_address":"107 ASHLEIGH DR","property_city":"CHAGRIN FALLS","property_zip":"44022"}},{"type":"Feature","geometry":{"type":"Polygon","coordinates":[[[-81.2973864827315,41.4302055863201],[-81.2992063420527,41.4302117825851],[-81.2991973149048,41.4303366617414],[-81.2991805170493,41.4304610849583],[-81.2991559853972,41.4305847785067],[-81.2991237738746,41.4307074702619],[-81.2990839533041,41.430828890301],[-81.2973842461012,41.430823101845],[-81.2973864827315,41.4302055863201]]]},"properties":{"source_county":"Geauga","jurisdiction":"South Russell Village","parcel_id":"29-108170","owner_name":"FLANNERY STEVEN E & LINDSAY M","property_address":"105 ASHLEIGH DR","property_city":"CHAGRIN FALLS","property_zip":"44022"}},{"type":"Feature","geometry":{"type":"Polygon","coordinates":[[[-81.2973842461012,41.430823101845],[-81.2990839533041,41.430828890301],[-81.2989489100413,41.4312113753137],[-81.2989260897151,41.4312854695451],[-81.298909603478,41.4313605093396],[-81.2988995186606,41.4314361883297],[-81.298895876459,41.4315121975376],[-81.2973817414657,41.4315147316436],[-81.2973837142788,41.4309698664338],[-81.2973842461012,41.430823101845]]]},"properties":{"source_county":"Geauga","jurisdiction":"South Russell Village","parcel_id":"29-108171","owner_name":"NAVRATIL CRAIG J & PAIGE E","property_address":"103 ASHLEIGH DR","property_city":"CHAGRIN FALLS","property_zip":"44022"}},{"type":"Feature","geometry":{"type":"Polygon","coordinates":[[[-81.2973817414657,41.4315147316436],[-81.298895876459,41.4315121975376],[-81.2988687618839,41.4316478929235],[-81.2988945004389,41.4318271529856],[-81.2988951334742,41.4318448537096],[-81.2988919770017,41.4318624007763],[-81.2988851131368,41.4318793376842],[-81.2988747204459,41.4318952238053],[-81.2988610693015,41.4319096458483],[-81.2988445148482,41.431922228611],[-81.2988254877636,41.4319326447415],[-81.2988095707425,41.4320545260569],[-81.298768713916,41.4320553029273],[-81.2973774409194,41.4326944171791],[-81.2973797590012,41.4320620154608],[-81.2973807672066,41.4317837252636],[-81.2973817414657,41.4315147316436]]]},"properties":{"source_county":"Geauga","jurisdiction":"South Russell Village","parcel_id":"29-108172","owner_name":"UVEGES KENNETH A & CINDY M TRUSTEES","property_address":"101 ASHLEIGH DR","property_city":"CHAGRIN FALLS","property_zip":"44022"}},{"type":"Feature","geometry":{"type":"Polygon","coordinates":[[[-81.298899187512,41.4278254042271],[-81.299642580804,41.4281403610818],[-81.3010716668212,41.4278816995673],[-81.3012521726982,41.427882414444],[-81.3012488379103,41.428443344534],[-81.2988930266037,41.4285252876597],[-81.298865762823,41.4284391167487],[-81.2988464211659,41.4283517407577],[-81.2988350928108,41.4282635717292],[-81.2988318311469,41.4281750254441],[-81.2988366515225,41.4280865194607],[-81.2988495311737,41.4279984711452],[-81.2988704093321,41.4279112957044],[-81.298899187512,41.4278254042271]]]},"properties":{"source_county":"Geauga","jurisdiction":"South Russell Village","parcel_id":"29-108173","owner_name":"ASHLEIGH HOMEOWNERS ASSOCIATION INC","property_address":" ASHLEIGH DR","property_city":"CHAGRIN FALLS","property_zip":"44022"}}]}