{"type":"FeatureCollection","features":[{"type":"Feature","geometry":{"type":"Polygon","coordinates":[[[-81.3228380867282,41.3491757086305],[-81.3243303251728,41.3491594350741],[-81.3243398703526,41.3496561535156],[-81.322847382776,41.3496724292763],[-81.3228380867282,41.3491757086305]]]},"properties":{"source_county":"Geauga","jurisdiction":"Bainbridge Township","parcel_id":"02-004400","owner_name":"STONE PAUL W JR & JOAN I TRUSTEES","property_address":"19120 HASKINS RD","property_city":"CHAGRIN FALLS","property_zip":"44023"}},{"type":"Feature","geometry":{"type":"Polygon","coordinates":[[[-81.3228380867282,41.3491757086305],[-81.322826939521,41.3485801920957],[-81.3237653728592,41.3485699579537],[-81.3245304782284,41.3485616084252],[-81.3245255606037,41.3488356029378],[-81.3243240624841,41.3488335498569],[-81.3243303251728,41.3491594350741],[-81.3228380867282,41.3491757086305]]]},"properties":{"source_county":"Geauga","jurisdiction":"Bainbridge Township","parcel_id":"02-026900","owner_name":"SALA ADRIAN","property_address":"19130 HASKINS RD","property_city":"CHAGRIN FALLS","property_zip":"44023"}},{"type":"Feature","geometry":{"type":"Polygon","coordinates":[[[-81.3246422924876,41.3502292771171],[-81.3246343807211,41.3498176326794],[-81.3228504648237,41.3498370873974],[-81.322847382776,41.3496724292763],[-81.3243398703526,41.3496561535156],[-81.3243303251728,41.3491594350741],[-81.3243240624841,41.3488335498569],[-81.3245255606037,41.3488356029378],[-81.3250718403211,41.3488411654805],[-81.3256181201148,41.3488467263451],[-81.3261644000171,41.348852283731],[-81.3261488420148,41.3510867199027],[-81.3259480411015,41.35108666247],[-81.3247960117918,41.3510863304651],[-81.3246587632078,41.3510862902321],[-81.3246502031422,41.3506409223984],[-81.3246422924876,41.3502292771171]]]},"properties":{"source_county":"Geauga","jurisdiction":"Bainbridge Township","parcel_id":"02-027000","owner_name":"BENJAMIN DIANE TOD","property_address":"19118 HASKINS RD","property_city":"CHAGRIN FALLS","property_zip":"44023"}},{"type":"Feature","geometry":{"type":"Polygon","coordinates":[[[-81.3171848484129,41.3475035546549],[-81.3177303991987,41.3475084997364],[-81.3177191508787,41.3483235977216],[-81.3177139235846,41.3487024384715],[-81.3171681069933,41.3486973691261],[-81.3171848484129,41.3475035546549]]]},"properties":{"source_county":"Geauga","jurisdiction":"Bainbridge Township","parcel_id":"02-073220","owner_name":"KRUPSA ADAM & FALYN NICOLE","property_address":"9110 CRACKEL RD","property_city":"CHAGRIN FALLS","property_zip":"44023"}},{"type":"Feature","geometry":{"type":"Polygon","coordinates":[[[-81.3090467619302,41.3501463025627],[-81.3090498526296,41.3494601487735],[-81.3090504705586,41.3493229160177],[-81.3090590119988,41.3474266799283],[-81.309059014232,41.347426226981],[-81.3124076178419,41.3474591749913],[-81.3124721589523,41.3495892712816],[-81.3138142886322,41.3495821948424],[-81.3138564681748,41.3511136679436],[-81.309042590413,41.3510724443855],[-81.309042688258,41.3510508235119],[-81.3090430594594,41.3509684867793],[-81.3090467619302,41.3501463025627]]]},"properties":{"source_county":"Geauga","jurisdiction":"Bainbridge Township","parcel_id":"02-104050","owner_name":"EDWARDS CRYSTAL BROOK HOLDINGS LLC","property_address":" SNYDER RD","property_city":"CHAGRIN FALLS","property_zip":"44023"}},{"type":"Feature","geometry":{"type":"Polygon","coordinates":[[[-81.3177191508787,41.3483235977216],[-81.3182686019614,41.3483276101627],[-81.3182642197497,41.3487075473811],[-81.3177139235846,41.3487024384715],[-81.3177191508787,41.3483235977216]]]},"properties":{"source_county":"Geauga","jurisdiction":"Bainbridge Township","parcel_id":"02-120900","owner_name":"LEIBITZKE DAVID","property_address":" CRACKEL RD","property_city":"CHAGRIN FALLS","property_zip":"44023"}},{"type":"Feature","geometry":{"type":"Polygon","coordinates":[[[-81.3182780033628,41.3475124987387],[-81.318825643454,41.3475164946155],[-81.3188070135201,41.3487125843057],[-81.3182642197497,41.3487075473811],[-81.3182686019614,41.3483276101627],[-81.3182780033628,41.3475124987387]]]},"properties":{"source_county":"Geauga","jurisdiction":"Bainbridge Township","parcel_id":"02-121000","owner_name":"LEIBITZKE DAVID","property_address":"9070 CRACKEL RD","property_city":"CHAGRIN FALLS","property_zip":"44023"}},{"type":"Feature","geometry":{"type":"Polygon","coordinates":[[[-81.3177303991987,41.3475084997364],[-81.3182780033628,41.3475124987387],[-81.3182686019614,41.3483276101627],[-81.3177191508787,41.3483235977216],[-81.3177303991987,41.3475084997364]]]},"properties":{"source_county":"Geauga","jurisdiction":"Bainbridge Township","parcel_id":"02-121100","owner_name":"LEIBITZKE DAVID","property_address":" CRACKEL RD","property_city":"CHAGRIN FALLS","property_zip":"44023"}},{"type":"Feature","geometry":{"type":"Polygon","coordinates":[[[-81.3002007920777,41.3473473263073],[-81.3010049104951,41.3473547532682],[-81.3009813567457,41.3500620375339],[-81.3001772052223,41.3500546095142],[-81.3002007920777,41.3473473263073]]]},"properties":{"source_county":"Geauga","jurisdiction":"Bainbridge Township","parcel_id":"02-121640","owner_name":"FRANKO JUNE E TOD","property_address":"9580 CRACKEL RD","property_city":"AURORA","property_zip":"44202"}},{"type":"Feature","geometry":{"type":"Polygon","coordinates":[[[-81.3155479062097,41.3474887010093],[-81.3160937470877,41.3474936567771],[-81.3160756376816,41.348687214157],[-81.3155292753055,41.3486821314969],[-81.3155479062097,41.3474887010093]]]},"properties":{"source_county":"Geauga","jurisdiction":"Bainbridge Township","parcel_id":"02-124810","owner_name":"MARTIN CYNTHIA P","property_address":"9142 CRACKEL RD","property_city":"CHAGRIN FALLS","property_zip":"44023"}},{"type":"Feature","geometry":{"type":"Polygon","coordinates":[[[-81.3124076178419,41.3474591749913],[-81.3137561859996,41.3474724170067],[-81.3138142886322,41.3495821948424],[-81.3124721589523,41.3495892712816],[-81.3124076178419,41.3474591749913]]]},"properties":{"source_county":"Geauga","jurisdiction":"Bainbridge Township","parcel_id":"02-138400","owner_name":"BOBNAR KERRI L","property_address":"9210 CRACKEL RD","property_city":"CHAGRIN FALLS","property_zip":"44023"}},{"type":"Feature","geometry":{"type":"Polygon","coordinates":[[[-81.3018090290777,41.3473621755424],[-81.3026131478419,41.3473695922298],[-81.3025896603376,41.3500768768119],[-81.3017855084508,41.3500694599665],[-81.3018090290777,41.3473621755424]]]},"properties":{"source_county":"Geauga","jurisdiction":"Bainbridge Township","parcel_id":"02-197300","owner_name":"FOGEL STEPHEN E & FORTE JACLYN M","property_address":"9530 CRACKEL RD","property_city":"AURORA","property_zip":"44202"}},{"type":"Feature","geometry":{"type":"Polygon","coordinates":[[[-81.3197389900467,41.3475231537022],[-81.3203175691527,41.347527368892],[-81.3203853147628,41.3511076520482],[-81.3197363751564,41.3511133544277],[-81.3168195586299,41.3511389424151],[-81.3168357088759,41.3486942802474],[-81.3171681069933,41.3486973691261],[-81.3177139235846,41.3487024384715],[-81.3182642197497,41.3487075473811],[-81.3188070135201,41.3487125843057],[-81.318825643454,41.3475164946155],[-81.3197389900467,41.3475231537022]]]},"properties":{"source_county":"Geauga","jurisdiction":"Bainbridge Township","parcel_id":"02-199200","owner_name":"WELSH LAUREN J & BAYUS JAMES T","property_address":"9050 CRACKEL RD","property_city":"CHAGRIN FALLS","property_zip":"44023"}},{"type":"Feature","geometry":{"type":"Polygon","coordinates":[[[-81.3160937470877,41.3474936567771],[-81.3166392977092,41.3474986070018],[-81.3166218902177,41.3486922931138],[-81.3160756376816,41.348687214157],[-81.3160937470877,41.3474936567771]]]},"properties":{"source_county":"Geauga","jurisdiction":"Bainbridge Township","parcel_id":"02-227400","owner_name":"STERNEN HALLIE R TOD & IACAMPO JAMES A TOD","property_address":"9134 CRACKEL RD","property_city":"CHAGRIN FALLS","property_zip":"44023"}},{"type":"Feature","geometry":{"type":"Polygon","coordinates":[[[-81.303413460001,41.3473766433779],[-81.3055486509606,41.3473954290559],[-81.3055310965027,41.3494292857965],[-81.3055251732371,41.3501155349153],[-81.3033898936617,41.3500968280615],[-81.303413460001,41.3473766433779]]]},"properties":{"source_county":"Geauga","jurisdiction":"Bainbridge Township","parcel_id":"02-232900","owner_name":"PETERS JOSEPH S TRUSTEE","property_address":"9470 CRACKEL RD","property_city":"AURORA","property_zip":"44202"}},{"type":"Feature","geometry":{"type":"Polygon","coordinates":[[[-81.3010049104951,41.3473547532682],[-81.3018090290777,41.3473621755424],[-81.3017855084508,41.3500694599665],[-81.3009813567457,41.3500620375339],[-81.3010049104951,41.3473547532682]]]},"properties":{"source_county":"Geauga","jurisdiction":"Bainbridge Township","parcel_id":"02-272750","owner_name":"KANAGARAJ RACHEL ANN & PRAEM","property_address":"9544 CRACKEL RD","property_city":"AURORA","property_zip":"44202"}},{"type":"Feature","geometry":{"type":"Polygon","coordinates":[[[-81.3228075734423,41.3475454746406],[-81.3237836602654,41.3475530821783],[-81.3237836375115,41.3475543535027],[-81.3237653728592,41.3485699579537],[-81.322826939521,41.3485801920957],[-81.3228075734423,41.3475454746406]]]},"properties":{"source_county":"Geauga","jurisdiction":"Bainbridge Township","parcel_id":"02-274900","owner_name":"PAYNTHER JEWEL WINN TRUSTEE & JEWEL W","property_address":"8930 CRACKEL RD","property_city":"CHAGRIN FALLS","property_zip":"44023"}},{"type":"Feature","geometry":{"type":"Polygon","coordinates":[[[-81.3245484704659,41.3475590364502],[-81.3250947630275,41.3475632870452],[-81.3250947093126,41.3475662915853],[-81.3250718403211,41.3488411654805],[-81.3245255606037,41.3488356029378],[-81.3245304782284,41.3485616084252],[-81.3245484298993,41.3475613044861],[-81.3245484704659,41.3475590364502]]]},"properties":{"source_county":"Geauga","jurisdiction":"Bainbridge Township","parcel_id":"02-356840","owner_name":"THOMAS VALERIE KAY TOD","property_address":"8896 CRACKEL RD","property_city":"CHAGRIN FALLS","property_zip":"44023"}},{"type":"Feature","geometry":{"type":"Polygon","coordinates":[[[-81.3026131478419,41.3473695922298],[-81.303413460001,41.3473766433779],[-81.3033898936617,41.3500968280615],[-81.302589559836,41.3500898038899],[-81.3025896603376,41.3500768768119],[-81.3026131478419,41.3473695922298]]]},"properties":{"source_county":"Geauga","jurisdiction":"Bainbridge Township","parcel_id":"02-362800","owner_name":"BROSKI JARED E & SCHWED NICHOLE L","property_address":"9510 CRACKEL RD","property_city":"AURORA","property_zip":"44202"}},{"type":"Feature","geometry":{"type":"Polygon","coordinates":[[[-81.3085878003938,41.3474220990802],[-81.309059014232,41.347426226981],[-81.3090590119988,41.3474266799283],[-81.3090504705586,41.3493229160177],[-81.3078902786,41.3493127488102],[-81.3079112044224,41.347416168144],[-81.3085878003938,41.3474220990802]]]},"properties":{"source_county":"Geauga","jurisdiction":"Bainbridge Township","parcel_id":"02-363700","owner_name":"HENDERSON CARLES R TOD & MARILYN A TOD","property_address":"19139 SNYDER RD","property_city":"CHAGRIN FALLS","property_zip":"44023"}},{"type":"Feature","geometry":{"type":"Polygon","coordinates":[[[-81.3066497288318,41.3494391084443],[-81.3090498526296,41.3494601487735],[-81.3090467619302,41.3501463025627],[-81.3055251732371,41.3501155349153],[-81.3055310965027,41.3494292857965],[-81.3066497288318,41.3494391084443]]]},"properties":{"source_county":"Geauga","jurisdiction":"Bainbridge Township","parcel_id":"02-363710","owner_name":"KOWALSKI RICHARD","property_address":"19095 SNYDER RD","property_city":"AURORA","property_zip":"44202"}},{"type":"Feature","geometry":{"type":"Polygon","coordinates":[[[-81.3228504648237,41.3498370873974],[-81.3246343807211,41.3498176326794],[-81.3246422924876,41.3502292771171],[-81.3228581705758,41.3502487344757],[-81.3228504648237,41.3498370873974]]]},"properties":{"source_county":"Geauga","jurisdiction":"Bainbridge Township","parcel_id":"02-382300","owner_name":"BASEL CRYSTAL L","property_address":"19108 HASKINS RD","property_city":"CHAGRIN FALLS","property_zip":"44023"}},{"type":"Feature","geometry":{"type":"Polygon","coordinates":[[[-81.3237836602654,41.3475530821783],[-81.3245484704659,41.3475590364502],[-81.3245484298993,41.3475613044861],[-81.3245304782284,41.3485616084252],[-81.3237653728592,41.3485699579537],[-81.3237836375115,41.3475543535027],[-81.3237836602654,41.3475530821783]]]},"properties":{"source_county":"Geauga","jurisdiction":"Bainbridge Township","parcel_id":"02-409900","owner_name":"WINN ROBERT W JR & KAREN A","property_address":"8910 CRACKEL RD","property_city":"CHAGRIN FALLS","property_zip":"44023"}},{"type":"Feature","geometry":{"type":"Polygon","coordinates":[[[-81.3166392977092,41.3474986070018],[-81.3171848484129,41.3475035546549],[-81.3171681069933,41.3486973691261],[-81.3168357088759,41.3486942802474],[-81.3166218902177,41.3486922931138],[-81.3166392977092,41.3474986070018]]]},"properties":{"source_county":"Geauga","jurisdiction":"Bainbridge Township","parcel_id":"02-419400","owner_name":"BIRO JAMES J & BLEYL SHARON M CO TRUSTEES","property_address":"9120 CRACKEL RD","property_city":"CHAGRIN FALLS","property_zip":"44023"}},{"type":"Feature","geometry":{"type":"Polygon","coordinates":[[[-81.3055486509606,41.3473954290559],[-81.3066672510154,41.3474052542651],[-81.3066497288318,41.3494391084443],[-81.3055310965027,41.3494292857965],[-81.3055486509606,41.3473954290559]]]},"properties":{"source_county":"Geauga","jurisdiction":"Bainbridge Township","parcel_id":"02-420065","owner_name":"ZONARAS JOHN & KARA","property_address":"9420 CRACKEL RD","property_city":"AURORA","property_zip":"44202"}},{"type":"Feature","geometry":{"type":"Polygon","coordinates":[[[-81.3066497288318,41.3494391084443],[-81.3066672510154,41.3474052542651],[-81.3079112044224,41.347416168144],[-81.3078902786,41.3493127488102],[-81.3090504705586,41.3493229160177],[-81.3090498526296,41.3494601487735],[-81.3066497288318,41.3494391084443]]]},"properties":{"source_county":"Geauga","jurisdiction":"Bainbridge Township","parcel_id":"02-420066","owner_name":"LINTON THOMAS A & ADELAIDE WOLF","property_address":"19105 SNYDER RD","property_city":"AURORA","property_zip":"44202"}},{"type":"Feature","geometry":{"type":"Polygon","coordinates":[[[-81.3225938188642,41.3475439224065],[-81.3228075734423,41.3475454746406],[-81.322826939521,41.3485801920957],[-81.3228380867282,41.3491757086305],[-81.322847382776,41.3496724292763],[-81.3228504648237,41.3498370873974],[-81.3228581705758,41.3502487344757],[-81.3228658752294,41.3506603814973],[-81.3228738373278,41.3510857498346],[-81.3203853147628,41.3511076520482],[-81.3203175691527,41.347527368892],[-81.3220860787349,41.3475402343127],[-81.3225938188642,41.3475439224065]]]},"properties":{"source_county":"Geauga","jurisdiction":"Bainbridge Township","parcel_id":"02-421299","owner_name":"BARRETT PAIN ASSOCIATES LLC","property_address":" HASKINS RD","property_city":"CHAGRIN FALLS","property_zip":"44023"}},{"type":"Feature","geometry":{"type":"Polygon","coordinates":[[[-81.3138142886322,41.3495821948424],[-81.3137561859996,41.3474724170067],[-81.3155479062097,41.3474887010093],[-81.3155292753055,41.3486821314969],[-81.3160756376816,41.348687214157],[-81.3166218902177,41.3486922931138],[-81.3168357088759,41.3486942802474],[-81.3168195586299,41.3511389424151],[-81.3138564681748,41.3511136679436],[-81.3138142886322,41.3495821948424]]]},"properties":{"source_county":"Geauga","jurisdiction":"Bainbridge Township","parcel_id":"02-421301","owner_name":"EDWARDS CRYSTAL BROOK HOLDING LLC","property_address":" CRACKEL RD","property_city":"CHAGRIN FALLS","property_zip":"44023"}},{"type":"Feature","geometry":{"type":"Polygon","coordinates":[[[-81.3228380867298,41.3491757086333],[-81.3243303251745,41.349159435077],[-81.3243398703543,41.3496561535184],[-81.3228473827777,41.3496724292791],[-81.3228380867298,41.3491757086333]]]},"properties":{"source_county":"Geauga","jurisdiction":"Bainbridge Township","parcel_id":"02-004400","owner_name":"SZARKA MARC A","property_address":"19120 HASKINS RD","property_city":"CHAGRIN FALLS","property_zip":"44023"}},{"type":"Feature","geometry":{"type":"Polygon","coordinates":[[[-81.3228380867298,41.3491757086333],[-81.3228269395227,41.3485801920986],[-81.3237653728608,41.3485699579566],[-81.3245304782301,41.348561608428],[-81.3245255606053,41.3488356029406],[-81.3243240624857,41.3488335498597],[-81.3243303251745,41.349159435077],[-81.3228380867298,41.3491757086333]]]},"properties":{"source_county":"Geauga","jurisdiction":"Bainbridge Township","parcel_id":"02-026900","owner_name":"SALA ADRIAN","property_address":"19130 HASKINS RD","property_city":"CHAGRIN FALLS","property_zip":"44023"}},{"type":"Feature","geometry":{"type":"Polygon","coordinates":[[[-81.3246422924893,41.35022927712],[-81.3246343807228,41.3498176326822],[-81.3228504648254,41.3498370874002],[-81.3228473827777,41.3496724292791],[-81.3243398703543,41.3496561535184],[-81.3243303251745,41.349159435077],[-81.3243240624857,41.3488335498597],[-81.3245255606053,41.3488356029406],[-81.3250718403227,41.3488411654834],[-81.3256181201165,41.348846726348],[-81.3261644000188,41.3488522837338],[-81.3261488420164,41.3510867199056],[-81.3259480411032,41.3510866624728],[-81.3247960117935,41.3510863304679],[-81.3246587632095,41.351086290235],[-81.3246502031439,41.3506409224012],[-81.3246422924893,41.35022927712]]]},"properties":{"source_county":"Geauga","jurisdiction":"Bainbridge Township","parcel_id":"02-027000","owner_name":"BENJAMIN DIANE TOD","property_address":"19118 HASKINS RD","property_city":"CHAGRIN FALLS","property_zip":"44023"}},{"type":"Feature","geometry":{"type":"Polygon","coordinates":[[[-81.3171848484146,41.3475035546577],[-81.3177303992004,41.3475084997392],[-81.3177191508804,41.3483235977244],[-81.3177139235863,41.3487024384743],[-81.317168106995,41.3486973691289],[-81.3171848484146,41.3475035546577]]]},"properties":{"source_county":"Geauga","jurisdiction":"Bainbridge Township","parcel_id":"02-073220","owner_name":"KRUPSA ADAM & FALYN NICOLE","property_address":"9110 CRACKEL RD","property_city":"CHAGRIN FALLS","property_zip":"44023"}},{"type":"Feature","geometry":{"type":"Polygon","coordinates":[[[-81.3090467619319,41.3501463025655],[-81.3090498526313,41.3494601487763],[-81.3090504705603,41.3493229160205],[-81.3090590120005,41.3474266799311],[-81.3090590142336,41.3474262269838],[-81.3124076178436,41.3474591749941],[-81.312472158954,41.3495892712844],[-81.3138142886339,41.3495821948452],[-81.3138564681765,41.3511136679464],[-81.3090425904146,41.3510724443884],[-81.3090426882597,41.3510508235148],[-81.3090430594611,41.3509684867821],[-81.3090467619319,41.3501463025655]]]},"properties":{"source_county":"Geauga","jurisdiction":"Bainbridge Township","parcel_id":"02-104050","owner_name":"EDWARDS CRYSTAL BROOK HOLDINGS LLC","property_address":" SNYDER RD","property_city":"CHAGRIN FALLS","property_zip":"44023"}},{"type":"Feature","geometry":{"type":"Polygon","coordinates":[[[-81.3177191508804,41.3483235977244],[-81.318268601963,41.3483276101656],[-81.3182642197514,41.3487075473839],[-81.3177139235863,41.3487024384743],[-81.3177191508804,41.3483235977244]]]},"properties":{"source_county":"Geauga","jurisdiction":"Bainbridge Township","parcel_id":"02-120900","owner_name":"LEIBITZKE DAVID","property_address":" CRACKEL RD","property_city":"CHAGRIN FALLS","property_zip":"44023"}},{"type":"Feature","geometry":{"type":"Polygon","coordinates":[[[-81.3182780033645,41.3475124987415],[-81.3188256434557,41.3475164946184],[-81.3188070135218,41.3487125843085],[-81.3182642197514,41.3487075473839],[-81.318268601963,41.3483276101656],[-81.3182780033645,41.3475124987415]]]},"properties":{"source_county":"Geauga","jurisdiction":"Bainbridge Township","parcel_id":"02-121000","owner_name":"LEIBITZKE DAVID","property_address":"9070 CRACKEL RD","property_city":"CHAGRIN FALLS","property_zip":"44023"}},{"type":"Feature","geometry":{"type":"Polygon","coordinates":[[[-81.3177303992004,41.3475084997392],[-81.3182780033645,41.3475124987415],[-81.318268601963,41.3483276101656],[-81.3177191508804,41.3483235977244],[-81.3177303992004,41.3475084997392]]]},"properties":{"source_county":"Geauga","jurisdiction":"Bainbridge Township","parcel_id":"02-121100","owner_name":"LEIBITZKE DAVID","property_address":" CRACKEL RD","property_city":"CHAGRIN FALLS","property_zip":"44023"}},{"type":"Feature","geometry":{"type":"Polygon","coordinates":[[[-81.3002007920794,41.3473473263102],[-81.3010049104968,41.347354753271],[-81.3009813567474,41.3500620375367],[-81.3001772052239,41.350054609517],[-81.3002007920794,41.3473473263102]]]},"properties":{"source_county":"Geauga","jurisdiction":"Bainbridge Township","parcel_id":"02-121640","owner_name":"FRANKO JUNE E TOD","property_address":"9580 CRACKEL RD","property_city":"AURORA","property_zip":"44202"}},{"type":"Feature","geometry":{"type":"Polygon","coordinates":[[[-81.3155479062114,41.3474887010121],[-81.3160937470894,41.34749365678],[-81.3160756376833,41.3486872141598],[-81.3155292753072,41.3486821314998],[-81.3155479062114,41.3474887010121]]]},"properties":{"source_county":"Geauga","jurisdiction":"Bainbridge Township","parcel_id":"02-124810","owner_name":"MARTIN CYNTHIA P","property_address":"9142 CRACKEL RD","property_city":"CHAGRIN FALLS","property_zip":"44023"}},{"type":"Feature","geometry":{"type":"Polygon","coordinates":[[[-81.3124076178436,41.3474591749941],[-81.3137561860012,41.3474724170095],[-81.3138142886339,41.3495821948452],[-81.312472158954,41.3495892712844],[-81.3124076178436,41.3474591749941]]]},"properties":{"source_county":"Geauga","jurisdiction":"Bainbridge Township","parcel_id":"02-138400","owner_name":"BOBNAR KERRI L","property_address":"9210 CRACKEL RD","property_city":"CHAGRIN FALLS","property_zip":"44023"}},{"type":"Feature","geometry":{"type":"Polygon","coordinates":[[[-81.3018090290794,41.3473621755452],[-81.3026131478435,41.3473695922326],[-81.3025896603393,41.3500768768147],[-81.3017855084526,41.3500694599693],[-81.3018090290794,41.3473621755452]]]},"properties":{"source_county":"Geauga","jurisdiction":"Bainbridge Township","parcel_id":"02-197300","owner_name":"FOGEL STEPHEN E & FORTE JACLYN M","property_address":"9530 CRACKEL RD","property_city":"AURORA","property_zip":"44202"}},{"type":"Feature","geometry":{"type":"Polygon","coordinates":[[[-81.3197389900484,41.347523153705],[-81.3203175691544,41.3475273688948],[-81.3203853147645,41.351107652051],[-81.319736375158,41.3511133544306],[-81.3168195586316,41.351138942418],[-81.3168357088776,41.3486942802502],[-81.317168106995,41.3486973691289],[-81.3177139235863,41.3487024384743],[-81.3182642197514,41.3487075473839],[-81.3188070135218,41.3487125843085],[-81.3188256434557,41.3475164946184],[-81.3197389900484,41.347523153705]]]},"properties":{"source_county":"Geauga","jurisdiction":"Bainbridge Township","parcel_id":"02-199200","owner_name":"WELSH LAUREN J & BAYUS JAMES T","property_address":"9050 CRACKEL RD","property_city":"CHAGRIN FALLS","property_zip":"44023"}},{"type":"Feature","geometry":{"type":"Polygon","coordinates":[[[-81.3160937470894,41.34749365678],[-81.3166392977109,41.3474986070046],[-81.3166218902195,41.3486922931166],[-81.3160756376833,41.3486872141598],[-81.3160937470894,41.34749365678]]]},"properties":{"source_county":"Geauga","jurisdiction":"Bainbridge Township","parcel_id":"02-227400","owner_name":"STERNEN HALLIE R TOD & IACAMPO JAMES A TOD","property_address":"9134 CRACKEL RD","property_city":"CHAGRIN FALLS","property_zip":"44023"}},{"type":"Feature","geometry":{"type":"Polygon","coordinates":[[[-81.3034134600027,41.3473766433808],[-81.3055486509623,41.3473954290587],[-81.3055310965044,41.3494292857994],[-81.3055251732388,41.3501155349182],[-81.3033898936635,41.3500968280643],[-81.3034134600027,41.3473766433808]]]},"properties":{"source_county":"Geauga","jurisdiction":"Bainbridge Township","parcel_id":"02-232900","owner_name":"PETERS JOSEPH S TRUSTEE","property_address":"9470 CRACKEL RD","property_city":"AURORA","property_zip":"44202"}},{"type":"Feature","geometry":{"type":"Polygon","coordinates":[[[-81.3010049104968,41.347354753271],[-81.3018090290794,41.3473621755452],[-81.3017855084526,41.3500694599693],[-81.3009813567474,41.3500620375367],[-81.3010049104968,41.347354753271]]]},"properties":{"source_county":"Geauga","jurisdiction":"Bainbridge Township","parcel_id":"02-272750","owner_name":"KANAGARAJ RACHEL ANN & PRAEM","property_address":"9544 CRACKEL RD","property_city":"AURORA","property_zip":"44202"}},{"type":"Feature","geometry":{"type":"Polygon","coordinates":[[[-81.3228075734439,41.3475454746434],[-81.3237836602672,41.3475530821811],[-81.3237836375132,41.3475543535056],[-81.3237653728608,41.3485699579566],[-81.3228269395227,41.3485801920986],[-81.3228075734439,41.3475454746434]]]},"properties":{"source_county":"Geauga","jurisdiction":"Bainbridge Township","parcel_id":"02-274900","owner_name":"PAYNTHER JEWEL WINN TRUSTEE & JEWEL W","property_address":"8930 CRACKEL RD","property_city":"CHAGRIN FALLS","property_zip":"44023"}},{"type":"Feature","geometry":{"type":"Polygon","coordinates":[[[-81.3245484704676,41.3475590364531],[-81.3250947630291,41.347563287048],[-81.3250947093143,41.3475662915881],[-81.3250718403227,41.3488411654834],[-81.3245255606053,41.3488356029406],[-81.3245304782301,41.348561608428],[-81.324548429901,41.347561304489],[-81.3245484704676,41.3475590364531]]]},"properties":{"source_county":"Geauga","jurisdiction":"Bainbridge Township","parcel_id":"02-356840","owner_name":"THOMAS VALERIE KAY TOD","property_address":"8896 CRACKEL RD","property_city":"CHAGRIN FALLS","property_zip":"44023"}},{"type":"Feature","geometry":{"type":"Polygon","coordinates":[[[-81.3026131478435,41.3473695922326],[-81.3034134600027,41.3473766433808],[-81.3033898936635,41.3500968280643],[-81.3025895598377,41.3500898038927],[-81.3025896603393,41.3500768768147],[-81.3026131478435,41.3473695922326]]]},"properties":{"source_county":"Geauga","jurisdiction":"Bainbridge Township","parcel_id":"02-362800","owner_name":"BROSKI JARED E & SCHWED NICHOLE L","property_address":"9510 CRACKEL RD","property_city":"AURORA","property_zip":"44202"}},{"type":"Feature","geometry":{"type":"Polygon","coordinates":[[[-81.3085878003955,41.347422099083],[-81.3090590142336,41.3474262269838],[-81.3090590120005,41.3474266799311],[-81.3090504705603,41.3493229160205],[-81.3078902786016,41.3493127488131],[-81.3079112044241,41.3474161681469],[-81.3085878003955,41.347422099083]]]},"properties":{"source_county":"Geauga","jurisdiction":"Bainbridge Township","parcel_id":"02-363700","owner_name":"HENDERSON CARLES R TOD & MARILYN A TOD","property_address":"19139 SNYDER RD","property_city":"CHAGRIN FALLS","property_zip":"44023"}},{"type":"Feature","geometry":{"type":"Polygon","coordinates":[[[-81.3066497288334,41.3494391084471],[-81.3090498526313,41.3494601487763],[-81.3090467619319,41.3501463025655],[-81.3055251732388,41.3501155349182],[-81.3055310965044,41.3494292857994],[-81.3066497288334,41.3494391084471]]]},"properties":{"source_county":"Geauga","jurisdiction":"Bainbridge Township","parcel_id":"02-363710","owner_name":"KOWALSKI RICHARD","property_address":"19095 SNYDER RD","property_city":"AURORA","property_zip":"44202"}},{"type":"Feature","geometry":{"type":"Polygon","coordinates":[[[-81.3228504648254,41.3498370874002],[-81.3246343807228,41.3498176326822],[-81.3246422924893,41.35022927712],[-81.3228581705774,41.3502487344786],[-81.3228504648254,41.3498370874002]]]},"properties":{"source_county":"Geauga","jurisdiction":"Bainbridge Township","parcel_id":"02-382300","owner_name":"BASEL CRYSTAL L","property_address":"19108 HASKINS RD","property_city":"CHAGRIN FALLS","property_zip":"44023"}},{"type":"Feature","geometry":{"type":"Polygon","coordinates":[[[-81.3237836602672,41.3475530821811],[-81.3245484704676,41.3475590364531],[-81.324548429901,41.347561304489],[-81.3245304782301,41.348561608428],[-81.3237653728608,41.3485699579566],[-81.3237836375132,41.3475543535056],[-81.3237836602672,41.3475530821811]]]},"properties":{"source_county":"Geauga","jurisdiction":"Bainbridge Township","parcel_id":"02-409900","owner_name":"WINN ROBERT W JR & KAREN A","property_address":"8910 CRACKEL RD","property_city":"CHAGRIN FALLS","property_zip":"44023"}},{"type":"Feature","geometry":{"type":"Polygon","coordinates":[[[-81.3166392977109,41.3474986070046],[-81.3171848484146,41.3475035546577],[-81.317168106995,41.3486973691289],[-81.3168357088776,41.3486942802502],[-81.3166218902195,41.3486922931166],[-81.3166392977109,41.3474986070046]]]},"properties":{"source_county":"Geauga","jurisdiction":"Bainbridge Township","parcel_id":"02-419400","owner_name":"BIRO JAMES J & BLEYL SHARON M CO TRUSTEES","property_address":"9120 CRACKEL RD","property_city":"CHAGRIN FALLS","property_zip":"44023"}},{"type":"Feature","geometry":{"type":"Polygon","coordinates":[[[-81.3055486509623,41.3473954290587],[-81.3066672510171,41.3474052542679],[-81.3066497288334,41.3494391084471],[-81.3055310965044,41.3494292857994],[-81.3055486509623,41.3473954290587]]]},"properties":{"source_county":"Geauga","jurisdiction":"Bainbridge Township","parcel_id":"02-420065","owner_name":"ZONARAS JOHN & KARA","property_address":"9420 CRACKEL RD","property_city":"AURORA","property_zip":"44202"}},{"type":"Feature","geometry":{"type":"Polygon","coordinates":[[[-81.3066497288334,41.3494391084471],[-81.3066672510171,41.3474052542679],[-81.3079112044241,41.3474161681469],[-81.3078902786016,41.3493127488131],[-81.3090504705603,41.3493229160205],[-81.3090498526313,41.3494601487763],[-81.3066497288334,41.3494391084471]]]},"properties":{"source_county":"Geauga","jurisdiction":"Bainbridge Township","parcel_id":"02-420066","owner_name":"LINTON THOMAS A & ADELAIDE WOLF","property_address":"19105 SNYDER RD","property_city":"AURORA","property_zip":"44202"}},{"type":"Feature","geometry":{"type":"Polygon","coordinates":[[[-81.3225938188659,41.3475439224093],[-81.3228075734439,41.3475454746434],[-81.3228269395227,41.3485801920986],[-81.3228380867298,41.3491757086333],[-81.3228473827777,41.3496724292791],[-81.3228504648254,41.3498370874002],[-81.3228581705774,41.3502487344786],[-81.3228658752311,41.3506603815002],[-81.3228738373295,41.3510857498374],[-81.3203853147645,41.351107652051],[-81.3203175691544,41.3475273688948],[-81.3220860787365,41.3475402343155],[-81.3225938188659,41.3475439224093]]]},"properties":{"source_county":"Geauga","jurisdiction":"Bainbridge Township","parcel_id":"02-421299","owner_name":"BARRETT PAIN ASSOCIATES LLC","property_address":" HASKINS RD","property_city":"CHAGRIN FALLS","property_zip":"44023"}},{"type":"Feature","geometry":{"type":"Polygon","coordinates":[[[-81.3138142886339,41.3495821948452],[-81.3137561860012,41.3474724170095],[-81.3155479062114,41.3474887010121],[-81.3155292753072,41.3486821314998],[-81.3160756376833,41.3486872141598],[-81.3166218902195,41.3486922931166],[-81.3168357088776,41.3486942802502],[-81.3168195586316,41.351138942418],[-81.3138564681765,41.3511136679464],[-81.3138142886339,41.3495821948452]]]},"properties":{"source_county":"Geauga","jurisdiction":"Bainbridge Township","parcel_id":"02-421301","owner_name":"EDWARDS CRYSTAL BROOK HOLDING LLC","property_address":" CRACKEL RD","property_city":"CHAGRIN FALLS","property_zip":"44023"}}]}