{"type":"FeatureCollection","features":[{"type":"Feature","geometry":{"type":"Polygon","coordinates":[[[-81.269839290987,41.4997577967514],[-81.2699725973248,41.4997566862292],[-81.2699725973214,41.4997568141008],[-81.2699725347647,41.4997841545438],[-81.2699704200687,41.5007130758338],[-81.2690576259132,41.5007206769246],[-81.2690599393348,41.49979174862],[-81.2690600076202,41.4997643785176],[-81.2690600081467,41.4997642866718],[-81.269839290987,41.4997577967514]]]},"properties":{"source_county":"Geauga","jurisdiction":"Munson Township","parcel_id":"21-101400","owner_name":"COUGHLIN KYLE & FRANCIS LAURA","property_address":"10406 CEDAR RD","property_city":"CHESTERLAND","property_zip":"44026"}},{"type":"Feature","geometry":{"type":"Polygon","coordinates":[[[-81.2698392909887,41.4997577967543],[-81.2699725973265,41.4997566862321],[-81.2699725973231,41.4997568141036],[-81.2699725347664,41.4997841545466],[-81.2699704200704,41.5007130758366],[-81.2690576259149,41.5007206769274],[-81.2690599393365,41.4997917486228],[-81.2690600076218,41.4997643785205],[-81.2690600081485,41.4997642866746],[-81.2698392909887,41.4997577967543]]]},"properties":{"source_county":"Geauga","jurisdiction":"Munson Township","parcel_id":"21-101400","owner_name":"COUGHLIN KYLE & FRANCIS LAURA","property_address":"10406 CEDAR RD","property_city":"CHESTERLAND","property_zip":"44026"}}]}