{"type":"FeatureCollection","features":[{"type":"Feature","geometry":{"type":"Polygon","coordinates":[[[-81.2310544553051,41.4250666035086],[-81.2327317238205,41.4250537444352],[-81.2327309889826,41.42549740652],[-81.232730988657,41.4254976712721],[-81.2311681045699,41.4255027093665],[-81.2311629929558,41.4255027254331],[-81.2310537143946,41.4255026903838],[-81.231053715053,41.4255024706618],[-81.2310538175127,41.4254418418276],[-81.2310541690977,41.4252349552985],[-81.2310544553051,41.4250666035086]]]},"properties":{"source_county":"Geauga","jurisdiction":"Auburn Township","parcel_id":"01-009830","owner_name":"LOUIS CHRISTOPHER A & MICHELE L","property_address":"16300 MESSENGER RD","property_city":"AUBURN TOWNSHIP","property_zip":"44023"}},{"type":"Feature","geometry":{"type":"Polygon","coordinates":[[[-81.2310548009709,41.4247421239144],[-81.2310550079656,41.4247421234797],[-81.2310547363399,41.4249019231138],[-81.2310544553051,41.4250666035086],[-81.2310541690977,41.4252349552985],[-81.2310538175127,41.4254418418276],[-81.231053715053,41.4255024706618],[-81.2310537143946,41.4255026903838],[-81.2307561324527,41.4255025900369],[-81.2298832105921,41.4254996407355],[-81.2298832101973,41.4254995993068],[-81.2298845142283,41.4247441392866],[-81.2310548009709,41.4247421239144]]]},"properties":{"source_county":"Geauga","jurisdiction":"Auburn Township","parcel_id":"01-026910","owner_name":"DHAYER NANCY JANE TOD","property_address":"16319 MESSENGER RD","property_city":"AUBURN TOWNSHIP","property_zip":"44023"}},{"type":"Feature","geometry":{"type":"Polygon","coordinates":[[[-81.2327309889826,41.42549740652],[-81.2327317238205,41.4250537444352],[-81.2310544553051,41.4250666035086],[-81.2310547363399,41.4249019231138],[-81.234263363774,41.424877303839],[-81.2342624698415,41.4254921898137],[-81.232730988657,41.4254976712721],[-81.2327309889826,41.42549740652]]]},"properties":{"source_county":"Geauga","jurisdiction":"Auburn Township","parcel_id":"01-045842","owner_name":"KNAPP KELLY","property_address":"16306 MESSENGER RD","property_city":"AUBURN TOWNSHIP","property_zip":"44023"}},{"type":"Feature","geometry":{"type":"Polygon","coordinates":[[[-81.2475245712661,41.4248385213204],[-81.2479312033603,41.4248414509874],[-81.2479614264598,41.4250125877786],[-81.2479733655038,41.4254227691203],[-81.247973680472,41.425433604964],[-81.2479734698867,41.4254336053901],[-81.2456255009295,41.425442558188],[-81.2456241483992,41.4254348224234],[-81.2455173851328,41.4248240373444],[-81.2475245712661,41.4248385213204]]]},"properties":{"source_county":"Geauga","jurisdiction":"Auburn Township","parcel_id":"01-118541","owner_name":"CZUPRUN ANN & KRAHE SHAWN M","property_address":" AUBURN RD","property_city":"AUBURN TOWNSHIP","property_zip":"44023"}},{"type":"Feature","geometry":{"type":"Polygon","coordinates":[[[-81.2310544553068,41.4250666035115],[-81.2327317238222,41.4250537444381],[-81.2327309889843,41.4254974065229],[-81.2327309886586,41.425497671275],[-81.2311681045716,41.4255027093694],[-81.2311629929575,41.4255027254359],[-81.2310537143963,41.4255026903866],[-81.2310537150546,41.4255024706646],[-81.2310538175144,41.4254418418304],[-81.2310541690993,41.4252349553014],[-81.2310544553068,41.4250666035115]]]},"properties":{"source_county":"Geauga","jurisdiction":"Auburn Township","parcel_id":"01-009830","owner_name":"LOUIS CHRISTOPHER A & MICHELE L","property_address":"16300 MESSENGER RD","property_city":"AUBURN TOWNSHIP","property_zip":"44023"}},{"type":"Feature","geometry":{"type":"Polygon","coordinates":[[[-81.2310548009726,41.4247421239172],[-81.2310550079672,41.4247421234826],[-81.2310547363415,41.4249019231167],[-81.2310544553068,41.4250666035115],[-81.2310541690993,41.4252349553014],[-81.2310538175144,41.4254418418304],[-81.2310537150546,41.4255024706646],[-81.2310537143963,41.4255026903866],[-81.2307561324543,41.4255025900397],[-81.2298832105938,41.4254996407384],[-81.2298832101989,41.4254995993097],[-81.22988451423,41.4247441392895],[-81.2310548009726,41.4247421239172]]]},"properties":{"source_county":"Geauga","jurisdiction":"Auburn Township","parcel_id":"01-026910","owner_name":"DHAYER NANCY JANE TOD","property_address":"16319 MESSENGER RD","property_city":"AUBURN TOWNSHIP","property_zip":"44023"}},{"type":"Feature","geometry":{"type":"Polygon","coordinates":[[[-81.2327309889843,41.4254974065229],[-81.2327317238222,41.4250537444381],[-81.2310544553068,41.4250666035115],[-81.2310547363415,41.4249019231167],[-81.2342633637757,41.4248773038418],[-81.2342624698431,41.4254921898165],[-81.2327309886586,41.425497671275],[-81.2327309889843,41.4254974065229]]]},"properties":{"source_county":"Geauga","jurisdiction":"Auburn Township","parcel_id":"01-045842","owner_name":"KNAPP KELLY","property_address":"16306 MESSENGER RD","property_city":"AUBURN TOWNSHIP","property_zip":"44023"}},{"type":"Feature","geometry":{"type":"Polygon","coordinates":[[[-81.2475245712677,41.4248385213232],[-81.247931203362,41.4248414509902],[-81.2479614264614,41.4250125877815],[-81.2479733655055,41.4254227691232],[-81.2479736804737,41.4254336049669],[-81.2479734698883,41.425433605393],[-81.2456255009312,41.4254425581908],[-81.2456241484009,41.4254348224262],[-81.2455173851344,41.4248240373472],[-81.2475245712677,41.4248385213232]]]},"properties":{"source_county":"Geauga","jurisdiction":"Auburn Township","parcel_id":"01-118541","owner_name":"CZUPRUN ANN & KRAHE SHAWN M","property_address":" AUBURN RD","property_city":"AUBURN TOWNSHIP","property_zip":"44023"}}]}