{"type":"FeatureCollection","features":[{"type":"Feature","geometry":{"type":"Polygon","coordinates":[[[-81.3617372404824,41.3493446473623],[-81.3622741799542,41.3490954500202],[-81.3631064269096,41.3501521698277],[-81.3629222370227,41.3502371119083],[-81.3626423248419,41.3503662511735],[-81.3617372404824,41.3493446473623]]]},"properties":{"source_county":"Geauga","jurisdiction":"Bainbridge Township","parcel_id":"02-028200","owner_name":"HUFF DIANA LYNN & CHRISTOPHER","property_address":"19133 BREWSTER RD","property_city":"AURORA","property_zip":"44202"}},{"type":"Feature","geometry":{"type":"Polygon","coordinates":[[[-81.3586524294071,41.3478674186291],[-81.3586524293971,41.3478671439673],[-81.3591413008399,41.3478748783789],[-81.3592569108487,41.3478767060022],[-81.359256279631,41.3489622771685],[-81.3586516511646,41.3489606051269],[-81.3586524294071,41.3478674186291]]]},"properties":{"source_county":"Geauga","jurisdiction":"Bainbridge Township","parcel_id":"02-030640","owner_name":"BISSLER JAMES B & KATHY L","property_address":"7921 S RIVERSIDE DR","property_city":"AURORA","property_zip":"44202"}},{"type":"Feature","geometry":{"type":"Polygon","coordinates":[[[-81.3536118738254,41.3494508368564],[-81.3550778383818,41.3485290796111],[-81.3551077703995,41.3485521701379],[-81.3551421249315,41.3485714504237],[-81.3551800570906,41.3485864463031],[-81.3552206340017,41.3485967889778],[-81.3552628577451,41.3486022240873],[-81.3553056898986,41.3486026179642],[-81.3553480770771,41.3485979609216],[-81.355388976839,41.3485883674919],[-81.3550521714823,41.349103807287],[-81.354730330262,41.3495964063264],[-81.354554406612,41.3498674323692],[-81.3536118738254,41.3494508368564]]]},"properties":{"source_county":"Geauga","jurisdiction":"Bainbridge Township","parcel_id":"02-061650","owner_name":"PALLADINO ROBERT M TRUSTEE","property_address":"8022 S RIVERSIDE DR","property_city":"AURORA","property_zip":"44202"}},{"type":"Feature","geometry":{"type":"Polygon","coordinates":[[[-81.3586542542366,41.3491253197403],[-81.3586969172329,41.349128613515],[-81.3587379140693,41.3491381003591],[-81.3587756772969,41.3491534175585],[-81.3588087630962,41.3491739794844],[-81.3588359064785,41.3491989999835],[-81.3588560696507,41.3492275224352],[-81.3588684816942,41.3492584563257],[-81.3588726680411,41.3492906189417],[-81.3588702212531,41.3496937404623],[-81.3577046510431,41.3496909907193],[-81.3577081521312,41.3491228474981],[-81.3586542542366,41.3491253197403]]]},"properties":{"source_county":"Geauga","jurisdiction":"Bainbridge Township","parcel_id":"02-067900","owner_name":"HENRY MICHELLE & SCOTT","property_address":"19145 ELIZABETH LN","property_city":"AURORA","property_zip":"44202"}},{"type":"Feature","geometry":{"type":"Polygon","coordinates":[[[-81.3626463237701,41.3489227328298],[-81.3622741799542,41.3490954500202],[-81.3617372404824,41.3493446473623],[-81.3611738346273,41.3496061234843],[-81.3609814889631,41.3489346660654],[-81.361619096628,41.3488198246165],[-81.3616838529078,41.3488093263171],[-81.3617491799705,41.3488010769699],[-81.3618149403459,41.3487950939343],[-81.3618809956525,41.3487913898006],[-81.3619472068882,41.3487899723634],[-81.3620134347225,41.3487908446056],[-81.3620795397905,41.3487940046917],[-81.3621453829851,41.3487994459718],[-81.3622108257506,41.3488071569957],[-81.3622757303735,41.3488171215367],[-81.3623399602728,41.3488293186262],[-81.3624033802869,41.3488437225974],[-81.3624658569584,41.3488603031396],[-81.3625272588146,41.3488790253616],[-81.3625874566445,41.3488998498656],[-81.3626463237701,41.3489227328298]]]},"properties":{"source_county":"Geauga","jurisdiction":"Bainbridge Township","parcel_id":"02-119170","owner_name":"TARVER CAMILLE & BERNARD II","property_address":"7854 S RIVERSIDE DR","property_city":"AURORA","property_zip":"44202"}},{"type":"Feature","geometry":{"type":"Polygon","coordinates":[[[-81.3602726242397,41.3490625263793],[-81.3609814889631,41.3489346660654],[-81.3611738346273,41.3496061234843],[-81.3609460655029,41.349875104397],[-81.3601447581235,41.349871847453],[-81.3602726242397,41.3490625263793]]]},"properties":{"source_county":"Geauga","jurisdiction":"Bainbridge Township","parcel_id":"02-158220","owner_name":"ROARK RUSS & KATERINA","property_address":"7880 S RIVERSIDE DR","property_city":"AURORA","property_zip":"44202"}},{"type":"Feature","geometry":{"type":"Polygon","coordinates":[[[-81.359256279631,41.3489622771685],[-81.3592569108487,41.3478767060022],[-81.3596747667754,41.3478833977417],[-81.360061876476,41.3489276703152],[-81.3599297148848,41.3489433634114],[-81.3597967385875,41.348954481803],[-81.3596632263102,41.3489610021853],[-81.3595294579025,41.3489629108912],[-81.359256279631,41.3489622771685]]]},"properties":{"source_county":"Geauga","jurisdiction":"Bainbridge Township","parcel_id":"02-199550","owner_name":"KNOX BEVERLY J TRUSTEE","property_address":"7901 S RIVERSIDE DR","property_city":"AURORA","property_zip":"44202"}},{"type":"Feature","geometry":{"type":"Polygon","coordinates":[[[-81.3602196472515,41.3490717835049],[-81.3602726242397,41.3490625263793],[-81.3601447581235,41.349871847453],[-81.3590884903897,41.349867443327],[-81.3590914085157,41.3492797376518],[-81.3590980345253,41.3492496461913],[-81.3591119245514,41.3492209953223],[-81.359132600306,41.3491947715873],[-81.359159349849,41.3491718779539],[-81.359191252103,41.3491531027224],[-81.3592272085692,41.3491390923831],[-81.3592659811526,41.3491303293557],[-81.3593062347919,41.3491271153783],[-81.3595284212808,41.3491275895962],[-81.3596154902005,41.3491269484947],[-81.3597025021427,41.3491244902406],[-81.3597893903299,41.3491202167203],[-81.35987608808,41.3491141312135],[-81.3599625288568,41.3491062383907],[-81.3600486463215,41.3490965443091],[-81.3601343743836,41.3490850564083],[-81.3602196472515,41.3490717835049]]]},"properties":{"source_county":"Geauga","jurisdiction":"Bainbridge Township","parcel_id":"02-232993","owner_name":"SUTTON TROY V & TELA","property_address":"19140 ELIZABETH LN","property_city":"AURORA","property_zip":"44202"}},{"type":"Feature","geometry":{"type":"Polygon","coordinates":[[[-81.3580470197563,41.3489591009981],[-81.3580479451489,41.3478577498466],[-81.358407975787,41.347863345151],[-81.3586524293971,41.3478671439673],[-81.3586524294071,41.3478674186291],[-81.3586516511646,41.3489606051269],[-81.3580470197563,41.3489591009981]]]},"properties":{"source_county":"Geauga","jurisdiction":"Bainbridge Township","parcel_id":"02-234136","owner_name":"BADERTSCHER DUNCAN C & SHARON J","property_address":"7933 S RIVERSIDE DR","property_city":"AURORA","property_zip":"44202"}},{"type":"Feature","geometry":{"type":"Polygon","coordinates":[[[-81.3614183323222,41.348686783843],[-81.3611677673719,41.3479068486751],[-81.3628599218872,41.347933591751],[-81.3626570973662,41.3481434041669],[-81.3621461081334,41.3481352762595],[-81.3620915136028,41.3484858515406],[-81.3619566648938,41.348625345923],[-81.3618587008474,41.3486274469449],[-81.3617610690784,41.3486338750424],[-81.3616641058732,41.3486446080743],[-81.3615681452153,41.3486596090714],[-81.3614183323222,41.348686783843]]]},"properties":{"source_county":"Geauga","jurisdiction":"Bainbridge Township","parcel_id":"02-234141","owner_name":"GALLAGHER MARY ELLEN","property_address":"7845 S RIVERSIDE DR","property_city":"AURORA","property_zip":"44202"}},{"type":"Feature","geometry":{"type":"Polygon","coordinates":[[[-81.3619566648938,41.348625345923],[-81.3620915136028,41.3484858515406],[-81.3621461081334,41.3481352762595],[-81.3626570973662,41.3481434041669],[-81.3628599218872,41.347933591751],[-81.3630736008114,41.3479369446553],[-81.3640719322526,41.3479526049436],[-81.3640893819748,41.3479528869819],[-81.3631464125805,41.3483874321838],[-81.3624927698185,41.348692545888],[-81.3624277560954,41.3486769327904],[-81.3623619468372,41.3486633434647],[-81.3622954529318,41.3486518008088],[-81.3622283864204,41.3486423242717],[-81.3621608603086,41.3486349298212],[-81.3620929883768,41.3486296299168],[-81.3620248849877,41.3486264334887],[-81.3619566648938,41.348625345923]]]},"properties":{"source_county":"Geauga","jurisdiction":"Bainbridge Township","parcel_id":"02-234142","owner_name":"MCBRIDE BOGART L & AMANDA M","property_address":"7823 S RIVERSIDE DR","property_city":"AURORA","property_zip":"44202"}},{"type":"Feature","geometry":{"type":"Polygon","coordinates":[[[-81.3552136333841,41.3481990978849],[-81.3546163975889,41.3478258971679],[-81.3555347631094,41.3478318433777],[-81.3555520520199,41.3478319558138],[-81.3562225381174,41.3478362924296],[-81.3562219713551,41.3478378213324],[-81.3559550011918,41.3485581096065],[-81.3556609894277,41.3484466114343],[-81.3556318215948,41.3484329290793],[-81.3556059450435,41.3484158972913],[-81.3555840303168,41.3483959574195],[-81.3555666452925,41.3483736261704],[-81.3555578056319,41.3483590125232],[-81.3555516871648,41.3483436283623],[-81.3555343263088,41.3483085250966],[-81.3555201162606,41.348289486001],[-81.3555037708229,41.3482714461555],[-81.3554766797096,41.3482487667457],[-81.3554454442743,41.3482293478906],[-81.3554107483349,41.3482136147131],[-81.3553733514661,41.3482019116479],[-81.3553340723704,41.3481944949014],[-81.3552937709553,41.3481915268429],[-81.3552533295088,41.3481930724496],[-81.3552136333841,41.3481990978849]]]},"properties":{"source_county":"Geauga","jurisdiction":"Bainbridge Township","parcel_id":"02-237670","owner_name":"BARTOSHEK JAYSON D & KELLY E","property_address":"8003 S RIVERSIDE DR","property_city":"AURORA","property_zip":"44202"}},{"type":"Feature","geometry":{"type":"Polygon","coordinates":[[[-81.3574423913655,41.3489574217388],[-81.3574434639381,41.3478481878],[-81.3574448236158,41.3478482030246],[-81.3580479451489,41.3478577498466],[-81.3580470197563,41.3489591009981],[-81.3574423913655,41.3489574217388]]]},"properties":{"source_county":"Geauga","jurisdiction":"Bainbridge Township","parcel_id":"02-253250","owner_name":"ZIMMERMAN FRANK W","property_address":"7957 S RIVERSIDE DR","property_city":"AURORA","property_zip":"44202"}},{"type":"Feature","geometry":{"type":"Polygon","coordinates":[[[-81.363014245672,41.3489121439396],[-81.3644338885872,41.3483089197195],[-81.364820201631,41.348708183409],[-81.3634311741438,41.349294849709],[-81.3633741576357,41.3492246085923],[-81.3633369671875,41.349180862573],[-81.3632974029839,41.3491383154769],[-81.363255533,41.3490970403995],[-81.3632114291722,41.3490571082506],[-81.3631651672739,41.3490185876329],[-81.3631168267857,41.348981544724],[-81.3630664907587,41.3489460431627],[-81.363014245672,41.3489121439396]]]},"properties":{"source_county":"Geauga","jurisdiction":"Bainbridge Township","parcel_id":"02-262216","owner_name":"SCHUMANN ANTHONY I","property_address":"7791 S RIVERSIDE DR","property_city":"AURORA","property_zip":"44202"}},{"type":"Feature","geometry":{"type":"Polygon","coordinates":[[[-81.3622741799542,41.3490954500202],[-81.3626463237701,41.3489227328298],[-81.3627277406827,41.3489587980785],[-81.3628058596468,41.3489987914514],[-81.3628803474018,41.3490425423373],[-81.3629508861759,41.3490898640951],[-81.3630171750416,41.34914055485],[-81.3630789311999,41.3491943983545],[-81.3631358911863,41.349251164911],[-81.3631878119947,41.3493106123514],[-81.363493638912,41.3496875977316],[-81.3635114633755,41.3497165456148],[-81.3635215548168,41.349747538502],[-81.3635235353067,41.3497794157292],[-81.3635173306652,41.3498109835122],[-81.3635031732414,41.3498410596541],[-81.3634815932139,41.3498685178175],[-81.363453398737,41.3498923297056],[-81.3634196456767,41.3499116035722],[-81.3634764048718,41.3499816962351],[-81.3632018351444,41.3501081706063],[-81.3631064269096,41.3501521698277],[-81.3622741799542,41.3490954500202]]]},"properties":{"source_county":"Geauga","jurisdiction":"Bainbridge Township","parcel_id":"02-262232","owner_name":"OSBORNE KEVIN","property_address":"19145 BREWSTER RD","property_city":"AURORA","property_zip":"44202"}},{"type":"Feature","geometry":{"type":"Polygon","coordinates":[[[-81.364035722038,41.3497239663882],[-81.3639786835763,41.3496537613928],[-81.363940543496,41.3496676751352],[-81.3638995626143,41.3496757969479],[-81.3638572734664,41.3496778231047],[-81.3638152575126,41.3496736778348],[-81.3637750859963,41.349663516156],[-81.3637382611847,41.3496477180781],[-81.3637061601877,41.3496268743911],[-81.3636799834585,41.3496017645718],[-81.3634311741438,41.349294849709],[-81.364820201631,41.348708183409],[-81.3651933366328,41.3490938202748],[-81.3652558975569,41.3491615033077],[-81.364035722038,41.3497239663882]]]},"properties":{"source_county":"Geauga","jurisdiction":"Bainbridge Township","parcel_id":"02-262233","owner_name":"KING BRIAN & STULL JENNIFER","property_address":"7787 S RIVERSIDE DR","property_city":"AURORA","property_zip":"44202"}},{"type":"Feature","geometry":{"type":"Polygon","coordinates":[[[-81.3640893907369,41.3479528870679],[-81.3644338885872,41.3483089197195],[-81.363014245672,41.3489121439396],[-81.3629552887222,41.3488771214283],[-81.362894294785,41.348844139177],[-81.362831388102,41.3488132643673],[-81.36276669681,41.3487845598881],[-81.3627003526807,41.3487580842073],[-81.3626324908517,41.3487338912531],[-81.3625632495516,41.3487120303039],[-81.3624927698185,41.348692545888],[-81.3631464125805,41.3483874321838],[-81.3640893907369,41.3479528870679]]]},"properties":{"source_county":"Geauga","jurisdiction":"Bainbridge Township","parcel_id":"02-262234","owner_name":"WODARCZYK RICHARD J & TRACY R","property_address":"7799 S RIVERSIDE DR","property_city":"AURORA","property_zip":"44202"}},{"type":"Feature","geometry":{"type":"Polygon","coordinates":[[[-81.3562225381174,41.3478362924296],[-81.3570146843032,41.3478413738109],[-81.3570133640861,41.347844792694],[-81.3566380168869,41.3488170403923],[-81.3559550011918,41.3485581096065],[-81.3562219713551,41.3478378213324],[-81.3562225381174,41.3478362924296]]]},"properties":{"source_county":"Geauga","jurisdiction":"Bainbridge Township","parcel_id":"02-266800","owner_name":"FINNEGAN SCOTT P & MEREDITH O","property_address":"7989 S RIVERSIDE DR","property_city":"AURORA","property_zip":"44202"}},{"type":"Feature","geometry":{"type":"Polygon","coordinates":[[[-81.354730330262,41.3495964063264],[-81.3550521714823,41.349103807287],[-81.3555190898219,41.3491929647072],[-81.3563890897848,41.3493590847621],[-81.3563109670214,41.3497666050906],[-81.355524457506,41.3496819184528],[-81.354730330262,41.3495964063264]]]},"properties":{"source_county":"Geauga","jurisdiction":"Bainbridge Township","parcel_id":"02-273550","owner_name":"FRANK NICHOLAS A & SARAH A","property_address":"19139 CASCADE CT","property_city":"AURORA","property_zip":"44202"}},{"type":"Feature","geometry":{"type":"Polygon","coordinates":[[[-81.3577046510431,41.3496909907193],[-81.3588702212531,41.3496937404623],[-81.3588677687494,41.3502545167346],[-81.3577021826153,41.3502521109106],[-81.3577040272221,41.349831657261],[-81.3577046510431,41.3496909907193]]]},"properties":{"source_county":"Geauga","jurisdiction":"Bainbridge Township","parcel_id":"02-279930","owner_name":"MALLINOS GEORGE & MOORE MALLINOS JENNIFER","property_address":"19123 ELIZABETH LN","property_city":"AURORA","property_zip":"44202"}},{"type":"Feature","geometry":{"type":"Polygon","coordinates":[[[-81.3535976705767,41.3484901792221],[-81.3545557255785,41.3481198504267],[-81.3550434997286,41.34830487066],[-81.3550283438141,41.3483324318049],[-81.3550186343948,41.3483613544624],[-81.3550145754579,41.3483910310126],[-81.355016252283,41.3484208379962],[-81.3550236296504,41.3484501492131],[-81.3550365525798,41.3484783488779],[-81.355054749586,41.3485048445561],[-81.3550778383818,41.3485290796111],[-81.3536118738254,41.3494508368564],[-81.3535976705767,41.3484901792221]]]},"properties":{"source_county":"Geauga","jurisdiction":"Bainbridge Township","parcel_id":"02-280350","owner_name":"SANTORA MICHAEL T & JILL M TRUSTEES","property_address":"8030 S RIVERSIDE DR","property_city":"AURORA","property_zip":"44202"}},{"type":"Feature","geometry":{"type":"Polygon","coordinates":[[[-81.3532333701312,41.3484930889241],[-81.3535976705767,41.3484901792221],[-81.3536118738254,41.3494508368564],[-81.3532475680554,41.3494537466023],[-81.3532333701312,41.3484930889241]]]},"properties":{"source_county":"Geauga","jurisdiction":"Bainbridge Township","parcel_id":"02-280360","owner_name":"SANTORA MICHAEL T & JILL M TRUSTEES","property_address":" S RIVERSIDE DR","property_city":"AURORA","property_zip":"44202"}},{"type":"Feature","geometry":{"type":"Polygon","coordinates":[[[-81.360061876476,41.3489276703152],[-81.3596747667754,41.3478833977417],[-81.3600659795708,41.3478894707326],[-81.3602191673146,41.347891848533],[-81.3602191929137,41.3478918884085],[-81.3608090423044,41.3487965852967],[-81.3606235052606,41.3488333044021],[-81.3604370883217,41.3488673994222],[-81.3602498568455,41.3488988584031],[-81.360061876476,41.3489276703152]]]},"properties":{"source_county":"Geauga","jurisdiction":"Bainbridge Township","parcel_id":"02-293640","owner_name":"HODGE PHILIP C & BRENDA F TRUSTEES","property_address":"7889 S RIVERSIDE DR","property_city":"AURORA","property_zip":"44202"}},{"type":"Feature","geometry":{"type":"Polygon","coordinates":[[[-81.3570133640861,41.347844792694],[-81.3570146843032,41.3478413738109],[-81.3574434639381,41.3478481878],[-81.3574423913655,41.3489574217388],[-81.357344045597,41.3489573089886],[-81.3572518358694,41.3489549847165],[-81.3571600130825,41.3489482143981],[-81.3570689543777,41.3489370258408],[-81.3569790337583,41.3489214649992],[-81.3568906205518,41.3489015957858],[-81.356804077894,41.3488774998088],[-81.3567197612365,41.3488492760368],[-81.3566380168869,41.3488170403923],[-81.3570133640861,41.347844792694]]]},"properties":{"source_county":"Geauga","jurisdiction":"Bainbridge Township","parcel_id":"02-319330","owner_name":"RUNO SUSAN B TOD","property_address":"7977 S RIVERSIDE DR","property_city":"AURORA","property_zip":"44202"}},{"type":"Feature","geometry":{"type":"Polygon","coordinates":[[[-81.3655673516491,41.3490179289071],[-81.3645469564881,41.347958822595],[-81.3675326471956,41.347997498636],[-81.3675326973783,41.3479974991271],[-81.367774089681,41.3480006237434],[-81.3655673516491,41.3490179289071]]]},"properties":{"source_county":"Geauga","jurisdiction":"Bainbridge Township","parcel_id":"02-323800","owner_name":"ICP GEAUGA LAKE LLC","property_address":" BREWSTER RD","property_city":"AURORA","property_zip":"44202"}},{"type":"Feature","geometry":{"type":"Polygon","coordinates":[[[-81.364035722038,41.3497239663882],[-81.3650231926514,41.3492687437855],[-81.365024795168,41.350931443977],[-81.3632018351444,41.3501081706063],[-81.3634764048718,41.3499816962351],[-81.364035722038,41.3497239663882]]]},"properties":{"source_county":"Geauga","jurisdiction":"Bainbridge Township","parcel_id":"02-323900","owner_name":"ICP GEAUGA LAKE LLC","property_address":" BREWSTER RD","property_city":"AURORA","property_zip":"44202"}},{"type":"Feature","geometry":{"type":"Polygon","coordinates":[[[-81.354554406612,41.3498674323692],[-81.354730330262,41.3495964063264],[-81.355524457506,41.3496819184528],[-81.3563109670214,41.3497666050906],[-81.3562738402875,41.3499638649532],[-81.3562626528667,41.3499965112877],[-81.3562429872003,41.3500267974666],[-81.3562156456741,41.3500534877563],[-81.3561817438673,41.3500754931407],[-81.3561516992338,41.3500926389006],[-81.3561250854105,41.3501127474202],[-81.3561024125922,41.3501354332155],[-81.3560841154256,41.3501602613955],[-81.3555320989204,41.3501728262569],[-81.3546115528694,41.3501937738246],[-81.354554406612,41.3498674323692]]]},"properties":{"source_county":"Geauga","jurisdiction":"Bainbridge Township","parcel_id":"02-336150","owner_name":"SMITH ANTONIA M TOD & WAYNE A TOD","property_address":"19121 CASCADE CT","property_city":"AURORA","property_zip":"44202"}},{"type":"Feature","geometry":{"type":"Polygon","coordinates":[[[-81.3602191929137,41.3478918884085],[-81.3602191673146,41.347891848533],[-81.3611666288283,41.3479068302671],[-81.3611677673719,41.3479068486751],[-81.3614183323222,41.348686783843],[-81.3608090423044,41.3487965852967],[-81.3602191929137,41.3478918884085]]]},"properties":{"source_county":"Geauga","jurisdiction":"Bainbridge Township","parcel_id":"02-336600","owner_name":"VAVREK STEVEN & MELINDA","property_address":"7867 S RIVERSIDE DR","property_city":"AURORA","property_zip":"44202"}},{"type":"Feature","geometry":{"type":"Polygon","coordinates":[[[-81.3611738346273,41.3496061234843],[-81.3617372404824,41.3493446473623],[-81.3626423248419,41.3503662511735],[-81.362362217415,41.3504954211685],[-81.362179970905,41.3505794122125],[-81.3611738346273,41.3496061234843]]]},"properties":{"source_county":"Geauga","jurisdiction":"Bainbridge Township","parcel_id":"02-367050","owner_name":"JABG LIMITED LLC","property_address":"19121 BREWSTER RD","property_city":"AURORA","property_zip":"44202"}},{"type":"Feature","geometry":{"type":"Polygon","coordinates":[[[-81.3569121362117,41.3490775898571],[-81.3570181513218,41.3490967217743],[-81.3571256183907,41.3491105066433],[-81.3572340630187,41.3491188836123],[-81.3573430064895,41.3491218157024],[-81.3577081521312,41.3491228474981],[-81.3577046510431,41.3496909907193],[-81.3577040272221,41.349831657261],[-81.3565363108918,41.3497427559902],[-81.3566375026942,41.3492129760002],[-81.3566420618705,41.3491958573733],[-81.3566489943211,41.3491791972131],[-81.3566582225336,41.3491631817942],[-81.3566696433273,41.3491479901823],[-81.3566831290068,41.3491337922321],[-81.3566985287899,41.3491207466885],[-81.3567156704934,41.3491089994109],[-81.3567343624586,41.3490986817436],[-81.3567543956937,41.3490899090462],[-81.3567755462108,41.3490827794045],[-81.3567975775299,41.3490773725335],[-81.3568202433236,41.3490737488862],[-81.3568432901705,41.349071948978],[-81.3568664603887,41.349071992933],[-81.3568894949171,41.34907388026],[-81.3569121362117,41.3490775898571]]]},"properties":{"source_county":"Geauga","jurisdiction":"Bainbridge Township","parcel_id":"02-371250","owner_name":"CHURCHILL TERRANCE S","property_address":"19154 CASCADE CT","property_city":"AURORA","property_zip":"44202"}},{"type":"Feature","geometry":{"type":"Polygon","coordinates":[[[-81.3555340733182,41.3485851872222],[-81.355552854649,41.3485903312708],[-81.356329053419,41.3488843235293],[-81.3563581938529,41.3488975834579],[-81.3563842446545,41.3489140957073],[-81.3564065724582,41.3489334588213],[-81.3564246344122,41.3489552020315],[-81.3564379913782,41.3489787967024],[-81.3564463186069,41.349003669184],[-81.3564494136351,41.3490292147586],[-81.3564472012081,41.3490548123432],[-81.3563890897848,41.3493590847621],[-81.3555190898219,41.3491929647072],[-81.3550521714823,41.349103807287],[-81.355388976839,41.3485883674919],[-81.3554244629792,41.3485806346019],[-81.3554611665854,41.3485774897161],[-81.3554980507132,41.3485790216831],[-81.3555340733182,41.3485851872222]]]},"properties":{"source_county":"Geauga","jurisdiction":"Bainbridge Township","parcel_id":"02-386370","owner_name":"LETIZIA KRISTINE M & THOMAS A TRUSTEES","property_address":"8000 S RIVERSIDE DR","property_city":"AURORA","property_zip":"44202"}},{"type":"Feature","geometry":{"type":"Polygon","coordinates":[[[-81.3678968138128,41.3480021160983],[-81.3723567022583,41.3480580806808],[-81.3717433854517,41.3483206433872],[-81.3710828887834,41.3483301642136],[-81.3710512652245,41.3488520713228],[-81.3706568566229,41.3493537907311],[-81.3680982204346,41.3492292332071],[-81.3678862238758,41.3480456566463],[-81.3678968138128,41.3480021160983]]]},"properties":{"source_county":"Geauga","jurisdiction":"Bainbridge Township","parcel_id":"02-324300","owner_name":"CITY OF AURORA","property_address":" BREWSTER RD","property_city":"AURORA","property_zip":"44202"}},{"type":"Feature","geometry":{"type":"Polygon","coordinates":[[[-81.361737240484,41.3493446473652],[-81.3622741799558,41.3490954500231],[-81.3631064269113,41.3501521698305],[-81.3629222370244,41.3502371119111],[-81.3626423248436,41.3503662511763],[-81.361737240484,41.3493446473652]]]},"properties":{"source_county":"Geauga","jurisdiction":"Bainbridge Township","parcel_id":"02-028200","owner_name":"HUFF DIANA LYNN & CHRISTOPHER","property_address":"19133 BREWSTER RD","property_city":"AURORA","property_zip":"44202"}},{"type":"Feature","geometry":{"type":"Polygon","coordinates":[[[-81.3586524294088,41.347867418632],[-81.3586524293988,41.3478671439701],[-81.3591413008416,41.3478748783818],[-81.3592569108503,41.347876706005],[-81.3592562796326,41.3489622771714],[-81.3586516511662,41.3489606051297],[-81.3586524294088,41.347867418632]]]},"properties":{"source_county":"Geauga","jurisdiction":"Bainbridge Township","parcel_id":"02-030640","owner_name":"BISSLER JAMES B & KATHY L","property_address":"7921 S RIVERSIDE DR","property_city":"AURORA","property_zip":"44202"}},{"type":"Feature","geometry":{"type":"Polygon","coordinates":[[[-81.353611873827,41.3494508368592],[-81.3550778383834,41.3485290796139],[-81.3551077704011,41.3485521701407],[-81.3551421249332,41.3485714504265],[-81.3551800570923,41.3485864463059],[-81.3552206340034,41.3485967889806],[-81.3552628577467,41.3486022240901],[-81.3553056899002,41.348602617967],[-81.3553480770788,41.3485979609244],[-81.3553889768407,41.3485883674947],[-81.355052171484,41.3491038072898],[-81.3547303302636,41.3495964063292],[-81.3545544066136,41.349867432372],[-81.353611873827,41.3494508368592]]]},"properties":{"source_county":"Geauga","jurisdiction":"Bainbridge Township","parcel_id":"02-061650","owner_name":"PALLADINO ROBERT M TRUSTEE","property_address":"8022 S RIVERSIDE DR","property_city":"AURORA","property_zip":"44202"}},{"type":"Feature","geometry":{"type":"Polygon","coordinates":[[[-81.3586542542383,41.3491253197432],[-81.3586922296728,41.3491279373302],[-81.3587290294535,41.349135471933],[-81.3587635411452,41.3491476957852],[-81.3587947214793,41.349164239367],[-81.3588216278899,41.3491846025759],[-81.358843447007,41.3492081698435],[-81.3588595192448,41.3492342287439],[-81.3588693587404,41.3492619915296],[-81.3588726680427,41.3492906189445],[-81.3588702212548,41.3496937404652],[-81.3577046510448,41.3496909907222],[-81.3577081521329,41.349122847501],[-81.3586542542383,41.3491253197432]]]},"properties":{"source_county":"Geauga","jurisdiction":"Bainbridge Township","parcel_id":"02-067900","owner_name":"HENRY MICHELLE & SCOTT","property_address":"19145 ELIZABETH LN","property_city":"AURORA","property_zip":"44202"}},{"type":"Feature","geometry":{"type":"Polygon","coordinates":[[[-81.3626463237718,41.3489227328326],[-81.3622741799558,41.3490954500231],[-81.361737240484,41.3493446473652],[-81.361173834629,41.3496061234871],[-81.3609814889648,41.3489346660682],[-81.3616190966296,41.3488198246193],[-81.3617229894277,41.3488041056198],[-81.3618281322554,41.3487941704796],[-81.3619339588539,41.3487900727054],[-81.3620398992823,41.3487918343663],[-81.3621453829868,41.3487994459746],[-81.3622498418731,41.3488128665373],[-81.3623527133651,41.3488320237762],[-81.3624534434347,41.3488568145176],[-81.362551489585,41.3488871052481],[-81.3626463237718,41.3489227328326]]]},"properties":{"source_county":"Geauga","jurisdiction":"Bainbridge Township","parcel_id":"02-119170","owner_name":"TARVER CAMILLE & BERNARD II","property_address":"7854 S RIVERSIDE DR","property_city":"AURORA","property_zip":"44202"}},{"type":"Feature","geometry":{"type":"Polygon","coordinates":[[[-81.3602726242413,41.3490625263821],[-81.3609814889648,41.3489346660682],[-81.361173834629,41.3496061234871],[-81.3609460655046,41.3498751043998],[-81.3601447581251,41.3498718474559],[-81.3602726242413,41.3490625263821]]]},"properties":{"source_county":"Geauga","jurisdiction":"Bainbridge Township","parcel_id":"02-158220","owner_name":"ROARK RUSS & KATERINA","property_address":"7880 S RIVERSIDE DR","property_city":"AURORA","property_zip":"44202"}},{"type":"Feature","geometry":{"type":"Polygon","coordinates":[[[-81.3592562796326,41.3489622771714],[-81.3592569108503,41.347876706005],[-81.3596747667771,41.3478833977445],[-81.3600618764777,41.348927670318],[-81.3599297148865,41.3489433634142],[-81.3597967385892,41.3489544818059],[-81.3596632263119,41.3489610021881],[-81.3595294579042,41.348962910894],[-81.3592562796326,41.3489622771714]]]},"properties":{"source_county":"Geauga","jurisdiction":"Bainbridge Township","parcel_id":"02-199550","owner_name":"KNOX BEVERLY J TRUSTEE","property_address":"7901 S RIVERSIDE DR","property_city":"AURORA","property_zip":"44202"}},{"type":"Feature","geometry":{"type":"Polygon","coordinates":[[[-81.3602196472531,41.3490717835077],[-81.3602726242413,41.3490625263821],[-81.3601447581251,41.3498718474559],[-81.3590884903914,41.3498674433299],[-81.3590914085174,41.3492797376546],[-81.3590969332093,41.3492529372001],[-81.3591082308223,41.3492271860877],[-81.3591249937952,41.3492031853393],[-81.3591467657849,41.3491815883257],[-81.3591729540898,41.3491629829808],[-81.3592028457851,41.3491478757956],[-81.3592356271312,41.3491366780313],[-81.3592704057248,41.3491296945228],[-81.3593062347936,41.3491271153812],[-81.3595284212824,41.349127589599],[-81.3596677084801,41.3491256915139],[-81.3598067472481,41.3491191444513],[-81.3599452644485,41.3491079612726],[-81.3600829879679,41.3490921639469],[-81.3602196472531,41.3490717835077]]]},"properties":{"source_county":"Geauga","jurisdiction":"Bainbridge Township","parcel_id":"02-232993","owner_name":"SUTTON TROY V & TELA","property_address":"19140 ELIZABETH LN","property_city":"AURORA","property_zip":"44202"}},{"type":"Feature","geometry":{"type":"Polygon","coordinates":[[[-81.3580470197579,41.3489591010009],[-81.3580479451505,41.3478577498495],[-81.3584079757887,41.3478633451538],[-81.3586524293988,41.3478671439701],[-81.3586524294088,41.347867418632],[-81.3586516511662,41.3489606051297],[-81.3580470197579,41.3489591010009]]]},"properties":{"source_county":"Geauga","jurisdiction":"Bainbridge Township","parcel_id":"02-234136","owner_name":"BADERTSCHER DUNCAN C & SHARON J","property_address":"7933 S RIVERSIDE DR","property_city":"AURORA","property_zip":"44202"}},{"type":"Feature","geometry":{"type":"Polygon","coordinates":[[[-81.3614183323239,41.3486867838458],[-81.3611677673736,41.3479068486779],[-81.3628599218889,41.3479335917538],[-81.3626570973679,41.3481434041697],[-81.3621461081351,41.3481352762623],[-81.3620915136045,41.3484858515434],[-81.3619566648955,41.3486253459258],[-81.361858700849,41.3486274469477],[-81.3617610690801,41.3486338750453],[-81.3616641058749,41.3486446080771],[-81.361568145217,41.3486596090742],[-81.3614183323239,41.3486867838458]]]},"properties":{"source_county":"Geauga","jurisdiction":"Bainbridge Township","parcel_id":"02-234141","owner_name":"GALLAGHER MARY ELLEN","property_address":"7845 S RIVERSIDE DR","property_city":"AURORA","property_zip":"44202"}},{"type":"Feature","geometry":{"type":"Polygon","coordinates":[[[-81.3619566648955,41.3486253459258],[-81.3620915136045,41.3484858515434],[-81.3621461081351,41.3481352762623],[-81.3626570973679,41.3481434041697],[-81.3628599218889,41.3479335917538],[-81.3630736008131,41.3479369446581],[-81.3640719322542,41.3479526049464],[-81.3640893819765,41.3479528869847],[-81.3631464125822,41.3483874321866],[-81.3624927698202,41.3486925458908],[-81.3623883589374,41.3486685348028],[-81.3622820818362,41.3486497396534],[-81.3621743968488,41.3486362414984],[-81.3620657683782,41.3486280985501],[-81.3619566648955,41.3486253459258]]]},"properties":{"source_county":"Geauga","jurisdiction":"Bainbridge Township","parcel_id":"02-234142","owner_name":"MCBRIDE BOGART L & AMANDA M","property_address":"7823 S RIVERSIDE DR","property_city":"AURORA","property_zip":"44202"}},{"type":"Feature","geometry":{"type":"Polygon","coordinates":[[[-81.3552136333857,41.3481990978878],[-81.3546163975906,41.3478258971707],[-81.3555347631111,41.3478318433805],[-81.3555520520216,41.3478319558167],[-81.3562225381192,41.3478362924324],[-81.3562219713568,41.3478378213353],[-81.3559550011935,41.3485581096093],[-81.3556609894294,41.3484466114371],[-81.3556318215964,41.3484329290821],[-81.3556059450451,41.3484158972941],[-81.3555840303184,41.3483959574223],[-81.3555666452941,41.3483736261733],[-81.3555578056336,41.348359012526],[-81.3555516871665,41.3483436283652],[-81.3555343263105,41.3483085250995],[-81.3555201162623,41.3482894860039],[-81.3555037708246,41.3482714461584],[-81.3554724562082,41.3482457822654],[-81.3554358523287,41.3482244599635],[-81.3553950052557,41.3482080886012],[-81.355351082318,41.3481971360387],[-81.3553053387439,41.3481919152777],[-81.3552590817905,41.3481925755168],[-81.3552136333857,41.3481990978878]]]},"properties":{"source_county":"Geauga","jurisdiction":"Bainbridge Township","parcel_id":"02-237670","owner_name":"BARTOSHEK JAYSON D & KELLY E","property_address":"8003 S RIVERSIDE DR","property_city":"AURORA","property_zip":"44202"}},{"type":"Feature","geometry":{"type":"Polygon","coordinates":[[[-81.3574423913672,41.3489574217416],[-81.3574434639397,41.3478481878028],[-81.3574448236175,41.3478482030274],[-81.3580479451505,41.3478577498495],[-81.3580470197579,41.3489591010009],[-81.3574423913672,41.3489574217416]]]},"properties":{"source_county":"Geauga","jurisdiction":"Bainbridge Township","parcel_id":"02-253250","owner_name":"ZIMMERMAN FRANK W","property_address":"7957 S RIVERSIDE DR","property_city":"AURORA","property_zip":"44202"}},{"type":"Feature","geometry":{"type":"Polygon","coordinates":[[[-81.3630142456737,41.3489121439425],[-81.3644338885889,41.3483089197223],[-81.3648202016327,41.3487081834118],[-81.3634311741455,41.3492948497119],[-81.3633741576375,41.3492246085951],[-81.3633135092573,41.3491551857216],[-81.3632468885734,41.349088944309],[-81.3631745885381,41.3490261756244],[-81.3630969270737,41.3489671556647],[-81.3630142456737,41.3489121439425]]]},"properties":{"source_county":"Geauga","jurisdiction":"Bainbridge Township","parcel_id":"02-262216","owner_name":"SCHUMANN ANTHONY I","property_address":"7791 S RIVERSIDE DR","property_city":"AURORA","property_zip":"44202"}},{"type":"Feature","geometry":{"type":"Polygon","coordinates":[[[-81.3622741799558,41.3490954500231],[-81.3626463237718,41.3489227328326],[-81.3627391103836,41.348964274724],[-81.3628275265947,41.349010916156],[-81.3629110798026,41.3490623972754],[-81.3629893044949,41.3491184312648],[-81.3630617648426,41.3491787059409],[-81.3631280571285,41.349242885493],[-81.3631878119964,41.3493106123542],[-81.3634936389137,41.3496875977344],[-81.3635098549784,41.3497132075548],[-81.363520004607,41.3497405330804],[-81.3635237872706,41.3497687652275],[-81.3635210909596,41.3497970680672],[-81.3635119955013,41.3498246035763],[-81.3634967701971,41.3498505564505],[-81.3634758658496,41.3498741582452],[-81.3634499014153,41.3498947101291],[-81.3634196456785,41.3499116035751],[-81.3634764048735,41.3499816962379],[-81.363201835146,41.3501081706092],[-81.3631064269113,41.3501521698305],[-81.3622741799558,41.3490954500231]]]},"properties":{"source_county":"Geauga","jurisdiction":"Bainbridge Township","parcel_id":"02-262232","owner_name":"OSBORNE KEVIN","property_address":"19145 BREWSTER RD","property_city":"AURORA","property_zip":"44202"}},{"type":"Feature","geometry":{"type":"Polygon","coordinates":[[[-81.3640357220397,41.3497239663911],[-81.363978683578,41.3496537613957],[-81.3639449487783,41.3496664074848],[-81.3639088376695,41.3496745117101],[-81.3638714179532,41.3496778344528],[-81.3638337960236,41.3496762774688],[-81.3637970842537,41.3496698867938],[-81.3637623681055,41.3496588513818],[-81.3637306740345,41.3496434975181],[-81.3637029391407,41.3496242791722],[-81.3636799834602,41.3496017645746],[-81.3634311741455,41.3492948497119],[-81.3648202016327,41.3487081834118],[-81.3651933366344,41.3490938202776],[-81.3652558975587,41.3491615033105],[-81.3640357220397,41.3497239663911]]]},"properties":{"source_county":"Geauga","jurisdiction":"Bainbridge Township","parcel_id":"02-262233","owner_name":"KING BRIAN & STULL JENNIFER","property_address":"7787 S RIVERSIDE DR","property_city":"AURORA","property_zip":"44202"}},{"type":"Feature","geometry":{"type":"Polygon","coordinates":[[[-81.3640893907386,41.3479528870707],[-81.3644338885889,41.3483089197223],[-81.3630142456737,41.3489121439425],[-81.3629189289387,41.3488570828548],[-81.362818588448,41.3488073479124],[-81.3627137472949,41.3487631983875],[-81.3626049520317,41.3487248644346],[-81.3624927698202,41.3486925458908],[-81.3631464125822,41.3483874321866],[-81.3640893907386,41.3479528870707]]]},"properties":{"source_county":"Geauga","jurisdiction":"Bainbridge Township","parcel_id":"02-262234","owner_name":"WODARCZYK RICHARD J & TRACY R","property_address":"7799 S RIVERSIDE DR","property_city":"AURORA","property_zip":"44202"}},{"type":"Feature","geometry":{"type":"Polygon","coordinates":[[[-81.3562225381192,41.3478362924324],[-81.3570146843048,41.3478413738137],[-81.3570133640878,41.3478447926969],[-81.3566380168887,41.3488170403951],[-81.3559550011935,41.3485581096093],[-81.3562219713568,41.3478378213353],[-81.3562225381192,41.3478362924324]]]},"properties":{"source_county":"Geauga","jurisdiction":"Bainbridge Township","parcel_id":"02-266800","owner_name":"FINNEGAN SCOTT P & MEREDITH O","property_address":"7989 S RIVERSIDE DR","property_city":"AURORA","property_zip":"44202"}},{"type":"Feature","geometry":{"type":"Polygon","coordinates":[[[-81.3547303302636,41.3495964063292],[-81.355052171484,41.3491038072898],[-81.3555190898236,41.3491929647101],[-81.3563890897865,41.349359084765],[-81.3563109670231,41.3497666050935],[-81.3555244575076,41.3496819184556],[-81.3547303302636,41.3495964063292]]]},"properties":{"source_county":"Geauga","jurisdiction":"Bainbridge Township","parcel_id":"02-273550","owner_name":"FRANK NICHOLAS A & SARAH A","property_address":"19139 CASCADE CT","property_city":"AURORA","property_zip":"44202"}},{"type":"Feature","geometry":{"type":"Polygon","coordinates":[[[-81.3577046510448,41.3496909907222],[-81.3588702212548,41.3496937404652],[-81.3588677687511,41.3502545167374],[-81.357702182617,41.3502521109134],[-81.3577040272238,41.3498316572638],[-81.3577046510448,41.3496909907222]]]},"properties":{"source_county":"Geauga","jurisdiction":"Bainbridge Township","parcel_id":"02-279930","owner_name":"MALLINOS GEORGE & MOORE MALLINOS JENNIFER","property_address":"19123 ELIZABETH LN","property_city":"AURORA","property_zip":"44202"}},{"type":"Feature","geometry":{"type":"Polygon","coordinates":[[[-81.3535976705785,41.348490179225],[-81.3545557255803,41.3481198504295],[-81.3550434997303,41.3483048706628],[-81.3550266172749,41.3483364941783],[-81.355016892141,41.3483697836313],[-81.3550145910502,41.3484038260626],[-81.3550197771211,41.3484376878611],[-81.3550323081374,41.3484704403683],[-81.3550518404466,41.3485011853467],[-81.3550778383834,41.3485290796139],[-81.353611873827,41.3494508368592],[-81.3535976705785,41.348490179225]]]},"properties":{"source_county":"Geauga","jurisdiction":"Bainbridge Township","parcel_id":"02-280350","owner_name":"SANTORA MICHAEL T & JILL M TRUSTEES","property_address":"8030 S RIVERSIDE DR","property_city":"AURORA","property_zip":"44202"}},{"type":"Feature","geometry":{"type":"Polygon","coordinates":[[[-81.3532333701329,41.3484930889269],[-81.3535976705785,41.348490179225],[-81.353611873827,41.3494508368592],[-81.3532475680571,41.3494537466051],[-81.3532333701329,41.3484930889269]]]},"properties":{"source_county":"Geauga","jurisdiction":"Bainbridge Township","parcel_id":"02-280360","owner_name":"SANTORA MICHAEL T & JILL M TRUSTEES","property_address":" S RIVERSIDE DR","property_city":"AURORA","property_zip":"44202"}},{"type":"Feature","geometry":{"type":"Polygon","coordinates":[[[-81.3600618764777,41.348927670318],[-81.3596747667771,41.3478833977445],[-81.3600659795725,41.3478894707354],[-81.3602191673163,41.3478918485358],[-81.3602191929154,41.3478918884113],[-81.3608090423061,41.3487965852995],[-81.3605614608274,41.3488449615859],[-81.3603123537969,41.3488886656721],[-81.3600618764777,41.348927670318]]]},"properties":{"source_county":"Geauga","jurisdiction":"Bainbridge Township","parcel_id":"02-293640","owner_name":"HODGE PHILIP C & BRENDA F TRUSTEES","property_address":"7889 S RIVERSIDE DR","property_city":"AURORA","property_zip":"44202"}},{"type":"Feature","geometry":{"type":"Polygon","coordinates":[[[-81.3570133640878,41.3478447926969],[-81.3570146843048,41.3478413738137],[-81.3574434639397,41.3478481878028],[-81.3574423913672,41.3489574217416],[-81.3573440455987,41.3489573089914],[-81.3572386858192,41.3489542892868],[-81.357133901916,41.3489454668401],[-81.3570302559545,41.3489308889754],[-81.3569283038955,41.3489106338889],[-81.356828592612,41.3488848102296],[-81.356731656956,41.3488535565165],[-81.3566380168887,41.3488170403951],[-81.3570133640878,41.3478447926969]]]},"properties":{"source_county":"Geauga","jurisdiction":"Bainbridge Township","parcel_id":"02-319330","owner_name":"RUNO SUSAN B TOD","property_address":"7977 S RIVERSIDE DR","property_city":"AURORA","property_zip":"44202"}},{"type":"Feature","geometry":{"type":"Polygon","coordinates":[[[-81.3655673516508,41.3490179289099],[-81.3645469564898,41.3479588225979],[-81.3675326471972,41.3479974986388],[-81.36753269738,41.3479974991299],[-81.3677740896827,41.3480006237462],[-81.3655673516508,41.3490179289099]]]},"properties":{"source_county":"Geauga","jurisdiction":"Bainbridge Township","parcel_id":"02-323800","owner_name":"ICP GEAUGA LAKE LLC","property_address":" BREWSTER RD","property_city":"AURORA","property_zip":"44202"}},{"type":"Feature","geometry":{"type":"Polygon","coordinates":[[[-81.3640357220397,41.3497239663911],[-81.3650231926532,41.3492687437884],[-81.3650247951697,41.3509314439798],[-81.363201835146,41.3501081706092],[-81.3634764048735,41.3499816962379],[-81.3640357220397,41.3497239663911]]]},"properties":{"source_county":"Geauga","jurisdiction":"Bainbridge Township","parcel_id":"02-323900","owner_name":"ICP GEAUGA LAKE LLC","property_address":" BREWSTER RD","property_city":"AURORA","property_zip":"44202"}},{"type":"Feature","geometry":{"type":"Polygon","coordinates":[[[-81.3545544066136,41.349867432372],[-81.3547303302636,41.3495964063292],[-81.3555244575076,41.3496819184556],[-81.3563109670231,41.3497666050935],[-81.3562738402892,41.349963864956],[-81.3562655883613,41.3499901292621],[-81.356251826936,41.3500150480713],[-81.3562329158042,41.3500379698735],[-81.3562093493991,41.3500582953701],[-81.356181743869,41.3500754931436],[-81.3561516992355,41.3500926389035],[-81.3561250854122,41.350112747423],[-81.3561024125939,41.3501354332183],[-81.3560841154273,41.3501602613983],[-81.355532098922,41.3501728262598],[-81.3546115528711,41.3501937738275],[-81.3545544066136,41.349867432372]]]},"properties":{"source_county":"Geauga","jurisdiction":"Bainbridge Township","parcel_id":"02-336150","owner_name":"SMITH ANTONIA M TOD & WAYNE A TOD","property_address":"19121 CASCADE CT","property_city":"AURORA","property_zip":"44202"}},{"type":"Feature","geometry":{"type":"Polygon","coordinates":[[[-81.3602191929154,41.3478918884113],[-81.3602191673163,41.3478918485358],[-81.36116662883,41.34790683027],[-81.3611677673736,41.3479068486779],[-81.3614183323239,41.3486867838458],[-81.3608090423061,41.3487965852995],[-81.3602191929154,41.3478918884113]]]},"properties":{"source_county":"Geauga","jurisdiction":"Bainbridge Township","parcel_id":"02-336600","owner_name":"VAVREK STEVEN & MELINDA","property_address":"7867 S RIVERSIDE DR","property_city":"AURORA","property_zip":"44202"}},{"type":"Feature","geometry":{"type":"Polygon","coordinates":[[[-81.361173834629,41.3496061234871],[-81.361737240484,41.3493446473652],[-81.3626423248436,41.3503662511763],[-81.3623622174168,41.3504954211714],[-81.3621799709067,41.3505794122153],[-81.361173834629,41.3496061234871]]]},"properties":{"source_county":"Geauga","jurisdiction":"Bainbridge Township","parcel_id":"02-367050","owner_name":"JABG LIMITED LLC","property_address":"19121 BREWSTER RD","property_city":"AURORA","property_zip":"44202"}},{"type":"Feature","geometry":{"type":"Polygon","coordinates":[[[-81.3569121362134,41.3490775898599],[-81.3570181513235,41.3490967217772],[-81.3571256183924,41.3491105066461],[-81.3572340630204,41.3491188836152],[-81.3573430064912,41.3491218157052],[-81.3577081521329,41.349122847501],[-81.3577046510448,41.3496909907222],[-81.3577040272238,41.3498316572638],[-81.3565363108934,41.3497427559931],[-81.3566375026958,41.3492129760031],[-81.3566459409248,41.349185794203],[-81.3566603350291,41.3491600719897],[-81.3566802735997,41.3491365445376],[-81.3567051867613,41.3491158842913],[-81.3567343624603,41.3490986817465],[-81.3567669668169,41.3490854285728],[-81.3568020679575,41.3490765035619],[-81.3568386626491,41.3490721618013],[-81.3568757049721,41.3490725273835],[-81.3569121362134,41.3490775898599]]]},"properties":{"source_county":"Geauga","jurisdiction":"Bainbridge Township","parcel_id":"02-371250","owner_name":"CHURCHILL TERRANCE S","property_address":"19154 CASCADE CT","property_city":"AURORA","property_zip":"44202"}},{"type":"Feature","geometry":{"type":"Polygon","coordinates":[[[-81.3555340733199,41.348585187225],[-81.3555528546507,41.3485903312736],[-81.3563290534207,41.3488843235321],[-81.3563581938545,41.3488975834607],[-81.3563842446562,41.3489140957101],[-81.3564065724598,41.3489334588242],[-81.3564246344139,41.3489552020343],[-81.3564379913798,41.3489787967052],[-81.3564463186085,41.3490036691868],[-81.3564494136368,41.3490292147614],[-81.3564472012097,41.3490548123461],[-81.3563890897865,41.349359084765],[-81.3555190898236,41.3491929647101],[-81.355052171484,41.3491038072898],[-81.3553889768407,41.3485883674947],[-81.3554244629808,41.3485806346048],[-81.355461166587,41.3485774897189],[-81.3554980507148,41.3485790216859],[-81.3555340733199,41.348585187225]]]},"properties":{"source_county":"Geauga","jurisdiction":"Bainbridge Township","parcel_id":"02-386370","owner_name":"LETIZIA KRISTINE M & THOMAS A TRUSTEES","property_address":"8000 S RIVERSIDE DR","property_city":"AURORA","property_zip":"44202"}},{"type":"Feature","geometry":{"type":"Polygon","coordinates":[[[-81.3678968138145,41.3480021161011],[-81.3723567022599,41.3480580806836],[-81.3717433854534,41.34832064339],[-81.3710828887851,41.3483301642165],[-81.3710512652262,41.3488520713257],[-81.3706568566246,41.3493537907339],[-81.3680982204363,41.34922923321],[-81.3678862238775,41.3480456566491],[-81.3678968138145,41.3480021161011]]]},"properties":{"source_county":"Geauga","jurisdiction":"Bainbridge Township","parcel_id":"02-324300","owner_name":"CITY OF AURORA","property_address":" BREWSTER RD","property_city":"AURORA","property_zip":"44202"}}]}