{"type":"FeatureCollection","features":[{"type":"Feature","geometry":{"type":"Polygon","coordinates":[[[-81.2818260592681,41.347447353639],[-81.2823722863328,41.3474445603876],[-81.282089926515,41.3488078395773],[-81.2815986364153,41.3488098880043],[-81.2815436056215,41.3488101173183],[-81.2816010664507,41.3485328864831],[-81.2816587866041,41.3482544047814],[-81.2818260592681,41.347447353639]]]},"properties":{"source_county":"Geauga","jurisdiction":"Auburn Township","parcel_id":"01-014660","owner_name":"TILLOTSON JOHN B TRUSTEE","property_address":"10098 CRACKEL RD","property_city":"AUBURN TOWNSHIP","property_zip":"44023"}},{"type":"Feature","geometry":{"type":"Polygon","coordinates":[[[-81.2938282076454,41.3473548956411],[-81.2942165650455,41.3473497652261],[-81.2942166431411,41.3474321347788],[-81.2942123328294,41.3487647925169],[-81.2942110017696,41.3491764789895],[-81.2942096694982,41.3495881654057],[-81.2942083383884,41.3499998526905],[-81.2942070072785,41.350411539031],[-81.2942056749571,41.3508232253148],[-81.2942052316318,41.3509604546748],[-81.2942038992881,41.3513721408997],[-81.2942019469771,41.3519759477822],[-81.2941999360092,41.352597538688],[-81.2941921319749,41.3525975960652],[-81.2909948747822,41.3526212410003],[-81.2899410784388,41.3526290106975],[-81.2899787111441,41.3501271229872],[-81.2900140054712,41.3474783734703],[-81.2900149810253,41.3474052021864],[-81.2907074613853,41.3473960756563],[-81.2938282076454,41.3473548956411]]]},"properties":{"source_county":"Geauga","jurisdiction":"Auburn Township","parcel_id":"01-083700","owner_name":"SCHAEFER TERRI TRUSTEE","property_address":" CRACKEL RD","property_city":"AUBURN TOWNSHIP","property_zip":"44023"}},{"type":"Feature","geometry":{"type":"Polygon","coordinates":[[[-81.2786072039542,41.3494694311988],[-81.2803273485441,41.3494578264337],[-81.2802415438061,41.3498705279524],[-81.2801310373139,41.3498700701463],[-81.2785226323528,41.3498761586734],[-81.2786072039542,41.3494694311988]]]},"properties":{"source_county":"Geauga","jurisdiction":"Auburn Township","parcel_id":"01-089201","owner_name":"CLAWSON JEFFREY P & SECURA CLAWSON CAROLYN A TRUSTEES","property_address":"10151 SABLEWOOD DR","property_city":"AUBURN TOWNSHIP","property_zip":"44023"}},{"type":"Feature","geometry":{"type":"Polygon","coordinates":[[[-81.2786917745089,41.3490627036194],[-81.2804112705546,41.349054173426],[-81.2803273485441,41.3494578264337],[-81.2786072039542,41.3494694311988],[-81.2786917745089,41.3490627036194]]]},"properties":{"source_county":"Geauga","jurisdiction":"Auburn Township","parcel_id":"01-089202","owner_name":"SECURA MATTHEW ROBERT TOD","property_address":"19135 MUNN RD","property_city":"AUBURN TOWNSHIP","property_zip":"44023"}},{"type":"Feature","geometry":{"type":"Polygon","coordinates":[[[-81.2787763440336,41.3486559750349],[-81.2804954067497,41.3486494842591],[-81.2804112705546,41.349054173426],[-81.2786917745089,41.3490627036194],[-81.2787763440336,41.3486559750349]]]},"properties":{"source_county":"Geauga","jurisdiction":"Auburn Township","parcel_id":"01-089203","owner_name":"SECURA WILLIAM MARK & RINI RENE MICHELLE","property_address":"19155 MUNN RD","property_city":"AUBURN TOWNSHIP","property_zip":"44023"}},{"type":"Feature","geometry":{"type":"Polygon","coordinates":[[[-81.2816105799597,41.3474484550951],[-81.2818260592681,41.347447353639],[-81.2816587866041,41.3482544047814],[-81.2816035081711,41.3482546089985],[-81.2805767154835,41.3482583912956],[-81.2807446664513,41.347450538237],[-81.2816105799597,41.3474484550951]]]},"properties":{"source_county":"Geauga","jurisdiction":"Auburn Township","parcel_id":"01-093500","owner_name":"FUSCO STACEY & KOVACH JOSHUA","property_address":"19192 MUNN RD","property_city":"AUBURN TOWNSHIP","property_zip":"44023"}},{"type":"Feature","geometry":{"type":"Polygon","coordinates":[[[-81.2801801325992,41.3501658974704],[-81.2802415438061,41.3498705279524],[-81.2805767154835,41.3482583912956],[-81.2816035081711,41.3482546089985],[-81.2816587866041,41.3482544047814],[-81.2816010664507,41.3485328864831],[-81.2815436056215,41.3488101173183],[-81.2815986364153,41.3488098880043],[-81.282089926515,41.3488078395773],[-81.2823722863328,41.3474445603876],[-81.2851991965559,41.3474300614574],[-81.2852209195131,41.3501464804854],[-81.2847412678306,41.3501484213704],[-81.2840128252637,41.3501513649057],[-81.2832843826316,41.3501543038565],[-81.2825559387562,41.3501572373096],[-81.2815867820397,41.3501611344594],[-81.2801799501698,41.3501667762765],[-81.2801801325992,41.3501658974704]]]},"properties":{"source_county":"Geauga","jurisdiction":"Auburn Township","parcel_id":"01-093700","owner_name":"NKE ENTERPRISES LLC","property_address":"19122 MUNN RD","property_city":"AUBURN TOWNSHIP","property_zip":"44023"}},{"type":"Feature","geometry":{"type":"Polygon","coordinates":[[[-81.2983740451803,41.3474127456984],[-81.2983741264435,41.3474127456416],[-81.2983749917968,41.3479484743312],[-81.2983749979234,41.3479521260793],[-81.2983762738385,41.3487426492278],[-81.2983716318392,41.3487426712722],[-81.2983713557679,41.348742672008],[-81.2981502049502,41.3487437057877],[-81.2978311594179,41.3483335269414],[-81.2978326146674,41.3478755937929],[-81.2978340788603,41.3474152760561],[-81.2983737547605,41.3474127471856],[-81.2983740451803,41.3474127456984]]]},"properties":{"source_county":"Geauga","jurisdiction":"Auburn Township","parcel_id":"01-117111","owner_name":"MILLER ERICA M","property_address":"9680 CRACKEL RD","property_city":"AUBURN TOWNSHIP","property_zip":"44023"}},{"type":"Feature","geometry":{"type":"Polygon","coordinates":[[[-81.2965522162393,41.3474212715637],[-81.2978340788603,41.3474152760561],[-81.2978326146674,41.3478755937929],[-81.2964063187112,41.3478822495427],[-81.296407444978,41.3475307790681],[-81.2964102839005,41.3475094846369],[-81.2964185513624,41.3474890098864],[-81.2964319331741,41.34747013291],[-81.2964499207886,41.3474535710809],[-81.296471830628,41.3474399537903],[-81.2964968300617,41.3474297985292],[-81.2965239690483,41.3474234912226],[-81.2965522162393,41.3474212715637]]]},"properties":{"source_county":"Geauga","jurisdiction":"Auburn Township","parcel_id":"01-117112","owner_name":"THOMPSON SHAWN T TOD","property_address":"19194 BROOKFIELD DR","property_city":"AUBURN TOWNSHIP","property_zip":"44023"}},{"type":"Feature","geometry":{"type":"Polygon","coordinates":[[[-81.2964063187112,41.3478822495427],[-81.2978326146674,41.3478755937929],[-81.2978311594179,41.3483335269414],[-81.2964048499555,41.3483401817346],[-81.2964063187112,41.3478822495427]]]},"properties":{"source_county":"Geauga","jurisdiction":"Auburn Township","parcel_id":"01-117113","owner_name":"BRYAN CHAD & ANSELMO BRYAN LISA","property_address":"19176 BROOKFIELD DR","property_city":"AUBURN TOWNSHIP","property_zip":"44023"}},{"type":"Feature","geometry":{"type":"Polygon","coordinates":[[[-81.2964048499555,41.3483401817346],[-81.2978311594179,41.3483335269414],[-81.2981502049502,41.3487437057877],[-81.2964035292354,41.3487518583365],[-81.2964048499555,41.3483401817346]]]},"properties":{"source_county":"Geauga","jurisdiction":"Auburn Township","parcel_id":"01-117114","owner_name":"KOPROWSKI MARTIN A TOD & MILICA TOD","property_address":"19160 BROOKFIELD DR","property_city":"AUBURN TOWNSHIP","property_zip":"44023"}},{"type":"Feature","geometry":{"type":"Polygon","coordinates":[[[-81.2983716318392,41.3487426712722],[-81.2983762738385,41.3487426492278],[-81.298375003513,41.34915433611],[-81.2983708598796,41.3491543552243],[-81.2983706136774,41.3491543562702],[-81.2964022095122,41.3491635448108],[-81.2964035292354,41.3487518583365],[-81.2981502049502,41.3487437057877],[-81.2983713557679,41.348742672008],[-81.2983716318392,41.3487426712722]]]},"properties":{"source_county":"Geauga","jurisdiction":"Auburn Township","parcel_id":"01-117115","owner_name":"BRAUND THOMAS A & MONTEMARANO DONA","property_address":"19146 BROOKFIELD DR","property_city":"AUBURN TOWNSHIP","property_zip":"44023"}},{"type":"Feature","geometry":{"type":"Polygon","coordinates":[[[-81.2983708598796,41.3491543552243],[-81.298375003513,41.34915433611],[-81.2983737319769,41.3495660229358],[-81.298370086699,41.3495660400203],[-81.2983698703664,41.3495660413763],[-81.2964008885776,41.3495752312285],[-81.2964022095122,41.3491635448108],[-81.2983706136774,41.3491543562702],[-81.2983708598796,41.3491543552243]]]},"properties":{"source_county":"Geauga","jurisdiction":"Auburn Township","parcel_id":"01-117116","owner_name":"EMERY JACOB & AMANDA MARIE","property_address":"19130 BROOKFIELD DR","property_city":"AUBURN TOWNSHIP","property_zip":"44023"}},{"type":"Feature","geometry":{"type":"Polygon","coordinates":[[[-81.298370086699,41.3495660400203],[-81.2983737319769,41.3495660229358],[-81.2983724616196,41.3499777097298],[-81.2983693147035,41.3499777247847],[-81.2983691270625,41.349977725538],[-81.2963995688048,41.349986918515],[-81.2964008885776,41.3495752312285],[-81.2983698703664,41.3495660413763],[-81.298370086699,41.3495660400203]]]},"properties":{"source_county":"Geauga","jurisdiction":"Auburn Township","parcel_id":"01-117117","owner_name":"BROWNLOW JOHN M JR & THERESA L","property_address":"19114 BROOKFIELD DR","property_city":"AUBURN TOWNSHIP","property_zip":"44023"}},{"type":"Feature","geometry":{"type":"Polygon","coordinates":[[[-81.2942096694982,41.3495881654057],[-81.2961823643128,41.3495748135109],[-81.296181044366,41.3499865008074],[-81.2942083383884,41.3499998526905],[-81.2942096694982,41.3495881654057]]]},"properties":{"source_county":"Geauga","jurisdiction":"Auburn Township","parcel_id":"01-117131","owner_name":"BOHINC MICHAEL A","property_address":"19111 BROOKFIELD DR","property_city":"AUBURN TOWNSHIP","property_zip":"44023"}},{"type":"Feature","geometry":{"type":"Polygon","coordinates":[[[-81.2942110017696,41.3491764789895],[-81.2961836854214,41.3491631270832],[-81.2961823643128,41.3495748135109],[-81.2942096694982,41.3495881654057],[-81.2942110017696,41.3491764789895]]]},"properties":{"source_county":"Geauga","jurisdiction":"Auburn Township","parcel_id":"01-117132","owner_name":"ZACK STEVEN & HAIDI","property_address":"19133 BROOKFIELD DR","property_city":"AUBURN TOWNSHIP","property_zip":"44023"}},{"type":"Feature","geometry":{"type":"Polygon","coordinates":[[[-81.2944383951242,41.3487632635913],[-81.2961850053187,41.3487514405989],[-81.2961836854214,41.3491631270832],[-81.2942110017696,41.3491764789895],[-81.2942123328294,41.3487647925169],[-81.2944383951242,41.3487632635913]]]},"properties":{"source_county":"Geauga","jurisdiction":"Auburn Township","parcel_id":"01-117133","owner_name":"LUNDSTROM ROY A JR & VALERIE","property_address":"19145 BROOKFIELD DR","property_city":"AUBURN TOWNSHIP","property_zip":"44023"}},{"type":"Feature","geometry":{"type":"Polygon","coordinates":[[[-81.2947599970591,41.3483494106115],[-81.2961863264106,41.3483397531826],[-81.2961850053187,41.3487514405989],[-81.2944383951242,41.3487632635913],[-81.2947599970591,41.3483494106115]]]},"properties":{"source_county":"Geauga","jurisdiction":"Auburn Township","parcel_id":"01-117134","owner_name":"PAPARONE FRANK E & IRENE A","property_address":"19159 BROOKFIELD DR","property_city":"AUBURN TOWNSHIP","property_zip":"44023"}},{"type":"Feature","geometry":{"type":"Polygon","coordinates":[[[-81.294761473708,41.3478914775038],[-81.2961877955107,41.3478818200806],[-81.2961863264106,41.3483397531826],[-81.2947599970591,41.3483494106115],[-81.294761473708,41.3478914775038]]]},"properties":{"source_county":"Geauga","jurisdiction":"Auburn Township","parcel_id":"01-117135","owner_name":"KYNKOR MICHAEL T & KAREN","property_address":"19175 BROOKFIELD DR","property_city":"AUBURN TOWNSHIP","property_zip":"44023"}},{"type":"Feature","geometry":{"type":"Polygon","coordinates":[[[-81.2960423290292,41.347423647074],[-81.2960709204725,41.3474256467893],[-81.2960984360798,41.347431833585],[-81.2961238069393,41.34744196712],[-81.2961460474558,41.3474556537318],[-81.2961642936386,41.3474723617298],[-81.2961778366654,41.3474914420495],[-81.2961861504185,41.3475121534672],[-81.2961889119234,41.3475336913941],[-81.2961877955107,41.3478818200806],[-81.294761473708,41.3478914775038],[-81.2947629641476,41.3474295983222],[-81.2960423290292,41.347423647074]]]},"properties":{"source_county":"Geauga","jurisdiction":"Auburn Township","parcel_id":"01-117136","owner_name":"POLO JULIANNA","property_address":"19195 BROOKFIELD DR","property_city":"AUBURN TOWNSHIP","property_zip":"44023"}},{"type":"Feature","geometry":{"type":"Polygon","coordinates":[[[-81.2942166431411,41.3474321347788],[-81.2947629641476,41.3474295983222],[-81.294761473708,41.3478914775038],[-81.2947599970591,41.3483494106115],[-81.2944383951242,41.3487632635913],[-81.2942123328294,41.3487647925169],[-81.2942166431411,41.3474321347788]]]},"properties":{"source_county":"Geauga","jurisdiction":"Auburn Township","parcel_id":"01-117137","owner_name":"BRAUN CHRISTINE A TOD","property_address":"9784 CRACKEL RD","property_city":"AUBURN TOWNSHIP","property_zip":"44023"}},{"type":"Feature","geometry":{"type":"Polygon","coordinates":[[[-81.2900132420897,41.3474052110214],[-81.2900149810253,41.3474052021864],[-81.2900140054712,41.3474783734703],[-81.2899787111441,41.3501271229872],[-81.2863438586927,41.3501419296376],[-81.2852209195131,41.3501464804854],[-81.2851991965559,41.3474300614574],[-81.2899525632768,41.3474055257529],[-81.2900132420897,41.3474052110214]]]},"properties":{"source_county":"Geauga","jurisdiction":"Auburn Township","parcel_id":"01-117734","owner_name":"FOGARTY MARK ALBERT TOD & KAREN MARIE TOD","property_address":" CRACKEL RD","property_city":"AUBURN TOWNSHIP","property_zip":"44023"}},{"type":"Feature","geometry":{"type":"Polygon","coordinates":[[[-81.2749016732654,41.3486681805999],[-81.2763588265537,41.3486636054254],[-81.2763334997353,41.3498696175568],[-81.2752729354943,41.3498569654488],[-81.2752335383813,41.349854337805],[-81.2751950577642,41.3498474506742],[-81.2751583003124,41.3498364484314],[-81.275124036572,41.3498215617167],[-81.2750929848119,41.3498031026004],[-81.2750657959667,41.3497814580405],[-81.2750430399912,41.3497570817712],[-81.2750251939125,41.3497304847909],[-81.2750017883213,41.3496971986987],[-81.2749707246896,41.3496676841668],[-81.2749330433876,41.3496429296748],[-81.2748900064154,41.3496237642814],[-81.2749016732654,41.3486681805999]]]},"properties":{"source_county":"Geauga","jurisdiction":"Auburn Township","parcel_id":"01-117817","owner_name":"PAULEY GLEN W & SHEENA DEE","property_address":"10255 SABLEWOOD DR","property_city":"AUBURN TOWNSHIP","property_zip":"44023"}},{"type":"Feature","geometry":{"type":"Polygon","coordinates":[[[-81.2763588265537,41.3486636054254],[-81.2774516925772,41.3486601622427],[-81.2774260388427,41.3498826409481],[-81.2763334997353,41.3498696175568],[-81.2763588265537,41.3486636054254]]]},"properties":{"source_county":"Geauga","jurisdiction":"Auburn Township","parcel_id":"01-117818","owner_name":"NEVIN BRUCE K & ROBERT W","property_address":"10223 SABLEWOOD DR","property_city":"AUBURN TOWNSHIP","property_zip":"44023"}},{"type":"Feature","geometry":{"type":"Polygon","coordinates":[[[-81.2774516925772,41.3486601622427],[-81.2787763440336,41.3486559750349],[-81.2786917745089,41.3490627036194],[-81.2786072039542,41.3494694311988],[-81.2785226323528,41.3498761586734],[-81.2785185783662,41.3498956549264],[-81.2774260388427,41.3498826409481],[-81.2774516925772,41.3486601622427]]]},"properties":{"source_county":"Geauga","jurisdiction":"Auburn Township","parcel_id":"01-117819","owner_name":"ORR SHERRI J TOD & HAROLD SCOT TOD","property_address":"10177 SABLEWOOD DR","property_city":"AUBURN TOWNSHIP","property_zip":"44023"}},{"type":"Feature","geometry":{"type":"Polygon","coordinates":[[[-81.2790688435187,41.347454551907],[-81.2807446664513,41.347450538237],[-81.2806201585358,41.3480494263823],[-81.2802559211491,41.3480506049452],[-81.2802579002373,41.3483975169891],[-81.2790742117173,41.3484013396887],[-81.2790688435187,41.347454551907]]]},"properties":{"source_county":"Geauga","jurisdiction":"Auburn Township","parcel_id":"01-118087","owner_name":"TOTH TIMOTHY J & CYNTHIA M","property_address":" MUNN RD","property_city":"AUBURN TOWNSHIP","property_zip":"44023"}},{"type":"Feature","geometry":{"type":"Polygon","coordinates":[[[-81.2733266956296,41.3486731041954],[-81.2733512133951,41.3474599725095],[-81.2790688435187,41.347454551907],[-81.2790742117173,41.3484013396887],[-81.2802579002373,41.3483975169891],[-81.2802559211491,41.3480506049452],[-81.2806201585358,41.3480494263823],[-81.2804954067497,41.3486494842591],[-81.2787763440336,41.3486559750349],[-81.2774516925772,41.3486601622427],[-81.2763588265537,41.3486636054254],[-81.2749016732654,41.3486681805999],[-81.2733266956296,41.3486731041954]]]},"properties":{"source_county":"Geauga","jurisdiction":"Auburn Township","parcel_id":"01-118101","owner_name":"TOTH TIMOTHY J & CYNTHIA M","property_address":"19165 MUNN RD","property_city":"AUBURN TOWNSHIP","property_zip":"44023"}},{"type":"Feature","geometry":{"type":"Polygon","coordinates":[[[-81.2818260592698,41.3474473536419],[-81.2823722863344,41.3474445603905],[-81.2820899265167,41.3488078395801],[-81.281598636417,41.3488098880071],[-81.2815436056232,41.3488101173212],[-81.2816010664524,41.3485328864859],[-81.2816587866058,41.3482544047842],[-81.2818260592698,41.3474473536419]]]},"properties":{"source_county":"Geauga","jurisdiction":"Auburn Township","parcel_id":"01-014660","owner_name":"TILLOTSON JOHN B TRUSTEE","property_address":"10098 CRACKEL RD","property_city":"AUBURN TOWNSHIP","property_zip":"44023"}},{"type":"Feature","geometry":{"type":"Polygon","coordinates":[[[-81.293828207647,41.3473548956439],[-81.2942165650472,41.3473497652289],[-81.2942166431427,41.3474321347816],[-81.2942123328311,41.3487647925197],[-81.2942110017712,41.3491764789924],[-81.2942096694998,41.3495881654086],[-81.2942083383901,41.3499998526934],[-81.2942070072802,41.3504115390338],[-81.2942056749588,41.3508232253176],[-81.2942052316334,41.3509604546776],[-81.2942038992898,41.3513721409025],[-81.2942019469788,41.351975947785],[-81.2941999360108,41.3525975386908],[-81.2941921319766,41.352597596068],[-81.2909948747839,41.3526212410031],[-81.2899410784405,41.3526290107004],[-81.2899787111458,41.35012712299],[-81.2900140054729,41.3474783734731],[-81.290014981027,41.3474052021893],[-81.2907074613869,41.3473960756592],[-81.293828207647,41.3473548956439]]]},"properties":{"source_county":"Geauga","jurisdiction":"Auburn Township","parcel_id":"01-083700","owner_name":"SCHAEFER TERRI TRUSTEE","property_address":" CRACKEL RD","property_city":"AUBURN TOWNSHIP","property_zip":"44023"}},{"type":"Feature","geometry":{"type":"Polygon","coordinates":[[[-81.2786072039559,41.3494694312016],[-81.2803273485458,41.3494578264365],[-81.2802415438077,41.3498705279552],[-81.2801310373155,41.3498700701491],[-81.2785226323544,41.3498761586762],[-81.2786072039559,41.3494694312016]]]},"properties":{"source_county":"Geauga","jurisdiction":"Auburn Township","parcel_id":"01-089201","owner_name":"CLAWSON JEFFREY P & SECURA CLAWSON CAROLYN A TRUSTEES","property_address":"10151 SABLEWOOD DR","property_city":"AUBURN TOWNSHIP","property_zip":"44023"}},{"type":"Feature","geometry":{"type":"Polygon","coordinates":[[[-81.2786917745106,41.3490627036222],[-81.2804112705563,41.3490541734289],[-81.2803273485458,41.3494578264365],[-81.2786072039559,41.3494694312016],[-81.2786917745106,41.3490627036222]]]},"properties":{"source_county":"Geauga","jurisdiction":"Auburn Township","parcel_id":"01-089202","owner_name":"SECURA MATTHEW ROBERT TOD","property_address":"19135 MUNN RD","property_city":"AUBURN TOWNSHIP","property_zip":"44023"}},{"type":"Feature","geometry":{"type":"Polygon","coordinates":[[[-81.2787763440352,41.3486559750377],[-81.2804954067513,41.3486494842619],[-81.2804112705563,41.3490541734289],[-81.2786917745106,41.3490627036222],[-81.2787763440352,41.3486559750377]]]},"properties":{"source_county":"Geauga","jurisdiction":"Auburn Township","parcel_id":"01-089203","owner_name":"SECURA WILLIAM MARK & RINI RENE MICHELLE","property_address":"19155 MUNN RD","property_city":"AUBURN TOWNSHIP","property_zip":"44023"}},{"type":"Feature","geometry":{"type":"Polygon","coordinates":[[[-81.2816105799614,41.3474484550979],[-81.2818260592698,41.3474473536419],[-81.2816587866058,41.3482544047842],[-81.2816035081727,41.3482546090014],[-81.2805767154851,41.3482583912985],[-81.280744666453,41.3474505382398],[-81.2816105799614,41.3474484550979]]]},"properties":{"source_county":"Geauga","jurisdiction":"Auburn Township","parcel_id":"01-093500","owner_name":"FUSCO STACEY & KOVACH JOSHUA","property_address":"19192 MUNN RD","property_city":"AUBURN TOWNSHIP","property_zip":"44023"}},{"type":"Feature","geometry":{"type":"Polygon","coordinates":[[[-81.2801801326009,41.3501658974733],[-81.2802415438077,41.3498705279552],[-81.2805767154851,41.3482583912985],[-81.2816035081727,41.3482546090014],[-81.2816587866058,41.3482544047842],[-81.2816010664524,41.3485328864859],[-81.2815436056232,41.3488101173212],[-81.281598636417,41.3488098880071],[-81.2820899265167,41.3488078395801],[-81.2823722863344,41.3474445603905],[-81.2851991965575,41.3474300614603],[-81.2852209195148,41.3501464804882],[-81.2847412678323,41.3501484213732],[-81.2840128252654,41.3501513649086],[-81.2832843826333,41.3501543038593],[-81.2825559387579,41.3501572373124],[-81.2815867820414,41.3501611344623],[-81.2801799501716,41.3501667762794],[-81.2801801326009,41.3501658974733]]]},"properties":{"source_county":"Geauga","jurisdiction":"Auburn Township","parcel_id":"01-093700","owner_name":"NKE ENTERPRISES LLC","property_address":"19122 MUNN RD","property_city":"AUBURN TOWNSHIP","property_zip":"44023"}},{"type":"Feature","geometry":{"type":"Polygon","coordinates":[[[-81.298374045182,41.3474127457013],[-81.2983741264452,41.3474127456445],[-81.2983749917985,41.3479484743341],[-81.2983749979251,41.3479521260821],[-81.2983762738402,41.3487426492307],[-81.2983716318408,41.3487426712751],[-81.2983713557695,41.3487426720108],[-81.2981502049518,41.3487437057906],[-81.2978311594196,41.3483335269442],[-81.2978326146691,41.3478755937958],[-81.297834078862,41.347415276059],[-81.2983737547622,41.3474127471885],[-81.298374045182,41.3474127457013]]]},"properties":{"source_county":"Geauga","jurisdiction":"Auburn Township","parcel_id":"01-117111","owner_name":"MILLER ERICA M","property_address":"9680 CRACKEL RD","property_city":"AUBURN TOWNSHIP","property_zip":"44023"}},{"type":"Feature","geometry":{"type":"Polygon","coordinates":[[[-81.296552216241,41.3474212715665],[-81.297834078862,41.347415276059],[-81.2978326146691,41.3478755937958],[-81.2964063187129,41.3478822495455],[-81.2964074449797,41.3475307790709],[-81.2964096966062,41.3475118248525],[-81.2964162579585,41.3474934483993],[-81.2964269318855,41.3474762018648],[-81.2964413976673,41.3474606034509],[-81.2964592206521,41.3474471218392],[-81.296479865316,41.3474361621076],[-81.2965027113539,41.3474280535598],[-81.2965270723176,41.3474230398308],[-81.296552216241,41.3474212715665]]]},"properties":{"source_county":"Geauga","jurisdiction":"Auburn Township","parcel_id":"01-117112","owner_name":"THOMPSON SHAWN T TOD","property_address":"19194 BROOKFIELD DR","property_city":"AUBURN TOWNSHIP","property_zip":"44023"}},{"type":"Feature","geometry":{"type":"Polygon","coordinates":[[[-81.2964063187129,41.3478822495455],[-81.2978326146691,41.3478755937958],[-81.2978311594196,41.3483335269442],[-81.2964048499571,41.3483401817375],[-81.2964063187129,41.3478822495455]]]},"properties":{"source_county":"Geauga","jurisdiction":"Auburn Township","parcel_id":"01-117113","owner_name":"BRYAN CHAD & ANSELMO BRYAN LISA","property_address":"19176 BROOKFIELD DR","property_city":"AUBURN TOWNSHIP","property_zip":"44023"}},{"type":"Feature","geometry":{"type":"Polygon","coordinates":[[[-81.2964048499571,41.3483401817375],[-81.2978311594196,41.3483335269442],[-81.2981502049518,41.3487437057906],[-81.2964035292371,41.3487518583393],[-81.2964048499571,41.3483401817375]]]},"properties":{"source_county":"Geauga","jurisdiction":"Auburn Township","parcel_id":"01-117114","owner_name":"KOPROWSKI MARTIN A TOD & MILICA TOD","property_address":"19160 BROOKFIELD DR","property_city":"AUBURN TOWNSHIP","property_zip":"44023"}},{"type":"Feature","geometry":{"type":"Polygon","coordinates":[[[-81.2983716318408,41.3487426712751],[-81.2983762738402,41.3487426492307],[-81.2983750035147,41.3491543361129],[-81.2983708598812,41.3491543552272],[-81.2983706136791,41.349154356273],[-81.2964022095139,41.3491635448136],[-81.2964035292371,41.3487518583393],[-81.2981502049518,41.3487437057906],[-81.2983713557695,41.3487426720108],[-81.2983716318408,41.3487426712751]]]},"properties":{"source_county":"Geauga","jurisdiction":"Auburn Township","parcel_id":"01-117115","owner_name":"BRAUND THOMAS A & MONTEMARANO DONA","property_address":"19146 BROOKFIELD DR","property_city":"AUBURN TOWNSHIP","property_zip":"44023"}},{"type":"Feature","geometry":{"type":"Polygon","coordinates":[[[-81.2983708598812,41.3491543552272],[-81.2983750035147,41.3491543361129],[-81.2983737319785,41.3495660229386],[-81.2983700867007,41.3495660400232],[-81.2983698703681,41.3495660413792],[-81.2964008885793,41.3495752312314],[-81.2964022095139,41.3491635448136],[-81.2983706136791,41.349154356273],[-81.2983708598812,41.3491543552272]]]},"properties":{"source_county":"Geauga","jurisdiction":"Auburn Township","parcel_id":"01-117116","owner_name":"EMERY JACOB & AMANDA MARIE","property_address":"19130 BROOKFIELD DR","property_city":"AUBURN TOWNSHIP","property_zip":"44023"}},{"type":"Feature","geometry":{"type":"Polygon","coordinates":[[[-81.2983700867007,41.3495660400232],[-81.2983737319785,41.3495660229386],[-81.2983724616212,41.3499777097326],[-81.2983693147052,41.3499777247874],[-81.2983691270642,41.3499777255409],[-81.2963995688065,41.3499869185179],[-81.2964008885793,41.3495752312314],[-81.2983698703681,41.3495660413792],[-81.2983700867007,41.3495660400232]]]},"properties":{"source_county":"Geauga","jurisdiction":"Auburn Township","parcel_id":"01-117117","owner_name":"BROWNLOW JOHN M JR & THERESA L","property_address":"19114 BROOKFIELD DR","property_city":"AUBURN TOWNSHIP","property_zip":"44023"}},{"type":"Feature","geometry":{"type":"Polygon","coordinates":[[[-81.2942096694998,41.3495881654086],[-81.2961823643145,41.3495748135138],[-81.2961810443677,41.3499865008102],[-81.2942083383901,41.3499998526934],[-81.2942096694998,41.3495881654086]]]},"properties":{"source_county":"Geauga","jurisdiction":"Auburn Township","parcel_id":"01-117131","owner_name":"BOHINC MICHAEL A","property_address":"19111 BROOKFIELD DR","property_city":"AUBURN TOWNSHIP","property_zip":"44023"}},{"type":"Feature","geometry":{"type":"Polygon","coordinates":[[[-81.2942110017712,41.3491764789924],[-81.2961836854231,41.349163127086],[-81.2961823643145,41.3495748135138],[-81.2942096694998,41.3495881654086],[-81.2942110017712,41.3491764789924]]]},"properties":{"source_county":"Geauga","jurisdiction":"Auburn Township","parcel_id":"01-117132","owner_name":"ZACK STEVEN & HAIDI","property_address":"19133 BROOKFIELD DR","property_city":"AUBURN TOWNSHIP","property_zip":"44023"}},{"type":"Feature","geometry":{"type":"Polygon","coordinates":[[[-81.2944383951258,41.3487632635941],[-81.2961850053203,41.3487514406018],[-81.2961836854231,41.349163127086],[-81.2942110017712,41.3491764789924],[-81.2942123328311,41.3487647925197],[-81.2944383951258,41.3487632635941]]]},"properties":{"source_county":"Geauga","jurisdiction":"Auburn Township","parcel_id":"01-117133","owner_name":"LUNDSTROM ROY A JR & VALERIE","property_address":"19145 BROOKFIELD DR","property_city":"AUBURN TOWNSHIP","property_zip":"44023"}},{"type":"Feature","geometry":{"type":"Polygon","coordinates":[[[-81.2947599970608,41.3483494106143],[-81.2961863264124,41.3483397531855],[-81.2961850053203,41.3487514406018],[-81.2944383951258,41.3487632635941],[-81.2947599970608,41.3483494106143]]]},"properties":{"source_county":"Geauga","jurisdiction":"Auburn Township","parcel_id":"01-117134","owner_name":"PAPARONE FRANK E & IRENE A","property_address":"19159 BROOKFIELD DR","property_city":"AUBURN TOWNSHIP","property_zip":"44023"}},{"type":"Feature","geometry":{"type":"Polygon","coordinates":[[[-81.2947614737097,41.3478914775066],[-81.2961877955124,41.3478818200834],[-81.2961863264124,41.3483397531855],[-81.2947599970608,41.3483494106143],[-81.2947614737097,41.3478914775066]]]},"properties":{"source_county":"Geauga","jurisdiction":"Auburn Township","parcel_id":"01-117135","owner_name":"KYNKOR MICHAEL T & KAREN","property_address":"19175 BROOKFIELD DR","property_city":"AUBURN TOWNSHIP","property_zip":"44023"}},{"type":"Feature","geometry":{"type":"Polygon","coordinates":[[[-81.2960423290309,41.3474236470769],[-81.2960652530408,41.3474249070164],[-81.2960876287806,41.3474288682382],[-81.2961088992849,41.3474354321417],[-81.296128535099,41.3474444353415],[-81.2961460474574,41.3474556537347],[-81.29616100045,41.3474688080784],[-81.2961730218725,41.3474835709411],[-81.2961818124912,41.3474995748525],[-81.2961871534916,41.3475164214506],[-81.2961889119251,41.347533691397],[-81.2961877955124,41.3478818200834],[-81.2947614737097,41.3478914775066],[-81.2947629641493,41.347429598325],[-81.2960423290309,41.3474236470769]]]},"properties":{"source_county":"Geauga","jurisdiction":"Auburn Township","parcel_id":"01-117136","owner_name":"POLO JULIANNA","property_address":"19195 BROOKFIELD DR","property_city":"AUBURN TOWNSHIP","property_zip":"44023"}},{"type":"Feature","geometry":{"type":"Polygon","coordinates":[[[-81.2942166431427,41.3474321347816],[-81.2947629641493,41.347429598325],[-81.2947614737097,41.3478914775066],[-81.2947599970608,41.3483494106143],[-81.2944383951258,41.3487632635941],[-81.2942123328311,41.3487647925197],[-81.2942166431427,41.3474321347816]]]},"properties":{"source_county":"Geauga","jurisdiction":"Auburn Township","parcel_id":"01-117137","owner_name":"BRAUN CHRISTINE A TOD","property_address":"9784 CRACKEL RD","property_city":"AUBURN TOWNSHIP","property_zip":"44023"}},{"type":"Feature","geometry":{"type":"Polygon","coordinates":[[[-81.2900132420914,41.3474052110242],[-81.290014981027,41.3474052021893],[-81.2900140054729,41.3474783734731],[-81.2899787111458,41.35012712299],[-81.2863438586944,41.3501419296405],[-81.2852209195148,41.3501464804882],[-81.2851991965575,41.3474300614603],[-81.2899525632785,41.3474055257558],[-81.2900132420914,41.3474052110242]]]},"properties":{"source_county":"Geauga","jurisdiction":"Auburn Township","parcel_id":"01-117734","owner_name":"FOGARTY MARK ALBERT TOD & KAREN MARIE TOD","property_address":" CRACKEL RD","property_city":"AUBURN TOWNSHIP","property_zip":"44023"}},{"type":"Feature","geometry":{"type":"Polygon","coordinates":[[[-81.274901673267,41.3486681806027],[-81.2763588265553,41.3486636054282],[-81.276333499737,41.3498696175596],[-81.275272935496,41.3498569654517],[-81.2752279659378,41.3498536123066],[-81.2751843452872,41.3498447185844],[-81.2751432672489,41.3498305276671],[-81.2751058559455,41.3498114278975],[-81.2750731351549,41.3497879419516],[-81.2750460002938,41.3497607125347],[-81.2750251939142,41.3497304847938],[-81.2750071110555,41.3497035882753],[-81.2749840079018,41.3496789708948],[-81.2749563801606,41.349657160844],[-81.2749248206174,41.3496386260798],[-81.274890006417,41.3496237642843],[-81.274901673267,41.3486681806027]]]},"properties":{"source_county":"Geauga","jurisdiction":"Auburn Township","parcel_id":"01-117817","owner_name":"PAULEY GLEN W & SHEENA DEE","property_address":"10255 SABLEWOOD DR","property_city":"AUBURN TOWNSHIP","property_zip":"44023"}},{"type":"Feature","geometry":{"type":"Polygon","coordinates":[[[-81.2763588265553,41.3486636054282],[-81.2774516925789,41.3486601622456],[-81.2774260388444,41.3498826409509],[-81.276333499737,41.3498696175596],[-81.2763588265553,41.3486636054282]]]},"properties":{"source_county":"Geauga","jurisdiction":"Auburn Township","parcel_id":"01-117818","owner_name":"NEVIN BRUCE K & ROBERT W","property_address":"10223 SABLEWOOD DR","property_city":"AUBURN TOWNSHIP","property_zip":"44023"}},{"type":"Feature","geometry":{"type":"Polygon","coordinates":[[[-81.2774516925789,41.3486601622456],[-81.2787763440352,41.3486559750377],[-81.2786917745106,41.3490627036222],[-81.2786072039559,41.3494694312016],[-81.2785226323544,41.3498761586762],[-81.2785185783679,41.3498956549293],[-81.2774260388444,41.3498826409509],[-81.2774516925789,41.3486601622456]]]},"properties":{"source_county":"Geauga","jurisdiction":"Auburn Township","parcel_id":"01-117819","owner_name":"ORR SHERRI J TOD & HAROLD SCOT TOD","property_address":"10177 SABLEWOOD DR","property_city":"AUBURN TOWNSHIP","property_zip":"44023"}},{"type":"Feature","geometry":{"type":"Polygon","coordinates":[[[-81.2790688435203,41.3474545519098],[-81.280744666453,41.3474505382398],[-81.2806201585374,41.3480494263852],[-81.2802559211508,41.348050604948],[-81.280257900239,41.348397516992],[-81.279074211719,41.3484013396916],[-81.2790688435203,41.3474545519098]]]},"properties":{"source_county":"Geauga","jurisdiction":"Auburn Township","parcel_id":"01-118087","owner_name":"TOTH TIMOTHY J & CYNTHIA M","property_address":" MUNN RD","property_city":"AUBURN TOWNSHIP","property_zip":"44023"}},{"type":"Feature","geometry":{"type":"Polygon","coordinates":[[[-81.2733266956314,41.3486731041983],[-81.2733512133969,41.3474599725123],[-81.2790688435203,41.3474545519098],[-81.279074211719,41.3484013396916],[-81.280257900239,41.348397516992],[-81.2802559211508,41.348050604948],[-81.2806201585374,41.3480494263852],[-81.2804954067513,41.3486494842619],[-81.2787763440352,41.3486559750377],[-81.2774516925789,41.3486601622456],[-81.2763588265553,41.3486636054282],[-81.274901673267,41.3486681806027],[-81.2733266956314,41.3486731041983]]]},"properties":{"source_county":"Geauga","jurisdiction":"Auburn Township","parcel_id":"01-118101","owner_name":"TOTH TIMOTHY J & CYNTHIA M","property_address":"19165 MUNN RD","property_city":"AUBURN TOWNSHIP","property_zip":"44023"}},{"type":"Feature","geometry":{"type":"Polygon","coordinates":[[[-81.2983738999352,41.3473304304379],[-81.2991781637053,41.3473378716044],[-81.2991545347102,41.3500451555096],[-81.29837227613,41.3500379177893],[-81.2983724616196,41.3499777097298],[-81.2983737319769,41.3495660229358],[-81.298375003513,41.34915433611],[-81.2983762738385,41.3487426492278],[-81.2983749979234,41.3479521260793],[-81.2983749917968,41.3479484743312],[-81.2983741264435,41.3474127456416],[-81.2983739026423,41.3473323738289],[-81.2983739003863,41.3473320397055],[-81.2983738999352,41.3473304304379]]]},"properties":{"source_county":"Geauga","jurisdiction":"Bainbridge Township","parcel_id":"02-065110","owner_name":"KANAGARAJ GLADYS TOD & GLADYS LEELA TOD","property_address":"9640 CRACKEL RD","property_city":"AURORA","property_zip":"44202"}},{"type":"Feature","geometry":{"type":"Polygon","coordinates":[[[-81.2991781637053,41.3473378716044],[-81.2999822818749,41.3473453065707],[-81.2999586860024,41.3500525906348],[-81.2991545347102,41.3500451555096],[-81.2991781637053,41.3473378716044]]]},"properties":{"source_county":"Geauga","jurisdiction":"Bainbridge Township","parcel_id":"02-295140","owner_name":"TRUMAN PATTY JO & SNYDER KATHLEEN VICTORIA","property_address":"9620 CRACKEL RD","property_city":"AURORA","property_zip":"44202"}},{"type":"Feature","geometry":{"type":"Polygon","coordinates":[[[-81.2983738999368,41.3473304304408],[-81.2991781637069,41.3473378716072],[-81.299154534712,41.3500451555124],[-81.2983722761317,41.3500379177922],[-81.2983724616212,41.3499777097326],[-81.2983737319785,41.3495660229386],[-81.2983750035147,41.3491543361129],[-81.2983762738402,41.3487426492307],[-81.2983749979251,41.3479521260821],[-81.2983749917985,41.3479484743341],[-81.2983741264452,41.3474127456445],[-81.2983739026439,41.3473323738318],[-81.298373900388,41.3473320397083],[-81.2983738999368,41.3473304304408]]]},"properties":{"source_county":"Geauga","jurisdiction":"Bainbridge Township","parcel_id":"02-065110","owner_name":"KANAGARAJ GLADYS TOD & GLADYS LEELA TOD","property_address":"9640 CRACKEL RD","property_city":"AURORA","property_zip":"44202"}},{"type":"Feature","geometry":{"type":"Polygon","coordinates":[[[-81.2991781637069,41.3473378716072],[-81.2999822818766,41.3473453065735],[-81.2999586860041,41.3500525906376],[-81.299154534712,41.3500451555124],[-81.2991781637069,41.3473378716072]]]},"properties":{"source_county":"Geauga","jurisdiction":"Bainbridge Township","parcel_id":"02-295140","owner_name":"TRUMAN PATTY JO & SNYDER KATHLEEN VICTORIA","property_address":"9620 CRACKEL RD","property_city":"AURORA","property_zip":"44202"}}]}