{"type":"FeatureCollection","features":[{"type":"Feature","geometry":{"type":"Polygon","coordinates":[[[-81.2818612064603,41.6289808898536],[-81.2819679801151,41.6285324266395],[-81.2821874095487,41.6285629139813],[-81.2829186558939,41.6283275223638],[-81.2828092769464,41.6281018200586],[-81.2830522547162,41.62800357883],[-81.2832256604267,41.6282507176859],[-81.2836655741225,41.6283157332374],[-81.2837759384085,41.6277261869655],[-81.2844644662926,41.6277017668911],[-81.2847277526442,41.6274829444546],[-81.2851837139026,41.6273472806981],[-81.2856058926193,41.6277920599605],[-81.2863326799719,41.6285577391652],[-81.2855987712433,41.6289320145907],[-81.2841091960293,41.6296916356942],[-81.2823966856703,41.6296427965814],[-81.2817740150574,41.629030835202],[-81.2818612064603,41.6289808898536]]]},"properties":{"source_county":"Geauga","jurisdiction":"Chardon Township","parcel_id":"06-002681","owner_name":"LANE CAROLYN & TIM","property_address":"8830 MENTOR RD","property_city":"MENTOR","property_zip":"44060"}},{"type":"Feature","geometry":{"type":"Polygon","coordinates":[[[-81.2774092718681,41.6291962661776],[-81.2780273297753,41.6291004221022],[-81.2785694698396,41.630218930822],[-81.2774012771586,41.6304036334595],[-81.2770387089923,41.6292483228579],[-81.2774092718681,41.6291962661776]]]},"properties":{"source_county":"Geauga","jurisdiction":"Chardon Township","parcel_id":"06-008200","owner_name":"KEYBANK NATIONAL ASSOCIATION TRUSTEE","property_address":"10160 GRISWOLD RD","property_city":"MENTOR","property_zip":"44060"}},{"type":"Feature","geometry":{"type":"Polygon","coordinates":[[[-81.274147063683,41.6263051535392],[-81.2766109132994,41.6239559642199],[-81.2767319415899,41.6240749371967],[-81.2767439969626,41.6240867872533],[-81.2766818125483,41.6262946257116],[-81.2766809053973,41.6263268429442],[-81.274147063683,41.6263051535392]]]},"properties":{"source_county":"Geauga","jurisdiction":"Chardon Township","parcel_id":"06-012600","owner_name":"LISAC MARIA MIMI","property_address":"9031 MENTOR RD","property_city":"MENTOR","property_zip":"44060"}},{"type":"Feature","geometry":{"type":"Polygon","coordinates":[[[-81.2817931107411,41.6313109600945],[-81.2832468573784,41.6304783205583],[-81.283948842241,41.6311681910131],[-81.2840836207578,41.6313006408733],[-81.2854469846344,41.6326404135793],[-81.2802288670309,41.6326971221822],[-81.2797345048934,41.6327024825708],[-81.2817931107411,41.6313109600945]]]},"properties":{"source_county":"Geauga","jurisdiction":"Chardon Township","parcel_id":"06-038930","owner_name":"HITCHCOCK FARM LLC THE","property_address":"8775 MENTOR RD","property_city":"MENTOR","property_zip":"44060"}},{"type":"Feature","geometry":{"type":"Polygon","coordinates":[[[-81.2797525998487,41.6302723786693],[-81.2790510749743,41.6289416585374],[-81.2791481934348,41.6289265972315],[-81.2794735431064,41.6287528187145],[-81.2807807261527,41.6280546001618],[-81.2812365834736,41.6285026355981],[-81.2817740150574,41.629030835202],[-81.2823966856703,41.6296427965814],[-81.2813821794192,41.6294874874342],[-81.2797525998487,41.6302723786693]]]},"properties":{"source_county":"Geauga","jurisdiction":"Chardon Township","parcel_id":"06-042400","owner_name":"FAHRENDORF REBECCA L","property_address":"8853 MENTOR RD","property_city":"MENTOR","property_zip":"44060"}},{"type":"Feature","geometry":{"type":"Polygon","coordinates":[[[-81.2797525998487,41.6302723786693],[-81.2813821794192,41.6294874874342],[-81.2823966856703,41.6296427965814],[-81.2832468573784,41.6304783205583],[-81.2817931107411,41.6313109600945],[-81.2797345048934,41.6327024825708],[-81.2791127852667,41.6312190313884],[-81.2799643776893,41.6306740854615],[-81.2797525998487,41.6302723786693]]]},"properties":{"source_county":"Geauga","jurisdiction":"Chardon Township","parcel_id":"06-042800","owner_name":"HITCHCOCK FARM LLC THE","property_address":"8833 MENTOR RD","property_city":"MENTOR","property_zip":"44060"}},{"type":"Feature","geometry":{"type":"Polygon","coordinates":[[[-81.2766833602157,41.6263254010212],[-81.2781468151635,41.625465727013],[-81.2787207799171,41.6260299005582],[-81.2781964179857,41.6263329748686],[-81.2778392490954,41.6265394101638],[-81.2777867996887,41.627678844583],[-81.2766351611477,41.6283188860143],[-81.2766163826627,41.6283293219669],[-81.2755709290938,41.6279547696553],[-81.2755399774342,41.6263170974916],[-81.2766809053973,41.6263268429442],[-81.2766821673905,41.626326101636],[-81.2766833602157,41.6263254010212]]]},"properties":{"source_county":"Geauga","jurisdiction":"Chardon Township","parcel_id":"06-042900","owner_name":"OFFUTT GRACE & MC MILLAN VICTORIA M & S STERLING IV","property_address":" MENTOR RD","property_city":"MENTOR","property_zip":"44060"}},{"type":"Feature","geometry":{"type":"Polygon","coordinates":[[[-81.274147063683,41.6263051535392],[-81.2755399774342,41.6263170974916],[-81.2755709290938,41.6279547696553],[-81.2766163826627,41.6283293219669],[-81.2766344631732,41.6283490919854],[-81.2774092718681,41.6291962661776],[-81.2770387089923,41.6292483228579],[-81.2766121988037,41.6293082827187],[-81.2750607969562,41.6295263710411],[-81.2740439010498,41.6296693083709],[-81.2741395428974,41.6263051309491],[-81.2741395436901,41.6263050886355],[-81.274147063683,41.6263051535392]]]},"properties":{"source_county":"Geauga","jurisdiction":"Chardon Township","parcel_id":"06-043000","owner_name":"OFFUTT GRACE & MC MILLAN VICTORIA M & S STERLING IV","property_address":" GRISWOLD RD","property_city":"MENTOR","property_zip":"44060"}},{"type":"Feature","geometry":{"type":"Polygon","coordinates":[[[-81.2787331011792,41.6260420107199],[-81.2820272473945,41.6236388022908],[-81.2828659220609,41.6244611165981],[-81.281536476806,41.6260711562675],[-81.2811249107768,41.6263475773517],[-81.2806109144685,41.6266927868454],[-81.2798886848187,41.6271778415133],[-81.2790333733379,41.6263371558042],[-81.2787331011792,41.6260420107199]]]},"properties":{"source_county":"Geauga","jurisdiction":"Chardon Township","parcel_id":"06-043100","owner_name":"HITCHCOCK MARGARET N TRUSTEE","property_address":" MENTOR RD","property_city":"MENTOR","property_zip":"44060"}},{"type":"Feature","geometry":{"type":"Polygon","coordinates":[[[-81.281536476806,41.6260711562675],[-81.2828659220609,41.6244611165981],[-81.282665746974,41.6258207429573],[-81.2818725180028,41.6263512933998],[-81.2816516209321,41.626499037088],[-81.2813068100418,41.6267296566816],[-81.2809377080654,41.6269765206189],[-81.2806109144685,41.6266927868454],[-81.2811249107768,41.6263475773517],[-81.281536476806,41.6260711562675]]]},"properties":{"source_county":"Geauga","jurisdiction":"Chardon Township","parcel_id":"06-043200","owner_name":"HITCHCOCK MARGARET N TRUSTEE","property_address":" MENTOR RD","property_city":"MENTOR","property_zip":"44060"}},{"type":"Feature","geometry":{"type":"Polygon","coordinates":[[[-81.2798886848187,41.6271778415133],[-81.2806109144685,41.6266927868454],[-81.2809377080654,41.6269765206189],[-81.280191572001,41.6274755438393],[-81.2798886848187,41.6271778415133]]]},"properties":{"source_county":"Geauga","jurisdiction":"Chardon Township","parcel_id":"06-043300","owner_name":"HITCHCOCK MARGARET N TRUSTEE","property_address":" MENTOR RD","property_city":"MENTOR","property_zip":"44060"}},{"type":"Feature","geometry":{"type":"Polygon","coordinates":[[[-81.2818725180028,41.6263512933998],[-81.282665746974,41.6258207429573],[-81.2834944425857,41.6263593385556],[-81.2837987020663,41.6265570824812],[-81.2822491716199,41.6275531702965],[-81.2819680796019,41.6273075317059],[-81.2818589825846,41.627212194358],[-81.2821546240228,41.6265992130466],[-81.2816516209321,41.626499037088],[-81.2818725180028,41.6263512933998]]]},"properties":{"source_county":"Geauga","jurisdiction":"Chardon Township","parcel_id":"06-043400","owner_name":"HITCHCOCK MARGARET N TRUSTEE","property_address":"8846 MENTOR RD","property_city":"MENTOR","property_zip":"44060"}},{"type":"Feature","geometry":{"type":"Polygon","coordinates":[[[-81.2794735431064,41.6287528187145],[-81.2783433681627,41.6276411284264],[-81.2777867996887,41.627678844583],[-81.2778392490954,41.6265394101638],[-81.2781964179857,41.6263329748686],[-81.2787207799171,41.6260299005582],[-81.2787331011792,41.6260420107199],[-81.2790333733379,41.6263371558042],[-81.2798886848187,41.6271778415133],[-81.280191572001,41.6274755438393],[-81.2807807261527,41.6280546001618],[-81.2794735431064,41.6287528187145]]]},"properties":{"source_county":"Geauga","jurisdiction":"Chardon Township","parcel_id":"06-043600","owner_name":"LANDIES BARBARA S & GORDON A TRUSTEES","property_address":" MENTOR RD","property_city":"MENTOR","property_zip":"44060"}},{"type":"Feature","geometry":{"type":"Polygon","coordinates":[[[-81.2777867996887,41.627678844583],[-81.2783433681627,41.6276411284264],[-81.2794735431064,41.6287528187145],[-81.2791481934348,41.6289265972315],[-81.2790510749743,41.6289416585374],[-81.2781754841147,41.6290774463612],[-81.2780273297753,41.6291004221022],[-81.2774092718681,41.6291962661776],[-81.2766344631732,41.6283490919854],[-81.2766163826627,41.6283293219669],[-81.2766351611477,41.6283188860143],[-81.2777867996887,41.627678844583]]]},"properties":{"source_county":"Geauga","jurisdiction":"Chardon Township","parcel_id":"06-043700","owner_name":"VAN WAGNER MEGHAN AKA LANDIES MEGHAN TRUSTEE","property_address":"10161 GRISWOLD RD","property_city":"MENTOR","property_zip":"44060"}},{"type":"Feature","geometry":{"type":"Polygon","coordinates":[[[-81.2781754841147,41.6290774463612],[-81.2790510749743,41.6289416585374],[-81.2797525998487,41.6302723786693],[-81.2799643776893,41.6306740854615],[-81.2791127852667,41.6312190313884],[-81.2797345048934,41.6327024825708],[-81.2765789423821,41.6327366489392],[-81.2765976541443,41.6307515497026],[-81.2765976549186,41.6307515082894],[-81.2786742450257,41.6302941525905],[-81.2781754841147,41.6290774463612]]]},"properties":{"source_county":"Geauga","jurisdiction":"Chardon Township","parcel_id":"06-065100","owner_name":"HITCHCOCK FARM LLC THE","property_address":" GRISWOLD RD","property_city":"MENTOR","property_zip":"44060"}},{"type":"Feature","geometry":{"type":"Polygon","coordinates":[[[-81.2863326799719,41.6285577391652],[-81.2902574320036,41.6265562032034],[-81.2902395603116,41.628597347751],[-81.2856997827921,41.6304526636454],[-81.2855888019239,41.6304980203629],[-81.2850508291261,41.6307178800927],[-81.2841091960293,41.6296916356942],[-81.2855987712433,41.6289320145907],[-81.2863326799719,41.6285577391652]]]},"properties":{"source_county":"Geauga","jurisdiction":"Chardon Township","parcel_id":"06-067200","owner_name":"SPLIT ROCK PROPERTIES LLC","property_address":" MENTOR RD","property_city":"MENTOR","property_zip":"44060"}},{"type":"Feature","geometry":{"type":"Polygon","coordinates":[[[-81.2809377080654,41.6269765206189],[-81.2813068100418,41.6267296566816],[-81.2818589825846,41.627212194358],[-81.2812365834736,41.6285026355981],[-81.2807807261527,41.6280546001618],[-81.280191572001,41.6274755438393],[-81.2809377080654,41.6269765206189]]]},"properties":{"source_county":"Geauga","jurisdiction":"Chardon Township","parcel_id":"06-090280","owner_name":"HITCHCOCK MARGARET N TRUSTEE","property_address":" MENTOR RD","property_city":"MENTOR","property_zip":"44060"}},{"type":"Feature","geometry":{"type":"Polygon","coordinates":[[[-81.2832468573784,41.6304783205583],[-81.2823966856703,41.6296427965814],[-81.2841091960293,41.6296916356942],[-81.2850508291261,41.6307178800927],[-81.283948842241,41.6311681910131],[-81.2832468573784,41.6304783205583]]]},"properties":{"source_county":"Geauga","jurisdiction":"Chardon Township","parcel_id":"06-120112","owner_name":"SPLIT ROCK PROPERTIES LLC","property_address":" MENTOR RD","property_city":"MENTOR","property_zip":"44060"}},{"type":"Feature","geometry":{"type":"Polygon","coordinates":[[[-81.2812365834736,41.6285026355981],[-81.2818589825846,41.627212194358],[-81.2819680796019,41.6273075317059],[-81.281684855535,41.6278947569356],[-81.2814508595579,41.6283799066551],[-81.2812365834736,41.6285026355981]]]},"properties":{"source_county":"Geauga","jurisdiction":"Chardon Township","parcel_id":"06-120124","owner_name":"HITCHCOCK MARGARET N TRUSTEE","property_address":" MENTOR RD","property_city":"MENTOR","property_zip":"44060"}},{"type":"Feature","geometry":{"type":"Polygon","coordinates":[[[-81.2765976549186,41.6307515082894],[-81.2766121988037,41.6293082827187],[-81.2770387089923,41.6292483228579],[-81.2774012771586,41.6304036334595],[-81.2785694698396,41.630218930822],[-81.2780273297753,41.6291004221022],[-81.2781754841147,41.6290774463612],[-81.2786742450257,41.6302941525905],[-81.2765976549186,41.6307515082894]]]},"properties":{"source_county":"Geauga","jurisdiction":"Chardon Township","parcel_id":"06-120130","owner_name":"KEYBANK NATIONAL ASSOCIATION TRUSTEE","property_address":" GRISWOLD RD","property_city":"MENTOR","property_zip":"44060"}},{"type":"Feature","geometry":{"type":"Polygon","coordinates":[[[-81.2813068100418,41.6267296566816],[-81.2816516209321,41.626499037088],[-81.2821546240228,41.6265992130466],[-81.2818589825846,41.627212194358],[-81.2813068100418,41.6267296566816]]]},"properties":{"source_county":"Geauga","jurisdiction":"Chardon Township","parcel_id":"06-120257","owner_name":"HITCHCOCK MARGARET N TRUSTEE","property_address":" MENTOR RD","property_city":"MENTOR","property_zip":"44060"}},{"type":"Feature","geometry":{"type":"Polygon","coordinates":[[[-81.2917131926432,41.6341687561154],[-81.2947457050455,41.634188499744],[-81.2946771510762,41.6400223220781],[-81.2946771470904,41.6400226687136],[-81.2937602721461,41.6388741795817],[-81.2935224674732,41.6387011603259],[-81.2922554008267,41.6377795224521],[-81.2920977142329,41.6376648214437],[-81.2920733817448,41.6376471014882],[-81.2916723714108,41.6373441450846],[-81.2914458274958,41.6371729934166],[-81.2911778365008,41.6369705263091],[-81.2912114622665,41.6341654822145],[-81.2917131926432,41.6341687561154]]]},"properties":{"source_county":"Geauga","jurisdiction":"Chardon Township","parcel_id":"06-120632","owner_name":"HISTORIC SHADYBROOK HOUSE LLC","property_address":" MENTOR RD","property_city":"MENTOR","property_zip":"44060"}},{"type":"Feature","geometry":{"type":"Polygon","coordinates":[[[-81.2817740150574,41.629030835202],[-81.2812365834736,41.6285026355981],[-81.2814508595579,41.6283799066551],[-81.281684855535,41.6278947569356],[-81.2822491716199,41.6275531702965],[-81.2837987020663,41.6265570824812],[-81.2841668041711,41.6263626664955],[-81.2847408433646,41.6260594789442],[-81.2851141463268,41.6263673504695],[-81.2852803824516,41.6265044475697],[-81.2846744846904,41.6268107795378],[-81.2851837139026,41.6273472806981],[-81.2847277526442,41.6274829444546],[-81.2844644662926,41.6277017668911],[-81.2837759384085,41.6277261869655],[-81.2836655741225,41.6283157332374],[-81.2832256604267,41.6282507176859],[-81.2830522547162,41.62800357883],[-81.2828092769464,41.6281018200586],[-81.2829186558939,41.6283275223638],[-81.2821874095487,41.6285629139813],[-81.2819679801151,41.6285324266395],[-81.2818612064603,41.6289808898536],[-81.2817740150574,41.629030835202]]]},"properties":{"source_county":"Geauga","jurisdiction":"Chardon Township","parcel_id":"06-120650","owner_name":"SAGE JASON GREGORY & CHRISTINA LEIGH","property_address":"8844 MENTOR RD","property_city":"MENTOR","property_zip":"44060"}},{"type":"Feature","geometry":{"type":"Polygon","coordinates":[[[-81.2766818125483,41.6262946257116],[-81.2767439969626,41.6240867872533],[-81.2776196287758,41.6249475231542],[-81.2781468151635,41.625465727013],[-81.2766833602157,41.6263254010212],[-81.2766821673905,41.626326101636],[-81.2766809053973,41.6263268429442],[-81.2766818125483,41.6262946257116]]]},"properties":{"source_county":"Geauga","jurisdiction":"Chardon Township","parcel_id":"06-120736","owner_name":"OFFUTT GRACE & MC MILLAN VICTORIA M & S STERLING IV","property_address":" MENTOR RD","property_city":"MENTOR","property_zip":"44060"}},{"type":"Feature","geometry":{"type":"Polygon","coordinates":[[[-81.281684855535,41.6278947569356],[-81.2819680796019,41.6273075317059],[-81.2822491716199,41.6275531702965],[-81.281684855535,41.6278947569356]]]},"properties":{"source_county":"Geauga","jurisdiction":"Chardon Township","parcel_id":"06-121069","owner_name":"HITCHCOCK MARGARET N TRUSTEE","property_address":" MENTOR RD","property_city":"MENTOR","property_zip":"44060"}},{"type":"Feature","geometry":{"type":"Polygon","coordinates":[[[-81.2909695523517,41.6360339646953],[-81.2903465784988,41.6355638427383],[-81.290181948236,41.6356863967653],[-81.2901798766151,41.6356369957136],[-81.2901827893522,41.6346764210404],[-81.2901969991065,41.6342355048302],[-81.2901905488898,41.6335791982785],[-81.2901902357023,41.6335473231713],[-81.2901909517305,41.6334625143173],[-81.2902035934503,41.6319659661654],[-81.2902103204885,41.6311695861114],[-81.2902225895555,41.6297171609925],[-81.2902349941754,41.6291188269763],[-81.2902395603116,41.628597347751],[-81.2902574320036,41.6265562032034],[-81.2902589381044,41.6263842500522],[-81.2903299794952,41.6192061179992],[-81.2918549958805,41.6192021124741],[-81.2928663674926,41.6191994470335],[-81.2936847271364,41.6202003870968],[-81.2945676179073,41.6205874730578],[-81.2947787276431,41.621021889361],[-81.2942990710665,41.6226213465338],[-81.2944555483913,41.6228496283574],[-81.29465880288,41.6230863848844],[-81.2944465573492,41.6233286074339],[-81.2940981496929,41.6241626464281],[-81.2940634947229,41.6245381901401],[-81.294120312945,41.624781363771],[-81.2944527422275,41.6250076617928],[-81.2948523588278,41.6251103743714],[-81.2948513789495,41.6251938128949],[-81.2948372298867,41.6263982929139],[-81.2947530547094,41.6335629832859],[-81.2947457050455,41.634188499744],[-81.2917131926432,41.6341687561154],[-81.2912114622665,41.6341654822145],[-81.2911778365008,41.6369705263091],[-81.2908014252448,41.6366861451101],[-81.290450335892,41.6364208898574],[-81.2909695523517,41.6360339646953]]]},"properties":{"source_county":"Geauga","jurisdiction":"Chardon Township","parcel_id":"06-706100","owner_name":"HOLDEN ARBORETUM THE","property_address":" MENTOR RD","property_city":"MENTOR","property_zip":"44060"}},{"type":"Feature","geometry":{"type":"Polygon","coordinates":[[[-81.2864058604985,41.6360922063341],[-81.2882230682434,41.6347380726203],[-81.2887964602741,41.6351713119942],[-81.2888682039111,41.6352255189839],[-81.2875696477477,41.6361918622284],[-81.2860297837183,41.6368376869638],[-81.2855990059851,41.6367879430866],[-81.2854534348603,41.6367711333603],[-81.2855982173435,41.6366679276377],[-81.2864058604985,41.6360922063341]]]},"properties":{"source_county":"Geauga","jurisdiction":"Chardon Township","parcel_id":"09-000050","owner_name":"SCHWAB MATTHEW GERARD & SAMANTHA ANN","property_address":"8643 MENTOR RD","property_city":"MENTOR","property_zip":"44060"}},{"type":"Feature","geometry":{"type":"Polygon","coordinates":[[[-81.290181948236,41.6356863967653],[-81.2903465784988,41.6355638427383],[-81.2909695523517,41.6360339646953],[-81.290450335892,41.6364208898574],[-81.2901803398467,41.6362169002036],[-81.290157034984,41.6361992931742],[-81.2898274585837,41.6359502853397],[-81.2901799668743,41.635687871811],[-81.290181948236,41.6356863967653]]]},"properties":{"source_county":"Geauga","jurisdiction":"Chardon Township","parcel_id":"09-000100","owner_name":"SEIDEL MARK F & BARBARA E","property_address":"8584 MENTOR RD","property_city":"MENTOR","property_zip":"44060"}},{"type":"Feature","geometry":{"type":"Polygon","coordinates":[[[-81.2855755424962,41.6326221878762],[-81.2902035934503,41.6319659661654],[-81.2901909517305,41.6334625143173],[-81.289836033918,41.6335804498758],[-81.2876516073481,41.6343062821486],[-81.2875787163538,41.6342512060638],[-81.2869677514577,41.6337895576256],[-81.2868129558215,41.6336725920865],[-81.2867055869771,41.6335914627017],[-81.285661816928,41.6328027522161],[-81.2855748037009,41.6327369999712],[-81.2854469846344,41.6326404135793],[-81.2855755424962,41.6326221878762]]]},"properties":{"source_county":"Geauga","jurisdiction":"Chardon Township","parcel_id":"09-000300","owner_name":"MC CONNELL F STEVENS III & ELIZABETH N","property_address":"8700 MENTOR RD","property_city":"MENTOR","property_zip":"44060"}},{"type":"Feature","geometry":{"type":"Polygon","coordinates":[[[-81.289836033918,41.6335804498758],[-81.2901909517305,41.6334625143173],[-81.2901902357023,41.6335473231713],[-81.2901905488898,41.6335791982785],[-81.2901969991065,41.6342355048302],[-81.2901827893522,41.6346764210404],[-81.2887964602741,41.6351713119942],[-81.2882230682434,41.6347380726203],[-81.2876516073481,41.6343062821486],[-81.289836033918,41.6335804498758]]]},"properties":{"source_county":"Geauga","jurisdiction":"Chardon Township","parcel_id":"09-000400","owner_name":"BONNES KATHLEEN A","property_address":"8640 MENTOR RD","property_city":"MENTOR","property_zip":"44060"}},{"type":"Feature","geometry":{"type":"Polygon","coordinates":[[[-81.2863562525514,41.6391200932705],[-81.2875321032147,41.6391080907435],[-81.2875217162246,41.6409120580859],[-81.2860783838349,41.6409191503184],[-81.2860760005285,41.6404677085147],[-81.2861803303153,41.6402625924396],[-81.2863600827725,41.6398447311697],[-81.2863562525514,41.6391200932705]]]},"properties":{"source_county":"Geauga","jurisdiction":"Chardon Township","parcel_id":"09-000700","owner_name":"WILES KATHERINE TOD","property_address":"9935 LITTLE MOUNTAIN RD","property_city":"MENTOR","property_zip":"44060"}},{"type":"Feature","geometry":{"type":"Polygon","coordinates":[[[-81.2778182937996,41.6370991098953],[-81.2787320791739,41.6367481662486],[-81.2786215498703,41.6374298364946],[-81.2787029212625,41.6376977252695],[-81.2789842826508,41.6378476434305],[-81.2790297646834,41.6386137200431],[-81.2796146142981,41.6389075936915],[-81.2798676880938,41.6409526711227],[-81.2796586158755,41.6409538471359],[-81.2794335176603,41.6390201015409],[-81.27801318879,41.6383016424908],[-81.2779983384753,41.6382478980883],[-81.2778875973507,41.6382193401108],[-81.2777829805644,41.6377373592049],[-81.2778182937996,41.6370991098953]]]},"properties":{"source_county":"Geauga","jurisdiction":"Chardon Township","parcel_id":"09-000800","owner_name":"GAUGLER ERIN M TRUSTEE","property_address":"10095 LITTLE MOUNTAIN RD","property_city":"MENTOR","property_zip":"44060"}},{"type":"Feature","geometry":{"type":"Polygon","coordinates":[[[-81.2887964602741,41.6351713119942],[-81.2901827893522,41.6346764210404],[-81.2901798766151,41.6356369957136],[-81.290181948236,41.6356863967653],[-81.2901799668743,41.635687871811],[-81.2898274585837,41.6359502853397],[-81.289512731268,41.6357124951147],[-81.2888682039111,41.6352255189839],[-81.2887964602741,41.6351713119942]]]},"properties":{"source_county":"Geauga","jurisdiction":"Chardon Township","parcel_id":"09-000900","owner_name":"WHARTON RICHARD M & GEORGIA L","property_address":"8606 MENTOR RD","property_city":"MENTOR","property_zip":"44060"}},{"type":"Feature","geometry":{"type":"Polygon","coordinates":[[[-81.2856997827921,41.6304526636454],[-81.2902395603116,41.628597347751],[-81.2902349941754,41.6291188269763],[-81.2902225895555,41.6297171609925],[-81.2902103204885,41.6311695861114],[-81.2881561920232,41.6315673691228],[-81.2855755600876,41.6325894904537],[-81.2854469846344,41.6326404135793],[-81.2840836207578,41.6313006408733],[-81.2851558012182,41.6308625084016],[-81.285587409943,41.6307152129124],[-81.2857436125151,41.6306619047637],[-81.2856997827921,41.6304526636454]]]},"properties":{"source_county":"Geauga","jurisdiction":"Chardon Township","parcel_id":"09-001000","owner_name":"MCCONNELL F STEVENS III TRUSTEE","property_address":"8724 MENTOR RD","property_city":"MENTOR","property_zip":"44060"}},{"type":"Feature","geometry":{"type":"Polygon","coordinates":[[[-81.2735419456283,41.6409799804095],[-81.2745594819662,41.639109903554],[-81.2764283246643,41.6397431610563],[-81.276824871129,41.6398775245417],[-81.2774900367316,41.6401029028853],[-81.2775182983637,41.6409624015323],[-81.2767500595116,41.6409643996235],[-81.2764840937309,41.6409650901493],[-81.2735419456283,41.6409799804095]]]},"properties":{"source_county":"Geauga","jurisdiction":"Chardon Township","parcel_id":"09-001200","owner_name":"RELJANOVIC MICHAEL & GLORIA O","property_address":"10209 LITTLE MOUNTAIN RD","property_city":"MENTOR","property_zip":"44060"}},{"type":"Feature","geometry":{"type":"Polygon","coordinates":[[[-81.2931090941527,41.6390208028282],[-81.2935224674732,41.6387011603259],[-81.2937602721461,41.6388741795817],[-81.2946771470904,41.6400226687136],[-81.2946725584177,41.6404131646761],[-81.2922755866902,41.6397794753874],[-81.2926239118731,41.639187289899],[-81.2931090941527,41.6390208028282]]]},"properties":{"source_county":"Geauga","jurisdiction":"Chardon Township","parcel_id":"09-001400","owner_name":"MARTIN ROBERT T JR","property_address":"8501 MENTOR RD","property_city":"MENTOR","property_zip":"44060"}},{"type":"Feature","geometry":{"type":"Polygon","coordinates":[[[-81.2887049345499,41.6391012621366],[-81.2899323459335,41.6390941028719],[-81.2899315592458,41.6392679834425],[-81.2899241647804,41.6409024536333],[-81.2890527810883,41.6409059428389],[-81.2875217162246,41.6409120580859],[-81.2875321032147,41.6391080907435],[-81.2887049345499,41.6391012621366]]]},"properties":{"source_county":"Geauga","jurisdiction":"Chardon Township","parcel_id":"09-001500","owner_name":"PLUMPTON JOHN & MARGARET","property_address":"9801 LITTLE MOUNTAIN RD","property_city":"MENTOR","property_zip":"44060"}},{"type":"Feature","geometry":{"type":"Polygon","coordinates":[[[-81.2816036498719,41.6350003630559],[-81.2809944841069,41.6344577952434],[-81.2813225430655,41.6336491469972],[-81.2816482011614,41.6328463984687],[-81.2855743733322,41.632803704459],[-81.285661816928,41.6328027522161],[-81.2867055869771,41.6335914627017],[-81.2868129558215,41.6336725920865],[-81.2855752465218,41.6346786475415],[-81.2854944329545,41.6347443348045],[-81.2852082663108,41.6348215992734],[-81.2841662524374,41.634750357352],[-81.2830210652705,41.6350014541147],[-81.2816036498719,41.6350003630559]]]},"properties":{"source_county":"Geauga","jurisdiction":"Chardon Township","parcel_id":"09-001501","owner_name":"JORDY HOLDINGS LLC","property_address":"8685 MENTOR RD","property_city":"MENTOR","property_zip":"44060"}},{"type":"Feature","geometry":{"type":"Polygon","coordinates":[[[-81.2918308377846,41.6401970860795],[-81.2922755866902,41.6397794753874],[-81.2946725584177,41.6404131646761],[-81.2946670320754,41.6408833459831],[-81.292029099464,41.6408939975121],[-81.291567318643,41.6404445227987],[-81.2918308377846,41.6401970860795]]]},"properties":{"source_county":"Geauga","jurisdiction":"Chardon Township","parcel_id":"09-001503","owner_name":"AQUILA JASON M & RACHAEL A","property_address":"9777 LITTLE MOUNTAIN RD","property_city":"MENTOR","property_zip":"44060"}},{"type":"Feature","geometry":{"type":"Polygon","coordinates":[[[-81.2777927429489,41.6409616861209],[-81.2777355375471,41.6392221861784],[-81.2790470315819,41.639473782935],[-81.2792195883379,41.6409563146228],[-81.2786706781145,41.6409593973551],[-81.2777927429489,41.6409616861209]]]},"properties":{"source_county":"Geauga","jurisdiction":"Chardon Township","parcel_id":"09-001507","owner_name":"TURBETT JAMES A TRUSTEE & JEAN A TRUSTEE","property_address":"10115 LITTLE MOUNTAIN RD","property_city":"MENTOR","property_zip":"44060"}},{"type":"Feature","geometry":{"type":"Polygon","coordinates":[[[-81.2802288670309,41.6326971221822],[-81.2854469846344,41.6326404135793],[-81.2855748037009,41.6327369999712],[-81.285661816928,41.6328027522161],[-81.2855743733322,41.632803704459],[-81.2816482011614,41.6328463984687],[-81.2813225430655,41.6336491469972],[-81.2809944841069,41.6344577952434],[-81.2816036498719,41.6350003630559],[-81.2809098301073,41.6354314207216],[-81.2783051963899,41.635582790737],[-81.2765145948244,41.635686818029],[-81.2752361158401,41.6357610757405],[-81.2753927893246,41.6342532675557],[-81.2765451961342,41.6342478511133],[-81.2800246728409,41.6342314282589],[-81.2799494820283,41.6336664791036],[-81.2798947556969,41.633255287103],[-81.2802288670309,41.6326971221822]]]},"properties":{"source_county":"Geauga","jurisdiction":"Chardon Township","parcel_id":"09-001509","owner_name":"DARDIS BRYAN J TRUSTEE","property_address":"8695 MENTOR RD","property_city":"MENTOR","property_zip":"44060"}},{"type":"Feature","geometry":{"type":"Polygon","coordinates":[[[-81.291445719174,41.6371730742324],[-81.2914458274958,41.6371729934166],[-81.2916723714108,41.6373441450846],[-81.2920733817448,41.6376471014882],[-81.2920977142329,41.6376648214437],[-81.2900996378424,41.6390931264665],[-81.2899323459335,41.6390941028719],[-81.2887049345499,41.6391012621366],[-81.289628663903,41.6385265564098],[-81.291445719174,41.6371730742324]]]},"properties":{"source_county":"Geauga","jurisdiction":"Chardon Township","parcel_id":"09-001510","owner_name":"SNOW WILLIAM R II & TARA L","property_address":"8535 MENTOR RD","property_city":"MENTOR","property_zip":"44060"}},{"type":"Feature","geometry":{"type":"Polygon","coordinates":[[[-81.2749657092309,41.6383632865642],[-81.2751154027504,41.6369227619653],[-81.2752361158401,41.6357610757405],[-81.2765145948244,41.635686818029],[-81.2783051963899,41.635582790737],[-81.2783695058574,41.6360413195224],[-81.2787320791739,41.6367481662486],[-81.2778182937996,41.6370991098953],[-81.2777829805644,41.6377373592049],[-81.2778875973507,41.6382193401108],[-81.2779983384753,41.6382478980883],[-81.27801318879,41.6383016424908],[-81.2772402804071,41.6381023185797],[-81.2771553236779,41.6385090065985],[-81.2778472414713,41.6386874443079],[-81.2777355375471,41.6392221861784],[-81.2777927429489,41.6409616861209],[-81.2775182983637,41.6409624015323],[-81.2774900367316,41.6401029028853],[-81.2774606337625,41.6392086818575],[-81.2768950359804,41.6390170384435],[-81.2764469978536,41.6388652242956],[-81.2749657092309,41.6383632865642]]]},"properties":{"source_county":"Geauga","jurisdiction":"Chardon Township","parcel_id":"09-001513","owner_name":"BAW HOLDINGS LLC","property_address":"10137 LITTLE MOUNTAIN RD","property_city":"MENTOR","property_zip":"44060"}},{"type":"Feature","geometry":{"type":"Polygon","coordinates":[[[-81.2811429058796,41.6376659116285],[-81.2836696375542,41.6376275895857],[-81.2837161300044,41.6409309642935],[-81.2816778789726,41.6409424765479],[-81.2814766185317,41.6390973133989],[-81.2811429058796,41.6376659116285]]]},"properties":{"source_county":"Geauga","jurisdiction":"Chardon Township","parcel_id":"09-001514","owner_name":"GEHRING DEBORAH MLADEK & ROLAND","property_address":"10033 LITTLE MOUNTAIN RD","property_city":"MENTOR","property_zip":"44060"}},{"type":"Feature","geometry":{"type":"Polygon","coordinates":[[[-81.2839356310138,41.6409297216856],[-81.2838745229685,41.6365887940115],[-81.2843643445856,41.6366453632309],[-81.2854534348603,41.6367711333603],[-81.2855990059851,41.6367879430866],[-81.2860297837183,41.6368376869638],[-81.2877533252498,41.6370366932457],[-81.2876191966019,41.6382926108239],[-81.2875321032147,41.6391080907435],[-81.2863562525514,41.6391200932705],[-81.2863600827725,41.6398447311697],[-81.2861803303153,41.6402625924396],[-81.2860760005285,41.6404677085147],[-81.2860783838349,41.6409191503184],[-81.285794572636,41.6409205429461],[-81.2847680297938,41.6409255742792],[-81.2840476634922,41.6409290988808],[-81.2840475866651,41.6409290989778],[-81.2839356310138,41.6409297216856]]]},"properties":{"source_county":"Geauga","jurisdiction":"Chardon Township","parcel_id":"09-001516","owner_name":"SARKISIAN GREGORY C","property_address":"9975 LITTLE MOUNTAIN RD","property_city":"MENTOR","property_zip":"44060"}},{"type":"Feature","geometry":{"type":"Polygon","coordinates":[[[-81.2888590701598,41.6371661113838],[-81.290157034984,41.6361992931742],[-81.2901803398467,41.6362169002036],[-81.290450335892,41.6364208898574],[-81.2908014252448,41.6366861451101],[-81.2908013376073,41.6366862108326],[-81.2889842618258,41.6380396991608],[-81.2875321032147,41.6391080907435],[-81.2876191966019,41.6382926108239],[-81.2888590701598,41.6371661113838]]]},"properties":{"source_county":"Geauga","jurisdiction":"Chardon Township","parcel_id":"09-001517","owner_name":"CARPENTER ROBERT III TOD","property_address":"8585 MENTOR RD","property_city":"MENTOR","property_zip":"44060"}},{"type":"Feature","geometry":{"type":"Polygon","coordinates":[[[-81.2882145570178,41.6366790204649],[-81.289512731268,41.6357124951147],[-81.2898274585837,41.6359502853397],[-81.290157034984,41.6361992931742],[-81.2888590701598,41.6371661113838],[-81.2876191966019,41.6382926108239],[-81.2877533252498,41.6370366932457],[-81.2882145570178,41.6366790204649]]]},"properties":{"source_county":"Geauga","jurisdiction":"Chardon Township","parcel_id":"09-001518","owner_name":"GARFIELD MICHAEL & HEATHER A","property_address":"8593 MENTOR RD","property_city":"MENTOR","property_zip":"44060"}},{"type":"Feature","geometry":{"type":"Polygon","coordinates":[[[-81.2881561920232,41.6315673691228],[-81.2902103204885,41.6311695861114],[-81.2902035934503,41.6319659661654],[-81.2855755424962,41.6326221878762],[-81.2854469846344,41.6326404135793],[-81.2855755600876,41.6325894904537],[-81.2881561920232,41.6315673691228]]]},"properties":{"source_county":"Geauga","jurisdiction":"Chardon Township","parcel_id":"09-001519","owner_name":"MC CONNELL F STEVENS III & ELIZABETH N","property_address":" MENTOR RD","property_city":"MENTOR","property_zip":"44060"}},{"type":"Feature","geometry":{"type":"Polygon","coordinates":[[[-81.2855876145424,41.6357342677071],[-81.2875787163538,41.6342512060638],[-81.2876516073481,41.6343062821486],[-81.2882230682434,41.6347380726203],[-81.2864058604985,41.6360922063341],[-81.2855982173435,41.6366679276377],[-81.2854534348603,41.6367711333603],[-81.2843643445856,41.6366453632309],[-81.2849744471923,41.6361909608481],[-81.2855876145424,41.6357342677071]]]},"properties":{"source_county":"Geauga","jurisdiction":"Chardon Township","parcel_id":"09-001520","owner_name":"CONKLIN MARC A TOD","property_address":"8651 MENTOR RD","property_city":"MENTOR","property_zip":"44060"}},{"type":"Feature","geometry":{"type":"Polygon","coordinates":[[[-81.2875696477477,41.6361918622284],[-81.2888682039111,41.6352255189839],[-81.289512731268,41.6357124951147],[-81.2882145570178,41.6366790204649],[-81.2877533252498,41.6370366932457],[-81.2860297837183,41.6368376869638],[-81.2875696477477,41.6361918622284]]]},"properties":{"source_county":"Geauga","jurisdiction":"Chardon Township","parcel_id":"09-001522","owner_name":"SMITH MICHAEL L & BARBRA A","property_address":"8615 MENTOR RD","property_city":"MENTOR","property_zip":"44060"}},{"type":"Feature","geometry":{"type":"Polygon","coordinates":[[[-81.2856193128132,41.634885620781],[-81.2869677514577,41.6337895576256],[-81.2875787163538,41.6342512060638],[-81.2855876145424,41.6357342677071],[-81.2849744471923,41.6361909608481],[-81.284704811982,41.6354250107339],[-81.2853207892388,41.6349662214183],[-81.2855778210988,41.6348968230991],[-81.2856193128132,41.634885620781]]]},"properties":{"source_county":"Geauga","jurisdiction":"Chardon Township","parcel_id":"09-001523","owner_name":"LAKOMIAK JASON ERIC & CHRISTINE JEANETTE","property_address":"8675 MENTOR RD","property_city":"MENTOR","property_zip":"44060"}},{"type":"Feature","geometry":{"type":"Polygon","coordinates":[[[-81.2908013376073,41.6366862108326],[-81.2908014252448,41.6366861451101],[-81.2911778365008,41.6369705263091],[-81.2914458274958,41.6371729934166],[-81.291445719174,41.6371730742324],[-81.289628663903,41.6385265564098],[-81.2887049345499,41.6391012621366],[-81.2875321032147,41.6391080907435],[-81.2889842618258,41.6380396991608],[-81.2908013376073,41.6366862108326]]]},"properties":{"source_county":"Geauga","jurisdiction":"Chardon Township","parcel_id":"09-001524","owner_name":"YOUNG MARYLIN G","property_address":"8555 MENTOR RD","property_city":"MENTOR","property_zip":"44060"}},{"type":"Feature","geometry":{"type":"Polygon","coordinates":[[[-81.2798676880938,41.6409526711227],[-81.2796146142981,41.6389075936915],[-81.2790297646834,41.6386137200431],[-81.2789842826508,41.6378476434305],[-81.2787029212625,41.6376977252695],[-81.2786215498703,41.6374298364946],[-81.2787320791739,41.6367481662486],[-81.2783695058574,41.6360413195224],[-81.2783051963899,41.635582790737],[-81.2809098301073,41.6354314207216],[-81.2808365075992,41.6362461709378],[-81.2810221690297,41.6371480173286],[-81.2811429058796,41.6376659116285],[-81.2814766185317,41.6390973133989],[-81.2816778789726,41.6409424765479],[-81.2814102705525,41.6409439859493],[-81.2812338528026,41.6392313793921],[-81.2798804816798,41.6392389348807],[-81.2800878843441,41.6409514322687],[-81.2798676880938,41.6409526711227]]]},"properties":{"source_county":"Geauga","jurisdiction":"Chardon Township","parcel_id":"09-001526","owner_name":"KOZAR BRADLEY & RHOADS SHARON MARIE","property_address":"10055 LITTLE MOUNTAIN RD","property_city":"MENTOR","property_zip":"44060"}},{"type":"Feature","geometry":{"type":"Polygon","coordinates":[[[-81.2771553236779,41.6385090065985],[-81.2772402804071,41.6381023185797],[-81.27801318879,41.6383016424908],[-81.2794335176603,41.6390201015409],[-81.2796586158755,41.6409538471359],[-81.2792195883379,41.6409563146228],[-81.2790470315819,41.639473782935],[-81.2777355375471,41.6392221861784],[-81.2778472414713,41.6386874443079],[-81.2771553236779,41.6385090065985]]]},"properties":{"source_county":"Geauga","jurisdiction":"Chardon Township","parcel_id":"09-001534","owner_name":"BAW HOLDINGS LLC","property_address":" LITTLE MOUNTAIN RD","property_city":"MENTOR","property_zip":"44060"}},{"type":"Feature","geometry":{"type":"Polygon","coordinates":[[[-81.2911924615015,41.638541331671],[-81.2922554008267,41.6377795224521],[-81.2935224674732,41.6387011603259],[-81.2931090941527,41.6390208028282],[-81.2926239118731,41.639187289899],[-81.2922755866902,41.6397794753874],[-81.2911924615015,41.638541331671]]]},"properties":{"source_county":"Geauga","jurisdiction":"Chardon Township","parcel_id":"09-001535","owner_name":"KUHNLE KRISTI N & THOMAS C CO TRUSTEES","property_address":" MENTOR RD","property_city":"MENTOR","property_zip":"44060"}},{"type":"Feature","geometry":{"type":"Polygon","coordinates":[[[-81.2899241647804,41.6409024536333],[-81.2899315592458,41.6392679834425],[-81.2918308377846,41.6401970860795],[-81.291567318643,41.6404445227987],[-81.292029099464,41.6408939975121],[-81.2899241647804,41.6409024536333]]]},"properties":{"source_county":"Geauga","jurisdiction":"Chardon Township","parcel_id":"09-001536","owner_name":"LEONARD LUKE & MELANIE","property_address":"9797 LITTLE MOUNTAIN RD","property_city":"MENTOR","property_zip":"44060"}},{"type":"Feature","geometry":{"type":"Polygon","coordinates":[[[-81.2900996378424,41.6390931264665],[-81.2920977142329,41.6376648214437],[-81.2922554008267,41.6377795224521],[-81.2911924615015,41.638541331671],[-81.2922755866902,41.6397794753874],[-81.2918308377846,41.6401970860795],[-81.2899315592458,41.6392679834425],[-81.2899323459335,41.6390941028719],[-81.2900996378424,41.6390931264665]]]},"properties":{"source_county":"Geauga","jurisdiction":"Chardon Township","parcel_id":"09-001537","owner_name":"KUHNLE KRISTI N & THOMAS C CO TRUSTEES","property_address":"8525 MENTOR RD","property_city":"MENTOR","property_zip":"44060"}},{"type":"Feature","geometry":{"type":"Polygon","coordinates":[[[-81.2798804816798,41.6392389348807],[-81.2812338528026,41.6392313793921],[-81.2814102705525,41.6409439859493],[-81.2800878843441,41.6409514322687],[-81.2798804816798,41.6392389348807]]]},"properties":{"source_county":"Geauga","jurisdiction":"Chardon Township","parcel_id":"09-001539","owner_name":"SLATTERY ROBERT P & RENEE R","property_address":"10075 LITTLE MOUNTAIN RD","property_city":"MENTOR","property_zip":"44060"}},{"type":"Feature","geometry":{"type":"Polygon","coordinates":[[[-81.2830210652705,41.6350014541147],[-81.2841662524374,41.634750357352],[-81.2852082663108,41.6348215992734],[-81.2854944329545,41.6347443348045],[-81.2855752465218,41.6346786475415],[-81.2868129558215,41.6336725920865],[-81.2869677514577,41.6337895576256],[-81.2856193128132,41.634885620781],[-81.2855778210988,41.6348968230991],[-81.2853207892388,41.6349662214183],[-81.284704811982,41.6354250107339],[-81.2849744471923,41.6361909608481],[-81.2843643445856,41.6366453632309],[-81.2838745229685,41.6365887940115],[-81.2808365075992,41.6362461709378],[-81.2809098301073,41.6354314207216],[-81.2816036498719,41.6350003630559],[-81.2830210652705,41.6350014541147]]]},"properties":{"source_county":"Geauga","jurisdiction":"Chardon Township","parcel_id":"09-001541","owner_name":"ARATA LOUIS K TOD","property_address":"8679 MENTOR RD","property_city":"MENTOR","property_zip":"44060"}},{"type":"Feature","geometry":{"type":"Polygon","coordinates":[[[-81.2837161300044,41.6409309642935],[-81.2836696375542,41.6376275895857],[-81.2811429058796,41.6376659116285],[-81.2810221690297,41.6371480173286],[-81.2808365075992,41.6362461709378],[-81.2838745229685,41.6365887940115],[-81.2839356310138,41.6409297216856],[-81.2837161300044,41.6409309642935]]]},"properties":{"source_county":"Geauga","jurisdiction":"Chardon Township","parcel_id":"09-001542","owner_name":"JASINSKI LINSEY A TRUSTEE","property_address":"9985 LITTLE MOUNTAIN RD","property_city":"MENTOR","property_zip":"44060"}},{"type":"Feature","geometry":{"type":"Polygon","coordinates":[[[-81.2855888019239,41.6304980203629],[-81.2856997827921,41.6304526636454],[-81.2857436125151,41.6306619047637],[-81.285587409943,41.6307152129124],[-81.2851558012182,41.6308625084016],[-81.2840836207578,41.6313006408733],[-81.283948842241,41.6311681910131],[-81.2850508291261,41.6307178800927],[-81.2855888019239,41.6304980203629]]]},"properties":{"source_county":"Geauga","jurisdiction":"Chardon Township","parcel_id":"09-001543","owner_name":"SPLIT ROCK PROPERTIES LLC","property_address":" MENTOR RD","property_city":"MENTOR","property_zip":"44060"}},{"type":"Feature","geometry":{"type":"Polygon","coordinates":[[[-81.2745594819662,41.639109903554],[-81.2749657092309,41.6383632865642],[-81.2764469978536,41.6388652242956],[-81.2768950359804,41.6390170384435],[-81.2774606337625,41.6392086818575],[-81.2774900367316,41.6401029028853],[-81.276824871129,41.6398775245417],[-81.2764283246643,41.6397431610563],[-81.2745594819662,41.639109903554]]]},"properties":{"source_county":"Geauga","jurisdiction":"Chardon Township","parcel_id":"09-700000","owner_name":"HOLDEN ARBORETUM THE","property_address":" LITTLE MOUNTAIN RD","property_city":"MENTOR","property_zip":"44060"}},{"type":"Feature","geometry":{"type":"Polygon","coordinates":[[[-81.2766121988037,41.6293082827187],[-81.2765976549186,41.6307515082894],[-81.2765976541443,41.6307515497026],[-81.2765789423821,41.6327366489392],[-81.2765773437908,41.6327360639217],[-81.2749998921871,41.6321591703284],[-81.2750607969562,41.6295263710411],[-81.2766121988037,41.6293082827187]]]},"properties":{"source_county":"Geauga","jurisdiction":"Chardon Township","parcel_id":"09-700003","owner_name":"HOLDEN ARBORETUM THE","property_address":" GRISWOLD RD","property_city":"MENTOR","property_zip":"44060"}},{"type":"Feature","geometry":{"type":"Polygon","coordinates":[[[-81.2797345048934,41.6327024825708],[-81.2802288670309,41.6326971221822],[-81.2798947556969,41.633255287103],[-81.2799494820283,41.6336664791036],[-81.2800246728409,41.6342314282589],[-81.2765451961342,41.6342478511133],[-81.2753927893246,41.6342532675557],[-81.2754592206164,41.6336139167447],[-81.2755492141172,41.6327477790244],[-81.2765773313285,41.632736666201],[-81.2765789423821,41.6327366489392],[-81.2797345048934,41.6327024825708]]]},"properties":{"source_county":"Geauga","jurisdiction":"Chardon Township","parcel_id":"09-700005","owner_name":"HOLDEN ARBORETUM THE","property_address":" GRISWOLD RD","property_city":"MENTOR","property_zip":"44060"}},{"type":"Feature","geometry":{"type":"Polygon","coordinates":[[[-81.281861206462,41.6289808898565],[-81.2819679801167,41.6285324266423],[-81.2821874095504,41.6285629139841],[-81.2829186558956,41.6283275223666],[-81.2828092769481,41.6281018200614],[-81.2830522547179,41.6280035788328],[-81.2832256604283,41.6282507176887],[-81.2836655741242,41.6283157332403],[-81.2837759384101,41.6277261869683],[-81.2844644662943,41.6277017668939],[-81.2847277526459,41.6274829444574],[-81.2851837139042,41.627347280701],[-81.2856058926209,41.6277920599634],[-81.2863326799735,41.628557739168],[-81.285598771245,41.6289320145935],[-81.2841091960309,41.629691635697],[-81.282396685672,41.6296427965843],[-81.2817740150591,41.6290308352048],[-81.281861206462,41.6289808898565]]]},"properties":{"source_county":"Geauga","jurisdiction":"Chardon Township","parcel_id":"06-002681","owner_name":"LANE CAROLYN & TIM","property_address":"8830 MENTOR RD","property_city":"MENTOR","property_zip":"44060"}},{"type":"Feature","geometry":{"type":"Polygon","coordinates":[[[-81.2774092718697,41.6291962661804],[-81.278027329777,41.6291004221051],[-81.2785694698413,41.6302189308248],[-81.2774012771603,41.6304036334623],[-81.277038708994,41.6292483228607],[-81.2774092718697,41.6291962661804]]]},"properties":{"source_county":"Geauga","jurisdiction":"Chardon Township","parcel_id":"06-008200","owner_name":"KEYBANK NATIONAL ASSOCIATION TRUSTEE","property_address":"10160 GRISWOLD RD","property_city":"MENTOR","property_zip":"44060"}},{"type":"Feature","geometry":{"type":"Polygon","coordinates":[[[-81.2741470636847,41.6263051535421],[-81.2766109133011,41.6239559642228],[-81.2767319415915,41.6240749371995],[-81.2767439969642,41.6240867872561],[-81.27668181255,41.6262946257144],[-81.276680905399,41.6263268429471],[-81.2741470636847,41.6263051535421]]]},"properties":{"source_county":"Geauga","jurisdiction":"Chardon Township","parcel_id":"06-012600","owner_name":"LISAC MARIA MIMI","property_address":"9031 MENTOR RD","property_city":"MENTOR","property_zip":"44060"}},{"type":"Feature","geometry":{"type":"Polygon","coordinates":[[[-81.2817931107427,41.6313109600973],[-81.28324685738,41.6304783205611],[-81.2839488422427,41.6311681910159],[-81.2840836207595,41.6313006408762],[-81.2854469846361,41.6326404135821],[-81.2802288670326,41.6326971221851],[-81.279734504895,41.6327024825737],[-81.2817931107427,41.6313109600973]]]},"properties":{"source_county":"Geauga","jurisdiction":"Chardon Township","parcel_id":"06-038930","owner_name":"HITCHCOCK FARM LLC THE","property_address":"8775 MENTOR RD","property_city":"MENTOR","property_zip":"44060"}},{"type":"Feature","geometry":{"type":"Polygon","coordinates":[[[-81.2797525998504,41.6302723786721],[-81.2790510749759,41.6289416585402],[-81.2791481934365,41.6289265972343],[-81.279473543108,41.6287528187173],[-81.2807807261544,41.6280546001646],[-81.2812365834753,41.6285026356009],[-81.2817740150591,41.6290308352048],[-81.282396685672,41.6296427965843],[-81.2813821794209,41.6294874874371],[-81.2797525998504,41.6302723786721]]]},"properties":{"source_county":"Geauga","jurisdiction":"Chardon Township","parcel_id":"06-042400","owner_name":"FAHRENDORF REBECCA L","property_address":"8853 MENTOR RD","property_city":"MENTOR","property_zip":"44060"}},{"type":"Feature","geometry":{"type":"Polygon","coordinates":[[[-81.2797525998504,41.6302723786721],[-81.2813821794209,41.6294874874371],[-81.282396685672,41.6296427965843],[-81.28324685738,41.6304783205611],[-81.2817931107427,41.6313109600973],[-81.279734504895,41.6327024825737],[-81.2791127852684,41.6312190313912],[-81.279964377691,41.6306740854643],[-81.2797525998504,41.6302723786721]]]},"properties":{"source_county":"Geauga","jurisdiction":"Chardon Township","parcel_id":"06-042800","owner_name":"HITCHCOCK FARM LLC THE","property_address":"8833 MENTOR RD","property_city":"MENTOR","property_zip":"44060"}},{"type":"Feature","geometry":{"type":"Polygon","coordinates":[[[-81.2766833602173,41.626325401024],[-81.2781468151652,41.6254657270158],[-81.2787207799188,41.626029900561],[-81.2781964179875,41.6263329748714],[-81.2778392490971,41.6265394101666],[-81.2777867996903,41.6276788445858],[-81.2766351611493,41.6283188860171],[-81.2766163826643,41.6283293219697],[-81.2755709290954,41.6279547696581],[-81.2755399774359,41.6263170974944],[-81.276680905399,41.6263268429471],[-81.2766821673922,41.6263261016388],[-81.2766833602173,41.626325401024]]]},"properties":{"source_county":"Geauga","jurisdiction":"Chardon Township","parcel_id":"06-042900","owner_name":"OFFUTT GRACE & MC MILLAN VICTORIA M & S STERLING IV","property_address":" MENTOR RD","property_city":"MENTOR","property_zip":"44060"}},{"type":"Feature","geometry":{"type":"Polygon","coordinates":[[[-81.2741470636847,41.6263051535421],[-81.2755399774359,41.6263170974944],[-81.2755709290954,41.6279547696581],[-81.2766163826643,41.6283293219697],[-81.2766344631749,41.6283490919883],[-81.2774092718697,41.6291962661804],[-81.277038708994,41.6292483228607],[-81.2766121988053,41.6293082827215],[-81.2750607969579,41.6295263710439],[-81.2740439010515,41.6296693083737],[-81.2741395428991,41.6263051309519],[-81.2741395436918,41.6263050886383],[-81.2741470636847,41.6263051535421]]]},"properties":{"source_county":"Geauga","jurisdiction":"Chardon Township","parcel_id":"06-043000","owner_name":"OFFUTT GRACE & MC MILLAN VICTORIA M & S STERLING IV","property_address":" GRISWOLD RD","property_city":"MENTOR","property_zip":"44060"}},{"type":"Feature","geometry":{"type":"Polygon","coordinates":[[[-81.2787331011809,41.6260420107227],[-81.2820272473961,41.6236388022936],[-81.2828659220625,41.624461116601],[-81.2815364768077,41.6260711562703],[-81.2811249107785,41.6263475773545],[-81.2806109144701,41.6266927868482],[-81.2798886848204,41.6271778415161],[-81.2790333733395,41.626337155807],[-81.2787331011809,41.6260420107227]]]},"properties":{"source_county":"Geauga","jurisdiction":"Chardon Township","parcel_id":"06-043100","owner_name":"HITCHCOCK MARGARET N TRUSTEE","property_address":" MENTOR RD","property_city":"MENTOR","property_zip":"44060"}},{"type":"Feature","geometry":{"type":"Polygon","coordinates":[[[-81.2815364768077,41.6260711562703],[-81.2828659220625,41.624461116601],[-81.2826657469756,41.6258207429602],[-81.2818725180045,41.6263512934026],[-81.2816516209338,41.6264990370908],[-81.2813068100435,41.6267296566844],[-81.2809377080671,41.6269765206217],[-81.2806109144701,41.6266927868482],[-81.2811249107785,41.6263475773545],[-81.2815364768077,41.6260711562703]]]},"properties":{"source_county":"Geauga","jurisdiction":"Chardon Township","parcel_id":"06-043200","owner_name":"HITCHCOCK MARGARET N TRUSTEE","property_address":" MENTOR RD","property_city":"MENTOR","property_zip":"44060"}},{"type":"Feature","geometry":{"type":"Polygon","coordinates":[[[-81.2798886848204,41.6271778415161],[-81.2806109144701,41.6266927868482],[-81.2809377080671,41.6269765206217],[-81.2801915720027,41.6274755438422],[-81.2798886848204,41.6271778415161]]]},"properties":{"source_county":"Geauga","jurisdiction":"Chardon Township","parcel_id":"06-043300","owner_name":"HITCHCOCK MARGARET N TRUSTEE","property_address":" MENTOR RD","property_city":"MENTOR","property_zip":"44060"}},{"type":"Feature","geometry":{"type":"Polygon","coordinates":[[[-81.2818725180045,41.6263512934026],[-81.2826657469756,41.6258207429602],[-81.2834944425874,41.6263593385585],[-81.2837987020679,41.6265570824841],[-81.2822491716215,41.6275531702994],[-81.2819680796036,41.6273075317087],[-81.2818589825862,41.6272121943608],[-81.2821546240245,41.6265992130494],[-81.2816516209338,41.6264990370908],[-81.2818725180045,41.6263512934026]]]},"properties":{"source_county":"Geauga","jurisdiction":"Chardon Township","parcel_id":"06-043400","owner_name":"HITCHCOCK MARGARET N TRUSTEE","property_address":"8846 MENTOR RD","property_city":"MENTOR","property_zip":"44060"}},{"type":"Feature","geometry":{"type":"Polygon","coordinates":[[[-81.279473543108,41.6287528187173],[-81.2783433681644,41.6276411284292],[-81.2777867996903,41.6276788445858],[-81.2778392490971,41.6265394101666],[-81.2781964179875,41.6263329748714],[-81.2787207799188,41.626029900561],[-81.2787331011809,41.6260420107227],[-81.2790333733395,41.626337155807],[-81.2798886848204,41.6271778415161],[-81.2801915720027,41.6274755438422],[-81.2807807261544,41.6280546001646],[-81.279473543108,41.6287528187173]]]},"properties":{"source_county":"Geauga","jurisdiction":"Chardon Township","parcel_id":"06-043600","owner_name":"LANDIES BARBARA S & GORDON A TRUSTEES","property_address":" MENTOR RD","property_city":"MENTOR","property_zip":"44060"}},{"type":"Feature","geometry":{"type":"Polygon","coordinates":[[[-81.2777867996903,41.6276788445858],[-81.2783433681644,41.6276411284292],[-81.279473543108,41.6287528187173],[-81.2791481934365,41.6289265972343],[-81.2790510749759,41.6289416585402],[-81.2781754841164,41.629077446364],[-81.278027329777,41.6291004221051],[-81.2774092718697,41.6291962661804],[-81.2766344631749,41.6283490919883],[-81.2766163826643,41.6283293219697],[-81.2766351611493,41.6283188860171],[-81.2777867996903,41.6276788445858]]]},"properties":{"source_county":"Geauga","jurisdiction":"Chardon Township","parcel_id":"06-043700","owner_name":"VAN WAGNER MEGHAN AKA LANDIES MEGHAN TRUSTEE","property_address":"10161 GRISWOLD RD","property_city":"MENTOR","property_zip":"44060"}},{"type":"Feature","geometry":{"type":"Polygon","coordinates":[[[-81.2781754841164,41.629077446364],[-81.2790510749759,41.6289416585402],[-81.2797525998504,41.6302723786721],[-81.279964377691,41.6306740854643],[-81.2791127852684,41.6312190313912],[-81.279734504895,41.6327024825737],[-81.2765789423838,41.632736648942],[-81.276597654146,41.6307515497054],[-81.2765976549203,41.6307515082922],[-81.2786742450274,41.6302941525933],[-81.2781754841164,41.629077446364]]]},"properties":{"source_county":"Geauga","jurisdiction":"Chardon Township","parcel_id":"06-065100","owner_name":"HITCHCOCK FARM LLC THE","property_address":" GRISWOLD RD","property_city":"MENTOR","property_zip":"44060"}},{"type":"Feature","geometry":{"type":"Polygon","coordinates":[[[-81.2863326799735,41.628557739168],[-81.2902574320053,41.6265562032062],[-81.2902395603133,41.6285973477539],[-81.2856997827938,41.6304526636482],[-81.2855888019255,41.6304980203658],[-81.2850508291278,41.6307178800955],[-81.2841091960309,41.629691635697],[-81.285598771245,41.6289320145935],[-81.2863326799735,41.628557739168]]]},"properties":{"source_county":"Geauga","jurisdiction":"Chardon Township","parcel_id":"06-067200","owner_name":"SPLIT ROCK PROPERTIES LLC","property_address":" MENTOR RD","property_city":"MENTOR","property_zip":"44060"}},{"type":"Feature","geometry":{"type":"Polygon","coordinates":[[[-81.2809377080671,41.6269765206217],[-81.2813068100435,41.6267296566844],[-81.2818589825862,41.6272121943608],[-81.2812365834753,41.6285026356009],[-81.2807807261544,41.6280546001646],[-81.2801915720027,41.6274755438422],[-81.2809377080671,41.6269765206217]]]},"properties":{"source_county":"Geauga","jurisdiction":"Chardon Township","parcel_id":"06-090280","owner_name":"HITCHCOCK MARGARET N TRUSTEE","property_address":" MENTOR RD","property_city":"MENTOR","property_zip":"44060"}},{"type":"Feature","geometry":{"type":"Polygon","coordinates":[[[-81.28324685738,41.6304783205611],[-81.282396685672,41.6296427965843],[-81.2841091960309,41.629691635697],[-81.2850508291278,41.6307178800955],[-81.2839488422427,41.6311681910159],[-81.28324685738,41.6304783205611]]]},"properties":{"source_county":"Geauga","jurisdiction":"Chardon Township","parcel_id":"06-120112","owner_name":"SPLIT ROCK PROPERTIES LLC","property_address":" MENTOR RD","property_city":"MENTOR","property_zip":"44060"}},{"type":"Feature","geometry":{"type":"Polygon","coordinates":[[[-81.2812365834753,41.6285026356009],[-81.2818589825862,41.6272121943608],[-81.2819680796036,41.6273075317087],[-81.2816848555367,41.6278947569384],[-81.2814508595596,41.628379906658],[-81.2812365834753,41.6285026356009]]]},"properties":{"source_county":"Geauga","jurisdiction":"Chardon Township","parcel_id":"06-120124","owner_name":"HITCHCOCK MARGARET N TRUSTEE","property_address":" MENTOR RD","property_city":"MENTOR","property_zip":"44060"}},{"type":"Feature","geometry":{"type":"Polygon","coordinates":[[[-81.2765976549203,41.6307515082922],[-81.2766121988053,41.6293082827215],[-81.277038708994,41.6292483228607],[-81.2774012771603,41.6304036334623],[-81.2785694698413,41.6302189308248],[-81.278027329777,41.6291004221051],[-81.2781754841164,41.629077446364],[-81.2786742450274,41.6302941525933],[-81.2765976549203,41.6307515082922]]]},"properties":{"source_county":"Geauga","jurisdiction":"Chardon Township","parcel_id":"06-120130","owner_name":"KEYBANK NATIONAL ASSOCIATION TRUSTEE","property_address":" GRISWOLD RD","property_city":"MENTOR","property_zip":"44060"}},{"type":"Feature","geometry":{"type":"Polygon","coordinates":[[[-81.2813068100435,41.6267296566844],[-81.2816516209338,41.6264990370908],[-81.2821546240245,41.6265992130494],[-81.2818589825862,41.6272121943608],[-81.2813068100435,41.6267296566844]]]},"properties":{"source_county":"Geauga","jurisdiction":"Chardon Township","parcel_id":"06-120257","owner_name":"HITCHCOCK MARGARET N TRUSTEE","property_address":" MENTOR RD","property_city":"MENTOR","property_zip":"44060"}},{"type":"Feature","geometry":{"type":"Polygon","coordinates":[[[-81.2917131926449,41.6341687561182],[-81.2947457050472,41.6341884997468],[-81.2946771510778,41.6400223220809],[-81.2946771470921,41.6400226687165],[-81.2937602721478,41.6388741795845],[-81.2935224674749,41.6387011603287],[-81.2922554008284,41.637779522455],[-81.2920977142347,41.6376648214465],[-81.2920733817465,41.637647101491],[-81.2916723714124,41.6373441450875],[-81.2914458274975,41.6371729934194],[-81.2911778365024,41.6369705263119],[-81.2912114622682,41.6341654822173],[-81.2917131926449,41.6341687561182]]]},"properties":{"source_county":"Geauga","jurisdiction":"Chardon Township","parcel_id":"06-120632","owner_name":"HISTORIC SHADYBROOK HOUSE LLC","property_address":" MENTOR RD","property_city":"MENTOR","property_zip":"44060"}},{"type":"Feature","geometry":{"type":"Polygon","coordinates":[[[-81.2817740150591,41.6290308352048],[-81.2812365834753,41.6285026356009],[-81.2814508595596,41.628379906658],[-81.2816848555367,41.6278947569384],[-81.2822491716215,41.6275531702994],[-81.2837987020679,41.6265570824841],[-81.2841668041727,41.6263626664983],[-81.2847408433662,41.6260594789471],[-81.2851141463284,41.6263673504723],[-81.2852803824533,41.6265044475725],[-81.284674484692,41.6268107795406],[-81.2851837139042,41.627347280701],[-81.2847277526459,41.6274829444574],[-81.2844644662943,41.6277017668939],[-81.2837759384101,41.6277261869683],[-81.2836655741242,41.6283157332403],[-81.2832256604283,41.6282507176887],[-81.2830522547179,41.6280035788328],[-81.2828092769481,41.6281018200614],[-81.2829186558956,41.6283275223666],[-81.2821874095504,41.6285629139841],[-81.2819679801167,41.6285324266423],[-81.281861206462,41.6289808898565],[-81.2817740150591,41.6290308352048]]]},"properties":{"source_county":"Geauga","jurisdiction":"Chardon Township","parcel_id":"06-120650","owner_name":"SAGE JASON GREGORY & CHRISTINA LEIGH","property_address":"8844 MENTOR RD","property_city":"MENTOR","property_zip":"44060"}},{"type":"Feature","geometry":{"type":"Polygon","coordinates":[[[-81.27668181255,41.6262946257144],[-81.2767439969642,41.6240867872561],[-81.2776196287775,41.624947523157],[-81.2781468151652,41.6254657270158],[-81.2766833602173,41.626325401024],[-81.2766821673922,41.6263261016388],[-81.276680905399,41.6263268429471],[-81.27668181255,41.6262946257144]]]},"properties":{"source_county":"Geauga","jurisdiction":"Chardon Township","parcel_id":"06-120736","owner_name":"OFFUTT GRACE & MC MILLAN VICTORIA M & S STERLING IV","property_address":" MENTOR RD","property_city":"MENTOR","property_zip":"44060"}},{"type":"Feature","geometry":{"type":"Polygon","coordinates":[[[-81.2816848555367,41.6278947569384],[-81.2819680796036,41.6273075317087],[-81.2822491716215,41.6275531702994],[-81.2816848555367,41.6278947569384]]]},"properties":{"source_county":"Geauga","jurisdiction":"Chardon Township","parcel_id":"06-121069","owner_name":"HITCHCOCK MARGARET N TRUSTEE","property_address":" MENTOR RD","property_city":"MENTOR","property_zip":"44060"}},{"type":"Feature","geometry":{"type":"Polygon","coordinates":[[[-81.2909695523534,41.6360339646981],[-81.2903465785005,41.6355638427411],[-81.2901819482377,41.6356863967682],[-81.2901798766168,41.6356369957164],[-81.2901827893538,41.6346764210432],[-81.2901969991081,41.6342355048331],[-81.2901905488915,41.6335791982814],[-81.290190235704,41.6335473231741],[-81.2901909517322,41.6334625143201],[-81.290203593452,41.6319659661682],[-81.2902103204902,41.6311695861143],[-81.2902225895572,41.6297171609954],[-81.290234994177,41.6291188269792],[-81.2902395603133,41.6285973477539],[-81.2902574320053,41.6265562032062],[-81.2902589381061,41.626384250055],[-81.2903299794969,41.619206118002],[-81.2918549958822,41.6192021124769],[-81.2928663674943,41.6191994470363],[-81.2936847271381,41.6202003870996],[-81.294567617909,41.6205874730607],[-81.2947787276447,41.6210218893638],[-81.2942990710682,41.6226213465366],[-81.294455548393,41.6228496283603],[-81.2946588028817,41.6230863848872],[-81.2944465573509,41.6233286074367],[-81.2940981496946,41.6241626464309],[-81.2940634947246,41.6245381901429],[-81.2941203129467,41.6247813637738],[-81.2944527422292,41.6250076617956],[-81.2948523588295,41.6251103743742],[-81.2948513789512,41.6251938128978],[-81.2948372298883,41.6263982929168],[-81.2947530547111,41.6335629832887],[-81.2947457050472,41.6341884997468],[-81.2917131926449,41.6341687561182],[-81.2912114622682,41.6341654822173],[-81.2911778365024,41.6369705263119],[-81.2908014252465,41.6366861451129],[-81.2904503358937,41.6364208898602],[-81.2909695523534,41.6360339646981]]]},"properties":{"source_county":"Geauga","jurisdiction":"Chardon Township","parcel_id":"06-706100","owner_name":"HOLDEN ARBORETUM THE","property_address":" MENTOR RD","property_city":"MENTOR","property_zip":"44060"}},{"type":"Feature","geometry":{"type":"Polygon","coordinates":[[[-81.2864058605002,41.636092206337],[-81.2882230682451,41.6347380726231],[-81.2887964602757,41.6351713119971],[-81.2888682039128,41.6352255189867],[-81.2875696477494,41.6361918622312],[-81.28602978372,41.6368376869667],[-81.2855990059867,41.6367879430894],[-81.285453434862,41.6367711333631],[-81.2855982173453,41.6366679276406],[-81.2864058605002,41.636092206337]]]},"properties":{"source_county":"Geauga","jurisdiction":"Chardon Township","parcel_id":"09-000050","owner_name":"SCHWAB MATTHEW GERARD & SAMANTHA ANN","property_address":"8643 MENTOR RD","property_city":"MENTOR","property_zip":"44060"}},{"type":"Feature","geometry":{"type":"Polygon","coordinates":[[[-81.2901819482377,41.6356863967682],[-81.2903465785005,41.6355638427411],[-81.2909695523534,41.6360339646981],[-81.2904503358937,41.6364208898602],[-81.2901803398485,41.6362169002065],[-81.2901570349857,41.6361992931771],[-81.2898274585854,41.6359502853425],[-81.290179966876,41.6356878718138],[-81.2901819482377,41.6356863967682]]]},"properties":{"source_county":"Geauga","jurisdiction":"Chardon Township","parcel_id":"09-000100","owner_name":"SEIDEL MARK F & BARBARA E","property_address":"8584 MENTOR RD","property_city":"MENTOR","property_zip":"44060"}},{"type":"Feature","geometry":{"type":"Polygon","coordinates":[[[-81.2855755424978,41.632622187879],[-81.290203593452,41.6319659661682],[-81.2901909517322,41.6334625143201],[-81.2898360339196,41.6335804498786],[-81.2876516073498,41.6343062821515],[-81.2875787163555,41.6342512060666],[-81.2869677514593,41.6337895576284],[-81.2868129558232,41.6336725920894],[-81.2867055869787,41.6335914627045],[-81.2856618169296,41.6328027522189],[-81.2855748037026,41.632736999974],[-81.2854469846361,41.6326404135821],[-81.2855755424978,41.632622187879]]]},"properties":{"source_county":"Geauga","jurisdiction":"Chardon Township","parcel_id":"09-000300","owner_name":"MC CONNELL F STEVENS III & ELIZABETH N","property_address":"8700 MENTOR RD","property_city":"MENTOR","property_zip":"44060"}},{"type":"Feature","geometry":{"type":"Polygon","coordinates":[[[-81.2898360339196,41.6335804498786],[-81.2901909517322,41.6334625143201],[-81.290190235704,41.6335473231741],[-81.2901905488915,41.6335791982814],[-81.2901969991081,41.6342355048331],[-81.2901827893538,41.6346764210432],[-81.2887964602757,41.6351713119971],[-81.2882230682451,41.6347380726231],[-81.2876516073498,41.6343062821515],[-81.2898360339196,41.6335804498786]]]},"properties":{"source_county":"Geauga","jurisdiction":"Chardon Township","parcel_id":"09-000400","owner_name":"BONNES KATHLEEN A","property_address":"8640 MENTOR RD","property_city":"MENTOR","property_zip":"44060"}},{"type":"Feature","geometry":{"type":"Polygon","coordinates":[[[-81.286356252553,41.6391200932733],[-81.2875321032164,41.6391080907463],[-81.2875217162262,41.6409120580888],[-81.2860783838367,41.6409191503212],[-81.2860760005302,41.6404677085175],[-81.2861803303169,41.6402625924424],[-81.2863600827742,41.6398447311725],[-81.286356252553,41.6391200932733]]]},"properties":{"source_county":"Geauga","jurisdiction":"Chardon Township","parcel_id":"09-000700","owner_name":"WILES KATHERINE TOD","property_address":"9935 LITTLE MOUNTAIN RD","property_city":"MENTOR","property_zip":"44060"}},{"type":"Feature","geometry":{"type":"Polygon","coordinates":[[[-81.2778182938013,41.6370991098981],[-81.2787320791755,41.6367481662514],[-81.2786215498719,41.6374298364974],[-81.2787029212642,41.6376977252723],[-81.2789842826525,41.6378476434333],[-81.279029764685,41.6386137200459],[-81.2796146142998,41.6389075936943],[-81.2798676880955,41.6409526711255],[-81.2796586158772,41.6409538471387],[-81.279433517662,41.6390201015437],[-81.2780131887917,41.6383016424937],[-81.277998338477,41.6382478980911],[-81.2778875973523,41.6382193401137],[-81.277782980566,41.6377373592078],[-81.2778182938013,41.6370991098981]]]},"properties":{"source_county":"Geauga","jurisdiction":"Chardon Township","parcel_id":"09-000800","owner_name":"GAUGLER ERIN M TRUSTEE","property_address":"10095 LITTLE MOUNTAIN RD","property_city":"MENTOR","property_zip":"44060"}},{"type":"Feature","geometry":{"type":"Polygon","coordinates":[[[-81.2887964602757,41.6351713119971],[-81.2901827893538,41.6346764210432],[-81.2901798766168,41.6356369957164],[-81.2901819482377,41.6356863967682],[-81.290179966876,41.6356878718138],[-81.2898274585854,41.6359502853425],[-81.2895127312697,41.6357124951175],[-81.2888682039128,41.6352255189867],[-81.2887964602757,41.6351713119971]]]},"properties":{"source_county":"Geauga","jurisdiction":"Chardon Township","parcel_id":"09-000900","owner_name":"WHARTON RICHARD M & GEORGIA L","property_address":"8606 MENTOR RD","property_city":"MENTOR","property_zip":"44060"}},{"type":"Feature","geometry":{"type":"Polygon","coordinates":[[[-81.2856997827938,41.6304526636482],[-81.2902395603133,41.6285973477539],[-81.290234994177,41.6291188269792],[-81.2902225895572,41.6297171609954],[-81.2902103204902,41.6311695861143],[-81.2881561920249,41.6315673691256],[-81.2855755600892,41.6325894904565],[-81.2854469846361,41.6326404135821],[-81.2840836207595,41.6313006408762],[-81.2851558012199,41.6308625084044],[-81.2855874099446,41.6307152129153],[-81.2857436125168,41.6306619047665],[-81.2856997827938,41.6304526636482]]]},"properties":{"source_county":"Geauga","jurisdiction":"Chardon Township","parcel_id":"09-001000","owner_name":"MCCONNELL F STEVENS III TRUSTEE","property_address":"8724 MENTOR RD","property_city":"MENTOR","property_zip":"44060"}},{"type":"Feature","geometry":{"type":"Polygon","coordinates":[[[-81.2735419456299,41.6409799804124],[-81.2745594819678,41.6391099035568],[-81.2764283246659,41.6397431610591],[-81.2768248711306,41.6398775245445],[-81.2774900367333,41.6401029028881],[-81.2775182983654,41.6409624015351],[-81.2767500595133,41.6409643996264],[-81.2764840937325,41.6409650901521],[-81.2735419456299,41.6409799804124]]]},"properties":{"source_county":"Geauga","jurisdiction":"Chardon Township","parcel_id":"09-001200","owner_name":"RELJANOVIC MICHAEL & GLORIA O","property_address":"10209 LITTLE MOUNTAIN RD","property_city":"MENTOR","property_zip":"44060"}},{"type":"Feature","geometry":{"type":"Polygon","coordinates":[[[-81.2931090941544,41.639020802831],[-81.2935224674749,41.6387011603287],[-81.2937602721478,41.6388741795845],[-81.2946771470921,41.6400226687165],[-81.2946725584194,41.6404131646789],[-81.2922755866918,41.6397794753902],[-81.2926239118747,41.6391872899018],[-81.2931090941544,41.639020802831]]]},"properties":{"source_county":"Geauga","jurisdiction":"Chardon Township","parcel_id":"09-001400","owner_name":"MARTIN ROBERT T JR","property_address":"8501 MENTOR RD","property_city":"MENTOR","property_zip":"44060"}},{"type":"Feature","geometry":{"type":"Polygon","coordinates":[[[-81.2887049345516,41.6391012621394],[-81.2899323459351,41.6390941028747],[-81.2899315592474,41.6392679834453],[-81.2899241647821,41.6409024536362],[-81.2890527810899,41.6409059428418],[-81.2875217162262,41.6409120580888],[-81.2875321032164,41.6391080907463],[-81.2887049345516,41.6391012621394]]]},"properties":{"source_county":"Geauga","jurisdiction":"Chardon Township","parcel_id":"09-001500","owner_name":"PLUMPTON JOHN & MARGARET","property_address":"9801 LITTLE MOUNTAIN RD","property_city":"MENTOR","property_zip":"44060"}},{"type":"Feature","geometry":{"type":"Polygon","coordinates":[[[-81.2816036498736,41.6350003630587],[-81.2809944841086,41.6344577952463],[-81.2813225430671,41.633649147],[-81.2816482011631,41.6328463984715],[-81.2855743733339,41.6328037044618],[-81.2856618169296,41.6328027522189],[-81.2867055869787,41.6335914627045],[-81.2868129558232,41.6336725920894],[-81.2855752465235,41.6346786475443],[-81.2854944329562,41.6347443348073],[-81.2852082663125,41.6348215992762],[-81.2841662524391,41.6347503573548],[-81.2830210652723,41.6350014541175],[-81.2816036498736,41.6350003630587]]]},"properties":{"source_county":"Geauga","jurisdiction":"Chardon Township","parcel_id":"09-001501","owner_name":"JORDY HOLDINGS LLC","property_address":"8685 MENTOR RD","property_city":"MENTOR","property_zip":"44060"}},{"type":"Feature","geometry":{"type":"Polygon","coordinates":[[[-81.2918308377862,41.6401970860824],[-81.2922755866918,41.6397794753902],[-81.2946725584194,41.6404131646789],[-81.294667032077,41.640883345986],[-81.2920290994657,41.6408939975149],[-81.2915673186447,41.6404445228016],[-81.2918308377862,41.6401970860824]]]},"properties":{"source_county":"Geauga","jurisdiction":"Chardon Township","parcel_id":"09-001503","owner_name":"AQUILA JASON M & RACHAEL A","property_address":"9777 LITTLE MOUNTAIN RD","property_city":"MENTOR","property_zip":"44060"}},{"type":"Feature","geometry":{"type":"Polygon","coordinates":[[[-81.2777927429505,41.6409616861237],[-81.2777355375488,41.6392221861812],[-81.2790470315836,41.6394737829379],[-81.2792195883396,41.6409563146256],[-81.2786706781162,41.640959397358],[-81.2777927429505,41.6409616861237]]]},"properties":{"source_county":"Geauga","jurisdiction":"Chardon Township","parcel_id":"09-001507","owner_name":"TURBETT JAMES A TRUSTEE & JEAN A TRUSTEE","property_address":"10115 LITTLE MOUNTAIN RD","property_city":"MENTOR","property_zip":"44060"}},{"type":"Feature","geometry":{"type":"Polygon","coordinates":[[[-81.2802288670326,41.6326971221851],[-81.2854469846361,41.6326404135821],[-81.2855748037026,41.632736999974],[-81.2856618169296,41.6328027522189],[-81.2855743733339,41.6328037044618],[-81.2816482011631,41.6328463984715],[-81.2813225430671,41.633649147],[-81.2809944841086,41.6344577952463],[-81.2816036498736,41.6350003630587],[-81.280909830109,41.6354314207245],[-81.2783051963916,41.6355827907399],[-81.2765145948261,41.6356868180318],[-81.2752361158418,41.6357610757433],[-81.2753927893263,41.6342532675585],[-81.2765451961359,41.6342478511161],[-81.2800246728426,41.6342314282617],[-81.27994948203,41.6336664791064],[-81.2798947556986,41.6332552871058],[-81.2802288670326,41.6326971221851]]]},"properties":{"source_county":"Geauga","jurisdiction":"Chardon Township","parcel_id":"09-001509","owner_name":"DARDIS BRYAN J TRUSTEE","property_address":"8695 MENTOR RD","property_city":"MENTOR","property_zip":"44060"}},{"type":"Feature","geometry":{"type":"Polygon","coordinates":[[[-81.2914457191756,41.6371730742352],[-81.2914458274975,41.6371729934194],[-81.2916723714124,41.6373441450875],[-81.2920733817465,41.637647101491],[-81.2920977142347,41.6376648214465],[-81.2900996378441,41.6390931264694],[-81.2899323459351,41.6390941028747],[-81.2887049345516,41.6391012621394],[-81.2896286639048,41.6385265564126],[-81.2914457191756,41.6371730742352]]]},"properties":{"source_county":"Geauga","jurisdiction":"Chardon Township","parcel_id":"09-001510","owner_name":"SNOW WILLIAM R II & TARA L","property_address":"8535 MENTOR RD","property_city":"MENTOR","property_zip":"44060"}},{"type":"Feature","geometry":{"type":"Polygon","coordinates":[[[-81.2749657092325,41.638363286567],[-81.2751154027521,41.6369227619681],[-81.2752361158418,41.6357610757433],[-81.2765145948261,41.6356868180318],[-81.2783051963916,41.6355827907399],[-81.2783695058591,41.6360413195253],[-81.2787320791755,41.6367481662514],[-81.2778182938013,41.6370991098981],[-81.277782980566,41.6377373592078],[-81.2778875973523,41.6382193401137],[-81.277998338477,41.6382478980911],[-81.2780131887917,41.6383016424937],[-81.2772402804088,41.6381023185825],[-81.2771553236796,41.6385090066013],[-81.277847241473,41.6386874443108],[-81.2777355375488,41.6392221861812],[-81.2777927429505,41.6409616861237],[-81.2775182983654,41.6409624015351],[-81.2774900367333,41.6401029028881],[-81.2774606337642,41.6392086818603],[-81.276895035982,41.6390170384464],[-81.2764469978553,41.6388652242984],[-81.2749657092325,41.638363286567]]]},"properties":{"source_county":"Geauga","jurisdiction":"Chardon Township","parcel_id":"09-001513","owner_name":"BAW HOLDINGS LLC","property_address":"10137 LITTLE MOUNTAIN RD","property_city":"MENTOR","property_zip":"44060"}},{"type":"Feature","geometry":{"type":"Polygon","coordinates":[[[-81.2811429058813,41.6376659116314],[-81.2836696375558,41.6376275895885],[-81.283716130006,41.6409309642963],[-81.2816778789743,41.6409424765508],[-81.2814766185334,41.6390973134018],[-81.2811429058813,41.6376659116314]]]},"properties":{"source_county":"Geauga","jurisdiction":"Chardon Township","parcel_id":"09-001514","owner_name":"GEHRING DEBORAH MLADEK & ROLAND","property_address":"10033 LITTLE MOUNTAIN RD","property_city":"MENTOR","property_zip":"44060"}},{"type":"Feature","geometry":{"type":"Polygon","coordinates":[[[-81.2839356310155,41.6409297216885],[-81.2838745229703,41.6365887940144],[-81.2843643445873,41.6366453632337],[-81.285453434862,41.6367711333631],[-81.2855990059867,41.6367879430894],[-81.28602978372,41.6368376869667],[-81.2877533252515,41.6370366932486],[-81.2876191966035,41.6382926108268],[-81.2875321032164,41.6391080907463],[-81.286356252553,41.6391200932733],[-81.2863600827742,41.6398447311725],[-81.2861803303169,41.6402625924424],[-81.2860760005302,41.6404677085175],[-81.2860783838367,41.6409191503212],[-81.2857945726377,41.640920542949],[-81.2847680297955,41.640925574282],[-81.2840476634939,41.6409290988837],[-81.2840475866667,41.6409290989806],[-81.2839356310155,41.6409297216885]]]},"properties":{"source_county":"Geauga","jurisdiction":"Chardon Township","parcel_id":"09-001516","owner_name":"SARKISIAN GREGORY C","property_address":"9975 LITTLE MOUNTAIN RD","property_city":"MENTOR","property_zip":"44060"}},{"type":"Feature","geometry":{"type":"Polygon","coordinates":[[[-81.2888590701615,41.6371661113867],[-81.2901570349857,41.6361992931771],[-81.2901803398485,41.6362169002065],[-81.2904503358937,41.6364208898602],[-81.2908014252465,41.6366861451129],[-81.290801337609,41.6366862108354],[-81.2889842618274,41.6380396991637],[-81.2875321032164,41.6391080907463],[-81.2876191966035,41.6382926108268],[-81.2888590701615,41.6371661113867]]]},"properties":{"source_county":"Geauga","jurisdiction":"Chardon Township","parcel_id":"09-001517","owner_name":"CARPENTER ROBERT III TOD","property_address":"8585 MENTOR RD","property_city":"MENTOR","property_zip":"44060"}},{"type":"Feature","geometry":{"type":"Polygon","coordinates":[[[-81.2882145570195,41.6366790204677],[-81.2895127312697,41.6357124951175],[-81.2898274585854,41.6359502853425],[-81.2901570349857,41.6361992931771],[-81.2888590701615,41.6371661113867],[-81.2876191966035,41.6382926108268],[-81.2877533252515,41.6370366932486],[-81.2882145570195,41.6366790204677]]]},"properties":{"source_county":"Geauga","jurisdiction":"Chardon Township","parcel_id":"09-001518","owner_name":"GARFIELD MICHAEL & HEATHER A","property_address":"8593 MENTOR RD","property_city":"MENTOR","property_zip":"44060"}},{"type":"Feature","geometry":{"type":"Polygon","coordinates":[[[-81.2881561920249,41.6315673691256],[-81.2902103204902,41.6311695861143],[-81.290203593452,41.6319659661682],[-81.2855755424978,41.632622187879],[-81.2854469846361,41.6326404135821],[-81.2855755600892,41.6325894904565],[-81.2881561920249,41.6315673691256]]]},"properties":{"source_county":"Geauga","jurisdiction":"Chardon Township","parcel_id":"09-001519","owner_name":"MC CONNELL F STEVENS III & ELIZABETH N","property_address":" MENTOR RD","property_city":"MENTOR","property_zip":"44060"}},{"type":"Feature","geometry":{"type":"Polygon","coordinates":[[[-81.2855876145441,41.6357342677099],[-81.2875787163555,41.6342512060666],[-81.2876516073498,41.6343062821515],[-81.2882230682451,41.6347380726231],[-81.2864058605002,41.636092206337],[-81.2855982173453,41.6366679276406],[-81.285453434862,41.6367711333631],[-81.2843643445873,41.6366453632337],[-81.284974447194,41.6361909608509],[-81.2855876145441,41.6357342677099]]]},"properties":{"source_county":"Geauga","jurisdiction":"Chardon Township","parcel_id":"09-001520","owner_name":"CONKLIN MARC A TOD","property_address":"8651 MENTOR RD","property_city":"MENTOR","property_zip":"44060"}},{"type":"Feature","geometry":{"type":"Polygon","coordinates":[[[-81.2875696477494,41.6361918622312],[-81.2888682039128,41.6352255189867],[-81.2895127312697,41.6357124951175],[-81.2882145570195,41.6366790204677],[-81.2877533252515,41.6370366932486],[-81.28602978372,41.6368376869667],[-81.2875696477494,41.6361918622312]]]},"properties":{"source_county":"Geauga","jurisdiction":"Chardon Township","parcel_id":"09-001522","owner_name":"SMITH MICHAEL L & BARBRA A","property_address":"8615 MENTOR RD","property_city":"MENTOR","property_zip":"44060"}},{"type":"Feature","geometry":{"type":"Polygon","coordinates":[[[-81.2856193128149,41.6348856207838],[-81.2869677514593,41.6337895576284],[-81.2875787163555,41.6342512060666],[-81.2855876145441,41.6357342677099],[-81.284974447194,41.6361909608509],[-81.2847048119837,41.6354250107368],[-81.2853207892405,41.6349662214211],[-81.2855778211005,41.6348968231019],[-81.2856193128149,41.6348856207838]]]},"properties":{"source_county":"Geauga","jurisdiction":"Chardon Township","parcel_id":"09-001523","owner_name":"LAKOMIAK JASON ERIC & CHRISTINE JEANETTE","property_address":"8675 MENTOR RD","property_city":"MENTOR","property_zip":"44060"}},{"type":"Feature","geometry":{"type":"Polygon","coordinates":[[[-81.290801337609,41.6366862108354],[-81.2908014252465,41.6366861451129],[-81.2911778365024,41.6369705263119],[-81.2914458274975,41.6371729934194],[-81.2914457191756,41.6371730742352],[-81.2896286639048,41.6385265564126],[-81.2887049345516,41.6391012621394],[-81.2875321032164,41.6391080907463],[-81.2889842618274,41.6380396991637],[-81.290801337609,41.6366862108354]]]},"properties":{"source_county":"Geauga","jurisdiction":"Chardon Township","parcel_id":"09-001524","owner_name":"YOUNG MARYLIN G","property_address":"8555 MENTOR RD","property_city":"MENTOR","property_zip":"44060"}},{"type":"Feature","geometry":{"type":"Polygon","coordinates":[[[-81.2798676880955,41.6409526711255],[-81.2796146142998,41.6389075936943],[-81.279029764685,41.6386137200459],[-81.2789842826525,41.6378476434333],[-81.2787029212642,41.6376977252723],[-81.2786215498719,41.6374298364974],[-81.2787320791755,41.6367481662514],[-81.2783695058591,41.6360413195253],[-81.2783051963916,41.6355827907399],[-81.280909830109,41.6354314207245],[-81.2808365076009,41.6362461709406],[-81.2810221690314,41.6371480173314],[-81.2811429058813,41.6376659116314],[-81.2814766185334,41.6390973134018],[-81.2816778789743,41.6409424765508],[-81.2814102705542,41.6409439859521],[-81.2812338528043,41.6392313793949],[-81.2798804816815,41.6392389348836],[-81.2800878843458,41.6409514322715],[-81.2798676880955,41.6409526711255]]]},"properties":{"source_county":"Geauga","jurisdiction":"Chardon Township","parcel_id":"09-001526","owner_name":"KOZAR BRADLEY & RHOADS SHARON MARIE","property_address":"10055 LITTLE MOUNTAIN RD","property_city":"MENTOR","property_zip":"44060"}},{"type":"Feature","geometry":{"type":"Polygon","coordinates":[[[-81.2771553236796,41.6385090066013],[-81.2772402804088,41.6381023185825],[-81.2780131887917,41.6383016424937],[-81.279433517662,41.6390201015437],[-81.2796586158772,41.6409538471387],[-81.2792195883396,41.6409563146256],[-81.2790470315836,41.6394737829379],[-81.2777355375488,41.6392221861812],[-81.277847241473,41.6386874443108],[-81.2771553236796,41.6385090066013]]]},"properties":{"source_county":"Geauga","jurisdiction":"Chardon Township","parcel_id":"09-001534","owner_name":"BAW HOLDINGS LLC","property_address":" LITTLE MOUNTAIN RD","property_city":"MENTOR","property_zip":"44060"}},{"type":"Feature","geometry":{"type":"Polygon","coordinates":[[[-81.2911924615032,41.6385413316739],[-81.2922554008284,41.637779522455],[-81.2935224674749,41.6387011603287],[-81.2931090941544,41.639020802831],[-81.2926239118747,41.6391872899018],[-81.2922755866918,41.6397794753902],[-81.2911924615032,41.6385413316739]]]},"properties":{"source_county":"Geauga","jurisdiction":"Chardon Township","parcel_id":"09-001535","owner_name":"KUHNLE KRISTI N & THOMAS C CO TRUSTEES","property_address":" MENTOR RD","property_city":"MENTOR","property_zip":"44060"}},{"type":"Feature","geometry":{"type":"Polygon","coordinates":[[[-81.2899241647821,41.6409024536362],[-81.2899315592474,41.6392679834453],[-81.2918308377862,41.6401970860824],[-81.2915673186447,41.6404445228016],[-81.2920290994657,41.6408939975149],[-81.2899241647821,41.6409024536362]]]},"properties":{"source_county":"Geauga","jurisdiction":"Chardon Township","parcel_id":"09-001536","owner_name":"LEONARD LUKE & MELANIE","property_address":"9797 LITTLE MOUNTAIN RD","property_city":"MENTOR","property_zip":"44060"}},{"type":"Feature","geometry":{"type":"Polygon","coordinates":[[[-81.2900996378441,41.6390931264694],[-81.2920977142347,41.6376648214465],[-81.2922554008284,41.637779522455],[-81.2911924615032,41.6385413316739],[-81.2922755866918,41.6397794753902],[-81.2918308377862,41.6401970860824],[-81.2899315592474,41.6392679834453],[-81.2899323459351,41.6390941028747],[-81.2900996378441,41.6390931264694]]]},"properties":{"source_county":"Geauga","jurisdiction":"Chardon Township","parcel_id":"09-001537","owner_name":"KUHNLE KRISTI N & THOMAS C CO TRUSTEES","property_address":"8525 MENTOR RD","property_city":"MENTOR","property_zip":"44060"}},{"type":"Feature","geometry":{"type":"Polygon","coordinates":[[[-81.2798804816815,41.6392389348836],[-81.2812338528043,41.6392313793949],[-81.2814102705542,41.6409439859521],[-81.2800878843458,41.6409514322715],[-81.2798804816815,41.6392389348836]]]},"properties":{"source_county":"Geauga","jurisdiction":"Chardon Township","parcel_id":"09-001539","owner_name":"SLATTERY ROBERT P & RENEE R","property_address":"10075 LITTLE MOUNTAIN RD","property_city":"MENTOR","property_zip":"44060"}},{"type":"Feature","geometry":{"type":"Polygon","coordinates":[[[-81.2830210652723,41.6350014541175],[-81.2841662524391,41.6347503573548],[-81.2852082663125,41.6348215992762],[-81.2854944329562,41.6347443348073],[-81.2855752465235,41.6346786475443],[-81.2868129558232,41.6336725920894],[-81.2869677514593,41.6337895576284],[-81.2856193128149,41.6348856207838],[-81.2855778211005,41.6348968231019],[-81.2853207892405,41.6349662214211],[-81.2847048119837,41.6354250107368],[-81.284974447194,41.6361909608509],[-81.2843643445873,41.6366453632337],[-81.2838745229703,41.6365887940144],[-81.2808365076009,41.6362461709406],[-81.280909830109,41.6354314207245],[-81.2816036498736,41.6350003630587],[-81.2830210652723,41.6350014541175]]]},"properties":{"source_county":"Geauga","jurisdiction":"Chardon Township","parcel_id":"09-001541","owner_name":"ARATA LOUIS K TOD","property_address":"8679 MENTOR RD","property_city":"MENTOR","property_zip":"44060"}},{"type":"Feature","geometry":{"type":"Polygon","coordinates":[[[-81.283716130006,41.6409309642963],[-81.2836696375558,41.6376275895885],[-81.2811429058813,41.6376659116314],[-81.2810221690314,41.6371480173314],[-81.2808365076009,41.6362461709406],[-81.2838745229703,41.6365887940144],[-81.2839356310155,41.6409297216885],[-81.283716130006,41.6409309642963]]]},"properties":{"source_county":"Geauga","jurisdiction":"Chardon Township","parcel_id":"09-001542","owner_name":"JASINSKI LINSEY A TRUSTEE","property_address":"9985 LITTLE MOUNTAIN RD","property_city":"MENTOR","property_zip":"44060"}},{"type":"Feature","geometry":{"type":"Polygon","coordinates":[[[-81.2855888019255,41.6304980203658],[-81.2856997827938,41.6304526636482],[-81.2857436125168,41.6306619047665],[-81.2855874099446,41.6307152129153],[-81.2851558012199,41.6308625084044],[-81.2840836207595,41.6313006408762],[-81.2839488422427,41.6311681910159],[-81.2850508291278,41.6307178800955],[-81.2855888019255,41.6304980203658]]]},"properties":{"source_county":"Geauga","jurisdiction":"Chardon Township","parcel_id":"09-001543","owner_name":"SPLIT ROCK PROPERTIES LLC","property_address":" MENTOR RD","property_city":"MENTOR","property_zip":"44060"}},{"type":"Feature","geometry":{"type":"Polygon","coordinates":[[[-81.2745594819678,41.6391099035568],[-81.2749657092325,41.638363286567],[-81.2764469978553,41.6388652242984],[-81.276895035982,41.6390170384464],[-81.2774606337642,41.6392086818603],[-81.2774900367333,41.6401029028881],[-81.2768248711306,41.6398775245445],[-81.2764283246659,41.6397431610591],[-81.2745594819678,41.6391099035568]]]},"properties":{"source_county":"Geauga","jurisdiction":"Chardon Township","parcel_id":"09-700000","owner_name":"HOLDEN ARBORETUM THE","property_address":" LITTLE MOUNTAIN RD","property_city":"MENTOR","property_zip":"44060"}},{"type":"Feature","geometry":{"type":"Polygon","coordinates":[[[-81.2766121988053,41.6293082827215],[-81.2765976549203,41.6307515082922],[-81.276597654146,41.6307515497054],[-81.2765789423838,41.632736648942],[-81.2765773437924,41.6327360639245],[-81.2749998921888,41.6321591703312],[-81.2750607969579,41.6295263710439],[-81.2766121988053,41.6293082827215]]]},"properties":{"source_county":"Geauga","jurisdiction":"Chardon Township","parcel_id":"09-700003","owner_name":"HOLDEN ARBORETUM THE","property_address":" GRISWOLD RD","property_city":"MENTOR","property_zip":"44060"}},{"type":"Feature","geometry":{"type":"Polygon","coordinates":[[[-81.279734504895,41.6327024825737],[-81.2802288670326,41.6326971221851],[-81.2798947556986,41.6332552871058],[-81.27994948203,41.6336664791064],[-81.2800246728426,41.6342314282617],[-81.2765451961359,41.6342478511161],[-81.2753927893263,41.6342532675585],[-81.2754592206181,41.6336139167475],[-81.2755492141188,41.6327477790272],[-81.2765773313302,41.6327366662038],[-81.2765789423838,41.632736648942],[-81.279734504895,41.6327024825737]]]},"properties":{"source_county":"Geauga","jurisdiction":"Chardon Township","parcel_id":"09-700005","owner_name":"HOLDEN ARBORETUM THE","property_address":" GRISWOLD RD","property_city":"MENTOR","property_zip":"44060"}}]}