{"type":"FeatureCollection","features":[{"type":"Feature","geometry":{"type":"Polygon","coordinates":[[[-81.40594702259968,41.50003835967281],[-81.40603940534349,41.5006395859702],[-81.40608935706317,41.500639982244564],[-81.40707083029147,41.50064776644431],[-81.40718556761112,41.50064867605861],[-81.40776780527264,41.49995853887215],[-81.40594702259968,41.50003835967281]]]},"properties":{"source_county":"Cuyahoga","jurisdiction":"HUNTING VALLEY","parcel_id":"88106001","owner_name":"HVF, LLC","property_address":"39551  CEDAR RD, HUNTING VALLEY, OH, 44040","property_city":"HUNTING VALLEY","property_zip":"44040"}},{"type":"Feature","geometry":{"type":"Polygon","coordinates":[[[-81.41161827653283,41.50041973408064],[-81.41161835199132,41.5004229083227],[-81.4116242161935,41.50067043750029],[-81.41162452521395,41.50068380384575],[-81.4116372696129,41.50068390476445],[-81.41171124587655,41.500684488747275],[-81.41178425824789,41.500685064656565],[-81.41182076218777,41.50068535193843],[-81.41189377455912,41.50068592986612],[-81.41193027849901,41.50068621714799],[-81.41200329176867,41.500686792384506],[-81.41203980020012,41.50068708235752],[-81.41211280718159,41.50068765692124],[-81.41232918977396,41.50068936446533],[-81.41233501175532,41.50067563212253],[-81.41236642045092,41.50060138013516],[-81.41161827653283,41.50041973408064]]]},"properties":{"source_county":"Cuyahoga","jurisdiction":"HUNTING VALLEY","parcel_id":"88105001","owner_name":"LEMMO, NICHOLAS A. AKA LEMMO, NICHOLAS","property_address":"0  CEDAR RD, HUNTING VALLEY, OH, 44040","property_city":"HUNTING VALLEY","property_zip":"44040"}},{"type":"Feature","geometry":{"type":"Polygon","coordinates":[[[-81.40824387284735,41.50049238973785],[-81.4082415605838,41.500657043567585],[-81.40869950824093,41.50066067260505],[-81.40877252061226,41.500661248514604],[-81.40880902455216,41.500661540506094],[-81.4088820369235,41.500662117761195],[-81.40891854176171,41.500662405715964],[-81.40899155323473,41.50066298566222],[-81.40902806256452,41.50066327361698],[-81.4091010713426,41.50066385356323],[-81.40915421028491,41.5006642740579],[-81.4091565189552,41.50049961755538],[-81.40824387284735,41.50049238973785]]]},"properties":{"source_county":"Cuyahoga","jurisdiction":"HUNTING VALLEY","parcel_id":"88105005","owner_name":"ADAMS, MATTHEW L. & HOPE-ADAMS, PETRA J.","property_address":"0  CEDAR RD, HUNTING VALLEY, OH, 44040","property_city":"HUNTING VALLEY","property_zip":"44040"}},{"type":"Feature","geometry":{"type":"Polygon","coordinates":[[[-81.40776780527264,41.49995853887215],[-81.40718556761112,41.50064867605861],[-81.40731228576173,41.50064967515415],[-81.40738529453982,41.500650255773316],[-81.40742180207297,41.50065054440095],[-81.40749481444432,41.50065112502011],[-81.4075313183842,41.500651412974875],[-81.40760433075555,41.50065199157567],[-81.4082415605838,41.500657043567585],[-81.40824387284735,41.50049238973785],[-81.4091565189552,41.50049961755538],[-81.40915421028491,41.5006642740579],[-81.41019624882799,41.5006725170985],[-81.41025592570892,41.500672989398026],[-81.41026163540087,41.50066046403971],[-81.41050547859318,41.500155636326795],[-81.41050755639644,41.500151335809846],[-81.41054494877012,41.50007392914624],[-81.40881099994748,41.49965499892614],[-81.40860799955787,41.49958299898488],[-81.40846000031819,41.49951099896357],[-81.40841734651188,41.49948457863945],[-81.40830208277944,41.49952123903129],[-81.40824368959102,41.499539811764954],[-81.40818784312646,41.499562388343584],[-81.40813503117089,41.49958876961339],[-81.4080857136618,41.49961873018099],[-81.40804031550228,41.49965200832138],[-81.40799923015446,41.49968831808883],[-81.4079628160461,41.49972734191601],[-81.40776780527264,41.49995853887215]]]},"properties":{"source_county":"Cuyahoga","jurisdiction":"HUNTING VALLEY","parcel_id":"88105003","owner_name":"WESTERN RESERVE LAND CONSERVANCY","property_address":"0  CEDAR RD, HUNTING VALLEY, OH, 44040","property_city":"HUNTING VALLEY","property_zip":"44040"}},{"type":"Feature","geometry":{"type":"Polygon","coordinates":[[[-81.40228877284396,41.50006182686183],[-81.4027104824625,41.50048421799047],[-81.40284786541217,41.50062218824665],[-81.40289602768782,41.50062237461],[-81.40291428055609,41.500622445925956],[-81.40299242320602,41.500622748682275],[-81.40328224037792,41.50062387089915],[-81.40266253039265,41.499983739891974],[-81.40234544665694,41.49991546022332],[-81.40226734532949,41.50004033702601],[-81.40227913122601,41.50005217490492],[-81.40228877284396,41.50006182686183]]]},"properties":{"source_county":"Cuyahoga","jurisdiction":"HUNTING VALLEY","parcel_id":"88137002","owner_name":"HUNTING VALLEY VILLAGE OF","property_address":"0  CHAGRIN RIVER RD, HUNTING VALLEY, OH, 44022","property_city":"HUNTING VALLEY","property_zip":"44022"}},{"type":"Feature","geometry":{"type":"Polygon","coordinates":[[[-81.4043292996051,41.49999669731774],[-81.4043260135678,41.50062790630482],[-81.40439283205525,41.50062816331129],[-81.40441108492351,41.50062823395443],[-81.40480060880374,41.500629738316974],[-81.40443131857698,41.50022016624976],[-81.4043449222062,41.49990279410345],[-81.4043292996051,41.49999669731774]]]},"properties":{"source_county":"Cuyahoga","jurisdiction":"HUNTING VALLEY","parcel_id":"88137001","owner_name":"HAUCK, MARJORY JOANNE","property_address":"0  CHAGRIN RIVER RD, HUNTING VALLEY, OH, 44040","property_city":"HUNTING VALLEY","property_zip":"44040"}},{"type":"Feature","geometry":{"type":"Polygon","coordinates":[[[-81.41108292823421,41.500289779750354],[-81.41050755639644,41.500151335809846],[-81.41050547859318,41.500155636326795],[-81.41026163540087,41.50066046403971],[-81.41025592570892,41.500672989398026],[-81.410269260301,41.50067309569906],[-81.41028103811269,41.500673187871485],[-81.41030576603752,41.500673383653776],[-81.41037877840887,41.500673959563215],[-81.41041528594202,41.500674251554656],[-81.4104882947201,41.50067482611848],[-81.41052480225325,41.50067511407319],[-81.4105978146246,41.50067569267373],[-81.41092220974842,41.50067825735431],[-81.41092755292773,41.50066534043238],[-81.41108135528417,41.500293579025644],[-81.41108292823421,41.500289779750354]]]},"properties":{"source_county":"Cuyahoga","jurisdiction":"HUNTING VALLEY","parcel_id":"88105012","owner_name":"SHAUGHNESSY, MICHAEL R.-TRUSTEE","property_address":"0  CEDAR RD, HUNTING VALLEY, OH, 44040","property_city":"HUNTING VALLEY","property_zip":"44040"}},{"type":"Feature","geometry":{"type":"Polygon","coordinates":[[[-81.41108292823421,41.500289779750354],[-81.41108135528417,41.500293579025644],[-81.41092755292773,41.50066534043238],[-81.41092220974842,41.50067825735431],[-81.41093825994759,41.50067838316631],[-81.41162452521395,41.50068380384575],[-81.4116242161935,41.50067043750029],[-81.41161835199132,41.5004229083227],[-81.41161827653283,41.50041973408064],[-81.4110951291524,41.50029271448364],[-81.41108292823421,41.500289779750354]]]},"properties":{"source_county":"Cuyahoga","jurisdiction":"HUNTING VALLEY","parcel_id":"88105002","owner_name":" HEACOX, JACOB DERRIG & REBECCA ANN ","property_address":"0  CEDAR RD, HUNTING VALLEY, OH, 44040","property_city":"HUNTING VALLEY","property_zip":"44040"}}]}