{"type":"FeatureCollection","features":[{"type":"Feature","geometry":{"type":"Polygon","coordinates":[[[-81.43585255285566,41.49998158155423],[-81.43586047509815,41.50074997821539],[-81.43831630738818,41.50076803927599],[-81.43830833214508,41.49999964282908],[-81.43585255285566,41.49998158155423]]]},"properties":{"source_county":"Cuyahoga","jurisdiction":"HUNTING VALLEY","parcel_id":"88101004","owner_name":"RESNIK, BRUCE & ELLEN","property_address":"34000  CEDAR RD, HUNTING VALLEY, OH, 44040","property_city":"HUNTING VALLEY","property_zip":"44040"}},{"type":"Feature","geometry":{"type":"Polygon","coordinates":[[[-81.4300628686287,41.49963064887321],[-81.43007997704329,41.500706916912826],[-81.43196395978974,41.50072104350446],[-81.43194700229213,41.49964446553787],[-81.4300628686287,41.49963064887321]]]},"properties":{"source_county":"Cuyahoga","jurisdiction":"HUNTING VALLEY","parcel_id":"88102001","owner_name":"JACOBS, LOUIS S. & BETH - CO TRUSTEES","property_address":"34600  CEDAR RD, HUNTING VALLEY, OH, 44040","property_city":"HUNTING VALLEY","property_zip":"44040"}},{"type":"Feature","geometry":{"type":"Polygon","coordinates":[[[-81.44165581960974,41.50080575925833],[-81.442073445487,41.50080992921062],[-81.44208299368016,41.500809710553895],[-81.44209248617776,41.50080886822084],[-81.44210184033481,41.50080740826659],[-81.44211098967598,41.50080533943738],[-81.44211986413268,41.50080267855282],[-81.44212839812786,41.50079944579666],[-81.44213652428793,41.5007956694259],[-81.44214417973079,41.50079137231535],[-81.44215131145583,41.500786590795585],[-81.44215785658098,41.500781358506],[-81.44216377468209,41.500775720523436],[-81.44216901635177,41.50076971250567],[-81.44217353936921,41.500763386257454],[-81.4421773113951,41.50075678954687],[-81.44218030547994,41.50074996946912],[-81.44218249916587,41.50074297648347],[-81.44218386999499,41.50073586912263],[-81.442184417069,41.500728697173095],[-81.44220041247094,41.49982311846054],[-81.44219607989633,41.49971301461278],[-81.44163975144424,41.49970587820844],[-81.44165581960974,41.50080575925833]]]},"properties":{"source_county":"Cuyahoga","jurisdiction":"PEPPER PIKE","parcel_id":"87115018","owner_name":"KING RICHARD M","property_address":"2423  CEDARWOOD RD, PEPPER PIKE, OH, 44124","property_city":"PEPPER PIKE","property_zip":"44124"}},{"type":"Feature","geometry":{"type":"Polygon","coordinates":[[[-81.43955584054646,41.50086166673762],[-81.4400816747879,41.500867585265844],[-81.44007978832582,41.50079000991532],[-81.44006671604178,41.49989370861996],[-81.43954114410842,41.49988795282016],[-81.43955396306751,41.50078474936879],[-81.43955584054646,41.50086166673762]]]},"properties":{"source_county":"Cuyahoga","jurisdiction":"PEPPER PIKE","parcel_id":"87115007","owner_name":"BUNDY, FLORENCE R.","property_address":"33650  CEDAR RD, PEPPER PIKE, OH, 44124","property_city":"PEPPER PIKE","property_zip":"44124"}},{"type":"Feature","geometry":{"type":"Polygon","coordinates":[[[-81.44536401928849,41.50084295646119],[-81.44582030416402,41.50084778036254],[-81.44583301173202,41.4997500348238],[-81.44537673494133,41.49974521084067],[-81.44536401928849,41.50084295646119]]]},"properties":{"source_county":"Cuyahoga","jurisdiction":"PEPPER PIKE","parcel_id":"87113011","owner_name":"WALKER, MONA D.","property_address":"32850  CEDAR RD, PEPPER PIKE, OH, 44124","property_city":"PEPPER PIKE","property_zip":"44124"}},{"type":"Feature","geometry":{"type":"Polygon","coordinates":[[[-81.44873979200646,41.50087860622742],[-81.448910992035,41.50088041132091],[-81.44891197658856,41.50082835759772],[-81.44900848080292,41.500826048583164],[-81.44910429061952,41.50081706078378],[-81.44919858677491,41.50080147156751],[-81.44929057246337,41.500779410105395],[-81.4493794589641,41.50075106679057],[-81.44946448899732,41.50071667978268],[-81.44954494031754,41.50067655048272],[-81.44962012301862,41.5006310119119],[-81.44892597054407,41.49980069133448],[-81.44876060956487,41.499803463272244],[-81.44873979200646,41.50087860622742]]]},"properties":{"source_county":"Cuyahoga","jurisdiction":"PEPPER PIKE","parcel_id":"87111002","owner_name":"TERCHEK, JOSHUA & LAURA","property_address":"32400  GATES MILLS BLVD, PEPPER PIKE, OH, 44124","property_city":"PEPPER PIKE","property_zip":"44124"}},{"type":"Feature","geometry":{"type":"Polygon","coordinates":[[[-81.4424108095886,41.50031377162846],[-81.44336029740286,41.50032324525574],[-81.44336516447507,41.4998601883958],[-81.44241899054587,41.49985061579922],[-81.4424108095886,41.50031377162846]]]},"properties":{"source_county":"Cuyahoga","jurisdiction":"PEPPER PIKE","parcel_id":"87115038","owner_name":"CUYAHOGA DEVELOPMENT GROUP  LLC","property_address":"2418  CEDARWOOD RD, PEPPER PIKE, OH, 44124","property_city":"PEPPER PIKE","property_zip":"44124"}},{"type":"Feature","geometry":{"type":"Polygon","coordinates":[[[-81.43903000540669,41.50085574619049],[-81.43955584054646,41.50086166673762],[-81.43955396306751,41.50078474936879],[-81.43954114410842,41.49988795282016],[-81.43901531974842,41.499882195674324],[-81.43902813870753,41.50077948747629],[-81.43903000540669,41.50085574619049]]]},"properties":{"source_county":"Cuyahoga","jurisdiction":"PEPPER PIKE","parcel_id":"87115006","owner_name":"DILLIONS, SHERREE RAY","property_address":"33700  CEDAR RD, PEPPER PIKE, OH, 44124","property_city":"PEPPER PIKE","property_zip":"44124"}},{"type":"Feature","geometry":{"type":"Polygon","coordinates":[[[-81.44490773441298,41.50083812986833],[-81.44536401928849,41.50084295646119],[-81.44537673494133,41.49974521084067],[-81.44492045815066,41.49974038483881],[-81.44490773441298,41.50083812986833]]]},"properties":{"source_county":"Cuyahoga","jurisdiction":"PEPPER PIKE","parcel_id":"87113012","owner_name":"MICELI- DIANE A. & JOHN J.- CO TRUSTEE","property_address":"32900  CEDAR RD, PEPPER PIKE, OH, 44124","property_city":"PEPPER PIKE","property_zip":"44124"}},{"type":"Feature","geometry":{"type":"Polygon","coordinates":[[[-81.44390295169968,41.50090983844214],[-81.4444504946283,41.500915633845636],[-81.44445144953744,41.5008333019295],[-81.44446418046167,41.49973555681819],[-81.44447216289126,41.49904784277555],[-81.4439246100812,41.499043671364205],[-81.44390261303484,41.500828776072915],[-81.44390295169968,41.50090983844214]]]},"properties":{"source_county":"Cuyahoga","jurisdiction":"PEPPER PIKE","parcel_id":"87113002","owner_name":"NEWMAN, STEVEN","property_address":"33050  CEDAR RD, PEPPER PIKE, OH, 44124","property_city":"PEPPER PIKE","property_zip":"44124"}},{"type":"Feature","geometry":{"type":"Polygon","coordinates":[[[-81.44664959559667,41.50016653025093],[-81.44664161676029,41.50085646069287],[-81.44664218988545,41.50085646540243],[-81.44716494649875,41.50086198765819],[-81.44718209713413,41.50086115474487],[-81.44719886149397,41.50085831490065],[-81.44721483084479,41.50085353876814],[-81.44722960723288,41.50084694408509],[-81.4472428322305,41.50083869232048],[-81.4472541752576,41.50082898665611],[-81.44726335873474,41.50081806660464],[-81.44727015808313,41.500806201281364],[-81.44727440352116,41.50079368200389],[-81.44727599264088,41.50078081758266],[-81.44728734375283,41.50017326561777],[-81.44664959559667,41.50016653025093]]]},"properties":{"source_county":"Cuyahoga","jurisdiction":"PEPPER PIKE","parcel_id":"87113028","owner_name":"CEDAR SPRINGS, LLC","property_address":"0  CEDAR LAKES DR, PEPPER PIKE, OH, 44124","property_city":"PEPPER PIKE","property_zip":"44124"}},{"type":"Feature","geometry":{"type":"Polygon","coordinates":[[[-81.44828424195285,41.50087380116643],[-81.44873979290479,41.50087860622742],[-81.44876060956487,41.499803463272244],[-81.44829664589031,41.49979788508379],[-81.44829079426454,41.50030492302655],[-81.44828424195285,41.50087380116643]]]},"properties":{"source_county":"Cuyahoga","jurisdiction":"PEPPER PIKE","parcel_id":"87111001","owner_name":"PLOW, MATTHEW A. & ELA","property_address":"32450  CEDAR RD, PEPPER PIKE, OH, 44124","property_city":"PEPPER PIKE","property_zip":"44124"}},{"type":"Feature","geometry":{"type":"Polygon","coordinates":[[[-81.43841797242382,41.4998756493339],[-81.4384310006904,41.500848999457205],[-81.43903000540669,41.50085574619049],[-81.43902813870753,41.50077948747629],[-81.43901531974842,41.499882195674324],[-81.43853021063038,41.49987687921169],[-81.43841797242382,41.4998756493339]]]},"properties":{"source_county":"Cuyahoga","jurisdiction":"PEPPER PIKE","parcel_id":"87115008","owner_name":"STOCKER, JAMES W -CO TR-ETAL ","property_address":"33750  CEDAR RD, PEPPER PIKE, OH, 44124","property_city":"PEPPER PIKE","property_zip":"44124"}},{"type":"Feature","geometry":{"type":"Polygon","coordinates":[[[-81.4400816747879,41.500867585265844],[-81.44060750543609,41.50087350042964],[-81.44060560819422,41.50079526642461],[-81.44059030988491,41.49969539259736],[-81.44006449810136,41.499690134653115],[-81.44006671604178,41.49989370861996],[-81.44007978832582,41.50079000991532],[-81.4400816747879,41.500867585265844]]]},"properties":{"source_county":"Cuyahoga","jurisdiction":"PEPPER PIKE","parcel_id":"87115009","owner_name":"LIESZKOVSZKY, LASZLO","property_address":"33600  CEDAR RD, PEPPER PIKE, OH, 44124","property_city":"PEPPER PIKE","property_zip":"44124"}},{"type":"Feature","geometry":{"type":"Polygon","coordinates":[[[-81.44251150444373,41.500814302345184],[-81.44335503776688,41.50082271827364],[-81.44336029740286,41.50032324525574],[-81.4424108095886,41.50031377162846],[-81.44240344250494,41.500730883743124],[-81.44240373176247,41.500738063765944],[-81.44240485465657,41.50074519601977],[-81.44240679681421,41.50075222937264],[-81.44240955104887,41.500759107982915],[-81.44241308771615,41.50076577937301],[-81.44241738705308,41.500772193756525],[-81.44242241402543,41.50077830000144],[-81.44242813000557,41.50078405841322],[-81.44243449187441,41.50078941651437],[-81.44244144663134,41.500794337974284],[-81.44244895115723,41.50079878780796],[-81.44245694167168,41.500802726993726],[-81.44246535619094,41.500806127274465],[-81.44247413542622,41.500808963757024],[-81.4424832084106,41.50081121491223],[-81.44249250866872,41.50081285988359],[-81.4425019634371,41.500813893961706],[-81.44251150444373,41.500814302345184]]]},"properties":{"source_county":"Cuyahoga","jurisdiction":"PEPPER PIKE","parcel_id":"87115004","owner_name":"MATAS, RITA P.","property_address":"2412  CEDARWOOD RD, PEPPER PIKE, OH, 44124","property_city":"PEPPER PIKE","property_zip":"44124"}},{"type":"Feature","geometry":{"type":"Polygon","coordinates":[[[-81.44750409734941,41.50029662073323],[-81.44749508634881,41.500779023251006],[-81.44751122009131,41.50077919346692],[-81.44751096227482,41.500798403644836],[-81.44749658563701,41.50079825226707],[-81.44750140599683,41.50081203369755],[-81.44750931386628,41.50082498355694],[-81.44752007388674,41.50083671431885],[-81.44753336356305,41.500846875460546],[-81.44754878404322,41.5008551608636],[-81.4475658744915,41.50086132361501],[-81.4475841228682,41.500865178698284],[-81.44760298030263,41.50086661106685],[-81.44800409424667,41.50087084493024],[-81.44828423566466,41.50087380116643],[-81.44829079426454,41.50030492302655],[-81.44750409734941,41.50029662073323]]]},"properties":{"source_county":"Cuyahoga","jurisdiction":"PEPPER PIKE","parcel_id":"87113036","owner_name":"SCHWABAUER, KARA & SCHWABAUER, MATTHEW D","property_address":"2420  CEDAR LAKES DR, PEPPER PIKE, OH, 44124","property_city":"PEPPER PIKE","property_zip":"44124"}},{"type":"Feature","geometry":{"type":"Polygon","coordinates":[[[-81.44060750543609,41.50087350042964],[-81.44113333159271,41.5008788073914],[-81.4411314325542,41.50080052091518],[-81.44111612526176,41.499700647177114],[-81.44059030988491,41.49969539259736],[-81.44060560819422,41.50079526642461],[-81.44060750543609,41.50087350042964]]]},"properties":{"source_county":"Cuyahoga","jurisdiction":"PEPPER PIKE","parcel_id":"87115012","owner_name":"GILBERTO, BRENT P","property_address":"33550  CEDAR RD, PEPPER PIKE, OH, 44124","property_city":"PEPPER PIKE","property_zip":"44124"}},{"type":"Feature","geometry":{"type":"Polygon","coordinates":[[[-81.44445144953744,41.5008333019295],[-81.44490773441298,41.50083812986833],[-81.44492045815066,41.49974038483881],[-81.44446418046167,41.49973555681819],[-81.44445144953744,41.5008333019295]]]},"properties":{"source_county":"Cuyahoga","jurisdiction":"PEPPER PIKE","parcel_id":"87113013","owner_name":"AZAR ENTERPRISES LTD","property_address":"33000  CEDAR RD, PEPPER PIKE, OH, 44124","property_city":"PEPPER PIKE","property_zip":"44124"}},{"type":"Feature","geometry":{"type":"Polygon","coordinates":[[[-81.44113333159271,41.5008788073914],[-81.44118401543935,41.50087998342699],[-81.44165698472466,41.500885561522225],[-81.44165581960974,41.50080575925833],[-81.44163975144424,41.49970587820844],[-81.44111612526176,41.499700647177114],[-81.4411314325542,41.50080052091518],[-81.44113333159271,41.5008788073914]]]},"properties":{"source_county":"Cuyahoga","jurisdiction":"PEPPER PIKE","parcel_id":"87115010","owner_name":"JOHNSON, CASSANDRA","property_address":"33400  CEDAR RD, PEPPER PIKE, OH, 44124","property_city":"PEPPER PIKE","property_zip":"44124"}}]}