{"type":"FeatureCollection","features":[{"type":"Feature","geometry":{"type":"Polygon","coordinates":[[[-81.2567423733297,41.3474879834507],[-81.2624550088842,41.3474695200742],[-81.2624490908638,41.3481220305415],[-81.2624391334178,41.3492198390502],[-81.2624350456659,41.3496704354311],[-81.2623129730116,41.3499953842903],[-81.2566800708827,41.3500357948539],[-81.2566972583798,41.349327517673],[-81.2567157512774,41.3485654441466],[-81.2567412346871,41.3475153234665],[-81.2567418976809,41.3474879846446],[-81.2567423733297,41.3474879834507]]]},"properties":{"source_county":"Geauga","jurisdiction":"Auburn Township","parcel_id":"01-046100","owner_name":"T&C SAND AND GRAVEL LLC","property_address":"19101 THORPE RD","property_city":"AUBURN TOWNSHIP","property_zip":"44023"}},{"type":"Feature","geometry":{"type":"Polygon","coordinates":[[[-81.2624490908638,41.3481220305415],[-81.2644321999957,41.3481322251869],[-81.264425315738,41.3488938016353],[-81.2643467775629,41.3488961472007],[-81.2642688664467,41.3489039708196],[-81.2641922538153,41.3489172050694],[-81.264117599905,41.3489357358993],[-81.264045548074,41.3489594036134],[-81.2639767192577,41.3489880042467],[-81.2639117066182,41.3490212913224],[-81.2638510704329,41.3490589779766],[-81.263790434515,41.349096664851],[-81.2637254219342,41.3491299520471],[-81.2636565929936,41.3491585526801],[-81.2635845408903,41.3491822202559],[-81.263509886602,41.3492007507955],[-81.2634332735355,41.3492139845934],[-81.2633553619807,41.3492218075941],[-81.2632768234193,41.3492241523748],[-81.2624391334178,41.3492198390502],[-81.2624490908638,41.3481220305415]]]},"properties":{"source_county":"Geauga","jurisdiction":"Auburn Township","parcel_id":"01-077500","owner_name":"SCHAPEL JOSEPH W & JENNIFER M","property_address":"19140 THORPE RD","property_city":"AUBURN TOWNSHIP","property_zip":"44023"}},{"type":"Feature","geometry":{"type":"Polygon","coordinates":[[[-81.2527226847626,41.3474905024327],[-81.2533600546748,41.3474912355195],[-81.2533588359962,41.348092409299],[-81.2527122057394,41.348977407641],[-81.2522957087297,41.349115821997],[-81.2518888825276,41.3491146267877],[-81.2527202132059,41.3479687995688],[-81.2527226847626,41.3474905024327]]]},"properties":{"source_county":"Geauga","jurisdiction":"Auburn Township","parcel_id":"01-083900","owner_name":"PUSTAI JOHN C","property_address":"10830 CRACKEL RD","property_city":"AUBURN TOWNSHIP","property_zip":"44023"}},{"type":"Feature","geometry":{"type":"Polygon","coordinates":[[[-81.2733046993975,41.3497511053045],[-81.2733266956296,41.3486731041954],[-81.2749016732654,41.3486681805999],[-81.2748900064154,41.3496237642814],[-81.2748616182554,41.3496150701798],[-81.2748321164912,41.3496088266668],[-81.2748018723647,41.3496051123088],[-81.2747712664591,41.3496039738464],[-81.2747406839097,41.3496054256055],[-81.2747105095584,41.3496094493177],[-81.2746811231103,41.3496159943497],[-81.274652894356,41.3496249783408],[-81.2746261785185,41.3496362882391],[-81.2746013117833,41.3496497817239],[-81.2745786070676,41.3496652889971],[-81.2745583500831,41.3496826149191],[-81.2745407957404,41.3497015414652],[-81.2745261649415,41.3497218304682],[-81.2745146417995,41.3497432266164],[-81.2745063713223,41.3497654606652],[-81.2733046993975,41.3497511053045]]]},"properties":{"source_county":"Geauga","jurisdiction":"Auburn Township","parcel_id":"01-117816","owner_name":"KAVOURAS ALEX M SR","property_address":"10275 SABLEWOOD DR","property_city":"AUBURN TOWNSHIP","property_zip":"44023"}},{"type":"Feature","geometry":{"type":"Polygon","coordinates":[[[-81.2500758485533,41.3474874200889],[-81.2520853136698,41.347489765823],[-81.2520834744967,41.3478452138056],[-81.2511638103875,41.3491127809235],[-81.2509578462584,41.3491126303643],[-81.2500469501921,41.3487890790765],[-81.2500758485533,41.3474874200889]]]},"properties":{"source_county":"Geauga","jurisdiction":"Auburn Township","parcel_id":"01-118827","owner_name":"KAMENIR SCOTT B TRUSTEE","property_address":"10860 CRACKEL RD","property_city":"AUBURN TOWNSHIP","property_zip":"44023"}},{"type":"Feature","geometry":{"type":"Polygon","coordinates":[[[-81.2520853136698,41.347489765823],[-81.2527226847626,41.3474905024327],[-81.2527202132059,41.3479687995688],[-81.2518888825276,41.3491146267877],[-81.2512933830123,41.3491128759624],[-81.2511638103875,41.3491127809235],[-81.2520834744967,41.3478452138056],[-81.2520853136698,41.347489765823]]]},"properties":{"source_county":"Geauga","jurisdiction":"Auburn Township","parcel_id":"01-118829","owner_name":"KAMENIR SCOTT B TRUSTEE","property_address":" CRACKEL RD","property_city":"AUBURN TOWNSHIP","property_zip":"44023"}},{"type":"Feature","geometry":{"type":"Polygon","coordinates":[[[-81.2565523639419,41.3474883771116],[-81.2567418976809,41.3474879846446],[-81.2567412346871,41.3475153234665],[-81.2567157512774,41.3485654441466],[-81.2558330035733,41.348562577347],[-81.2558594174223,41.3474898090004],[-81.2565523639419,41.3474883771116]]]},"properties":{"source_county":"Geauga","jurisdiction":"Auburn Township","parcel_id":"01-118891","owner_name":"DELTA TRUST","property_address":"10740 CRACKEL RD","property_city":"AUBURN TOWNSHIP","property_zip":"44023"}},{"type":"Feature","geometry":{"type":"Polygon","coordinates":[[[-81.2547400933988,41.3474921141152],[-81.2558594174223,41.3474898090004],[-81.2558330035733,41.348562577347],[-81.2553809616976,41.3487656038968],[-81.2553412209087,41.3487176108749],[-81.2552992423263,41.3486707121895],[-81.2552550789665,41.3486249670651],[-81.2552087866038,41.3485804332693],[-81.255160423701,41.34853716704],[-81.2551100513353,41.348495223014],[-81.2550577331209,41.3484546541587],[-81.255003535129,41.3484155117046],[-81.2549603208866,41.3483837910628],[-81.2549193427268,41.3483504278777],[-81.2548807104405,41.3483155115405],[-81.2548445275325,41.3482791356036],[-81.2548108909446,41.3482413975301],[-81.2547798907956,41.3482023984323],[-81.25475161014,41.3481622428013],[-81.2547261247456,41.3481210382266],[-81.2547035028903,41.348078895108],[-81.2546838051794,41.3480359263597],[-81.2546670843831,41.3479922471076],[-81.2546533852953,41.3479479743815],[-81.2546427446138,41.3479032268005],[-81.2546351908416,41.3478581242562],[-81.2546307442111,41.3478127875907],[-81.2546294166295,41.3477673382733],[-81.254629997907,41.3476541793303],[-81.2546325698463,41.3476383671991],[-81.2546391343922,41.3476232242543],[-81.2546494458036,41.3476093173602],[-81.2546631180786,41.3475971671106],[-81.2546796394051,41.3475872283402],[-81.2546983913199,41.3475798730984],[-81.2547186718602,41.3475753767227],[-81.2547397218413,41.3475739075309],[-81.2547400933988,41.3474921141152]]]},"properties":{"source_county":"Geauga","jurisdiction":"Auburn Township","parcel_id":"01-118892","owner_name":"KUKRAL RANDAL F & ERIKA A","property_address":"19180 SANCTUARY DR","property_city":"AUBURN TOWNSHIP","property_zip":"44023"}},{"type":"Feature","geometry":{"type":"Polygon","coordinates":[[[-81.2558330035733,41.348562577347],[-81.2567157512774,41.3485654441466],[-81.2566972583798,41.349327517673],[-81.2556531121238,41.3493233613627],[-81.255634576107,41.3492499640974],[-81.2556114902098,41.3491773030709],[-81.2555839053028,41.349105538347],[-81.2555518821665,41.3490348280143],[-81.2555154913581,41.3489653278386],[-81.255474813055,41.3488971909189],[-81.2554299368789,41.3488305673511],[-81.2553809616976,41.3487656038968],[-81.2558330035733,41.348562577347]]]},"properties":{"source_county":"Geauga","jurisdiction":"Auburn Township","parcel_id":"01-118893","owner_name":"SMARGIASSO CRAIG A & MEGAN L","property_address":"19140 SANCTUARY DR","property_city":"AUBURN TOWNSHIP","property_zip":"44023"}},{"type":"Feature","geometry":{"type":"Polygon","coordinates":[[[-81.2556531121238,41.3493233613627],[-81.2566972583798,41.349327517673],[-81.2566800708827,41.3500357948539],[-81.2566769126256,41.3501659607093],[-81.2566768660266,41.3501659602087],[-81.25553772364,41.3501617126769],[-81.2555846085129,41.3500611297098],[-81.2556224538923,41.3499584075874],[-81.2556510900813,41.3498540070273],[-81.2556703886887,41.3497483962729],[-81.2556802632046,41.3496420489928],[-81.2556806693874,41.349535442157],[-81.2556716054613,41.3494290538972],[-81.2556531121238,41.3493233613627]]]},"properties":{"source_county":"Geauga","jurisdiction":"Auburn Township","parcel_id":"01-118894","owner_name":"LO PRESTI PATRICIA A & MATTHEW BONNIE J","property_address":"19120 SANCTUARY DR","property_city":"AUBURN TOWNSHIP","property_zip":"44023"}},{"type":"Feature","geometry":{"type":"Polygon","coordinates":[[[-81.2507085477631,41.3504554386693],[-81.2500100379043,41.3504520515603],[-81.2500469501921,41.3487890790765],[-81.2509578462584,41.3491126303643],[-81.2511638103875,41.3491127809235],[-81.2512933830123,41.3491128759624],[-81.250934974614,41.3504727722399],[-81.2508788407335,41.3504654087941],[-81.2508223068426,41.3504600581268],[-81.2507654999713,41.3504567322609],[-81.2507085477631,41.3504554386693]]]},"properties":{"source_county":"Geauga","jurisdiction":"Auburn Township","parcel_id":"01-118914","owner_name":"TUR MICHAEL & WILEY TUR DEBORAH L CO TRUSTEES","property_address":"10905 GOLDEN POND DR","property_city":"AUBURN TOWNSHIP","property_zip":"44023"}},{"type":"Feature","geometry":{"type":"Polygon","coordinates":[[[-81.2533600546748,41.3474912355195],[-81.2543030354968,41.347492313916],[-81.2543026599119,41.3475734084698],[-81.2543236805561,41.3475750114227],[-81.254343898804,41.3475796331158],[-81.2543625586627,41.3475871007363],[-81.2543789624092,41.347597135058],[-81.2543924966794,41.3476093608811],[-81.2544026554029,41.3476233210619],[-81.2544090587257,41.3476384936058],[-81.2544114672142,41.3476543111856],[-81.2544108893807,41.3477667011031],[-81.2544119496535,41.3478117566268],[-81.2544155916829,41.3478567355802],[-81.254421808675,41.347901553994],[-81.254430589029,41.3479461281984],[-81.2544419163581,41.3479903749795],[-81.2544557695209,41.3480342117343],[-81.2544721226603,41.3480775566252],[-81.254490945252,41.3481203287326],[-81.2534701439976,41.3483780868707],[-81.2530346472194,41.3489783526752],[-81.2527122057394,41.348977407641],[-81.2533588359962,41.348092409299],[-81.2533600546748,41.3474912355195]]]},"properties":{"source_county":"Geauga","jurisdiction":"Auburn Township","parcel_id":"01-118952","owner_name":"VROTSOS ANDREW & CLARA N","property_address":"19191 SANCTUARY DR","property_city":"AUBURN TOWNSHIP","property_zip":"44023"}},{"type":"Feature","geometry":{"type":"Polygon","coordinates":[[[-81.2567423733313,41.3474879834535],[-81.2624550088859,41.347469520077],[-81.2624490908654,41.3481220305443],[-81.2624391334195,41.349219839053],[-81.2624350456676,41.3496704354339],[-81.2623129730132,41.3499953842931],[-81.2566800708844,41.3500357948568],[-81.2566972583814,41.3493275176758],[-81.256715751279,41.3485654441494],[-81.2567412346887,41.3475153234693],[-81.2567418976825,41.3474879846475],[-81.2567423733313,41.3474879834535]]]},"properties":{"source_county":"Geauga","jurisdiction":"Auburn Township","parcel_id":"01-046100","owner_name":"T&C SAND AND GRAVEL LLC","property_address":"19101 THORPE RD","property_city":"AUBURN TOWNSHIP","property_zip":"44023"}},{"type":"Feature","geometry":{"type":"Polygon","coordinates":[[[-81.2624490908654,41.3481220305443],[-81.2644321999975,41.3481322251898],[-81.2644253157397,41.3488938016382],[-81.2643355932682,41.3488969305355],[-81.2642468154945,41.3489072040521],[-81.2641599814779,41.3489245065752],[-81.2640760684054,41.3489486433912],[-81.2639960205961,41.3489793428761],[-81.2639207388747,41.3490162595532],[-81.2638510704346,41.3490589779794],[-81.2637814022826,41.3491016966496],[-81.2637061205809,41.3491386134363],[-81.2636260725646,41.3491693128666],[-81.2635421591147,41.3491934494391],[-81.2634553246182,41.3492107515126],[-81.2633665463395,41.3492210243635],[-81.2632768234209,41.3492241523776],[-81.2624391334195,41.349219839053],[-81.2624490908654,41.3481220305443]]]},"properties":{"source_county":"Geauga","jurisdiction":"Auburn Township","parcel_id":"01-077500","owner_name":"SCHAPEL JOSEPH W & JENNIFER M","property_address":"19140 THORPE RD","property_city":"AUBURN TOWNSHIP","property_zip":"44023"}},{"type":"Feature","geometry":{"type":"Polygon","coordinates":[[[-81.2527226847642,41.3474905024356],[-81.2533600546764,41.3474912355224],[-81.2533588359979,41.3480924093018],[-81.2527122057411,41.3489774076439],[-81.2522957087315,41.3491158219999],[-81.2518888825292,41.3491146267906],[-81.2527202132075,41.3479687995716],[-81.2527226847642,41.3474905024356]]]},"properties":{"source_county":"Geauga","jurisdiction":"Auburn Township","parcel_id":"01-083900","owner_name":"PUSTAI JOHN C","property_address":"10830 CRACKEL RD","property_city":"AUBURN TOWNSHIP","property_zip":"44023"}},{"type":"Feature","geometry":{"type":"Polygon","coordinates":[[[-81.2733046993992,41.3497511053073],[-81.2733266956314,41.3486731041983],[-81.274901673267,41.3486681806027],[-81.274890006417,41.3496237642843],[-81.2748483243737,41.3496119229786],[-81.2748046425479,41.3496053440096],[-81.274760122536,41.3496042023266],[-81.2747159482227,41.3496085282893],[-81.2746732943002,41.3496182068609],[-81.2746332950314,41.3496329806669],[-81.2745970140875,41.3496524568388],[-81.2745654162639,41.3496761174616],[-81.2745393418238,41.3497033333457],[-81.2745194841537,41.3497333807581],[-81.274506371324,41.3497654606681],[-81.2733046993992,41.3497511053073]]]},"properties":{"source_county":"Geauga","jurisdiction":"Auburn Township","parcel_id":"01-117816","owner_name":"KAVOURAS ALEX M SR","property_address":"10275 SABLEWOOD DR","property_city":"AUBURN TOWNSHIP","property_zip":"44023"}},{"type":"Feature","geometry":{"type":"Polygon","coordinates":[[[-81.250075848555,41.3474874200917],[-81.2520853136714,41.3474897658258],[-81.2520834744984,41.3478452138085],[-81.2511638103892,41.3491127809264],[-81.2509578462601,41.3491126303671],[-81.2500469501937,41.3487890790793],[-81.250075848555,41.3474874200917]]]},"properties":{"source_county":"Geauga","jurisdiction":"Auburn Township","parcel_id":"01-118827","owner_name":"KAMENIR SCOTT B TRUSTEE","property_address":"10860 CRACKEL RD","property_city":"AUBURN TOWNSHIP","property_zip":"44023"}},{"type":"Feature","geometry":{"type":"Polygon","coordinates":[[[-81.2520853136714,41.3474897658258],[-81.2527226847642,41.3474905024356],[-81.2527202132075,41.3479687995716],[-81.2518888825292,41.3491146267906],[-81.2512933830139,41.3491128759653],[-81.2511638103892,41.3491127809264],[-81.2520834744984,41.3478452138085],[-81.2520853136714,41.3474897658258]]]},"properties":{"source_county":"Geauga","jurisdiction":"Auburn Township","parcel_id":"01-118829","owner_name":"KAMENIR SCOTT B TRUSTEE","property_address":" CRACKEL RD","property_city":"AUBURN TOWNSHIP","property_zip":"44023"}},{"type":"Feature","geometry":{"type":"Polygon","coordinates":[[[-81.2565523639436,41.3474883771145],[-81.2567418976825,41.3474879846475],[-81.2567412346887,41.3475153234693],[-81.256715751279,41.3485654441494],[-81.255833003575,41.3485625773498],[-81.255859417424,41.3474898090033],[-81.2565523639436,41.3474883771145]]]},"properties":{"source_county":"Geauga","jurisdiction":"Auburn Township","parcel_id":"01-118891","owner_name":"DELTA TRUST","property_address":"10740 CRACKEL RD","property_city":"AUBURN TOWNSHIP","property_zip":"44023"}},{"type":"Feature","geometry":{"type":"Polygon","coordinates":[[[-81.2547400934005,41.3474921141179],[-81.255859417424,41.3474898090033],[-81.255833003575,41.3485625773498],[-81.2553809616992,41.3487656038996],[-81.2553162989657,41.3486893365239],[-81.2552459889833,41.3486159615804],[-81.2551702590318,41.3485457162371],[-81.2550893539072,41.3484788275457],[-81.2550035351307,41.3484155117074],[-81.2549354584982,41.3483639646346],[-81.254873274712,41.3483083500598],[-81.2548174101323,41.3482490493155],[-81.2547682477873,41.348186469008],[-81.2547261247473,41.3481210382295],[-81.2546913298136,41.3480532056153],[-81.2546641015389,41.3479834362682],[-81.2546446265924,41.3479122085689],[-81.2546330384804,41.3478400108957],[-81.2546294166312,41.3477673382762],[-81.2546299979087,41.3476541793332],[-81.2546320838361,41.3476401017487],[-81.2546373408743,41.347626501914],[-81.2546456134282,41.347613782345],[-81.2546566566526,41.3476023195038],[-81.254670143699,41.3475924526572],[-81.2546856753895,41.3475844738348],[-81.2547027920311,41.3475786191862],[-81.2547209870216,41.3475750619917],[-81.254739721843,41.3475739075337],[-81.2547400934005,41.3474921141179]]]},"properties":{"source_county":"Geauga","jurisdiction":"Auburn Township","parcel_id":"01-118892","owner_name":"KUKRAL RANDAL F & ERIKA A","property_address":"19180 SANCTUARY DR","property_city":"AUBURN TOWNSHIP","property_zip":"44023"}},{"type":"Feature","geometry":{"type":"Polygon","coordinates":[[[-81.255833003575,41.3485625773498],[-81.256715751279,41.3485654441494],[-81.2566972583814,41.3493275176758],[-81.2556531121254,41.3493233613655],[-81.255627384045,41.3492256540126],[-81.2555935966141,41.3491293505323],[-81.2555518821682,41.3490348280171],[-81.2555024040804,41.3489424565848],[-81.2554453561213,41.3488525979281],[-81.2553809616992,41.3487656038996],[-81.255833003575,41.3485625773498]]]},"properties":{"source_county":"Geauga","jurisdiction":"Auburn Township","parcel_id":"01-118893","owner_name":"SMARGIASSO CRAIG A & MEGAN L","property_address":"19140 SANCTUARY DR","property_city":"AUBURN TOWNSHIP","property_zip":"44023"}},{"type":"Feature","geometry":{"type":"Polygon","coordinates":[[[-81.2556531121254,41.3493233613655],[-81.2566972583814,41.3493275176758],[-81.2566800708844,41.3500357948568],[-81.2566769126273,41.3501659607121],[-81.2566768660283,41.3501659602115],[-81.2555377236417,41.3501617126798],[-81.2555846085145,41.3500611297126],[-81.2556224538939,41.3499584075902],[-81.2556510900829,41.3498540070302],[-81.2556703886904,41.3497483962757],[-81.2556802632063,41.3496420489956],[-81.255680669389,41.3495354421598],[-81.255671605463,41.3494290539001],[-81.2556531121254,41.3493233613655]]]},"properties":{"source_county":"Geauga","jurisdiction":"Auburn Township","parcel_id":"01-118894","owner_name":"LO PRESTI PATRICIA A & MATTHEW BONNIE J","property_address":"19120 SANCTUARY DR","property_city":"AUBURN TOWNSHIP","property_zip":"44023"}},{"type":"Feature","geometry":{"type":"Polygon","coordinates":[[[-81.2507085477648,41.3504554386722],[-81.2500100379059,41.3504520515631],[-81.2500469501937,41.3487890790793],[-81.2509578462601,41.3491126303671],[-81.2511638103892,41.3491127809264],[-81.2512933830139,41.3491128759653],[-81.2509349746157,41.3504727722427],[-81.2508600342931,41.3504634009121],[-81.2507844580581,41.3504576153526],[-81.2507085477648,41.3504554386722]]]},"properties":{"source_county":"Geauga","jurisdiction":"Auburn Township","parcel_id":"01-118914","owner_name":"TUR MICHAEL & WILEY TUR DEBORAH L CO TRUSTEES","property_address":"10905 GOLDEN POND DR","property_city":"AUBURN TOWNSHIP","property_zip":"44023"}},{"type":"Feature","geometry":{"type":"Polygon","coordinates":[[[-81.2534701439993,41.3483780868736],[-81.2544909452536,41.3481203287354],[-81.2545324335898,41.3481981461487],[-81.2545820848872,41.3482732000454],[-81.2546395781288,41.3483450051288],[-81.2547045415881,41.3484130971072],[-81.2547765552325,41.3484770356965],[-81.2548551534385,41.3485364074672],[-81.254939802469,41.3491700589544],[-81.2547736211006,41.3493906470261],[-81.2544736478809,41.349582563474],[-81.2537630497112,41.3495920970003],[-81.2538908472836,41.3512897631508],[-81.2525907193665,41.3512834922324],[-81.2524975460735,41.3512797067345],[-81.2524052683144,41.351269284278],[-81.2523147168351,41.351252318693],[-81.252226706839,41.351228962715],[-81.2521420306473,41.3511994266096],[-81.2520614505649,41.3511639762802],[-81.251985692018,41.3511229308729],[-81.2519154370224,41.3510766599037],[-81.2518513180437,41.3510255799318],[-81.2517939123034,41.3509701508086],[-81.2517437365826,41.3509108715382],[-81.2516889370311,41.3508454484956],[-81.2516269280914,41.3507837880438],[-81.251558162204,41.3507263400616],[-81.2514831411048,41.3506735236921],[-81.2514024121636,41.3506257242847],[-81.2513165643914,41.3505832905845],[-81.2512262241418,41.3505465321875],[-81.2511320505423,41.3505157172825],[-81.2510347306854,41.350491070694],[-81.2509349746157,41.3504727722427],[-81.2512933830139,41.3491128759653],[-81.2518888825292,41.3491146267906],[-81.2522957087315,41.3491158219999],[-81.2527122057411,41.3489774076439],[-81.2530346472211,41.348978352678],[-81.2534701439993,41.3483780868736]]]},"properties":{"source_county":"Geauga","jurisdiction":"Auburn Township","parcel_id":"01-118915","owner_name":"AVITSIAN RAFI TOD & AGHAMALIAN SUZELLE TOD","property_address":"10865 GOLDEN POND DR","property_city":"AUBURN TOWNSHIP","property_zip":"44023"}},{"type":"Feature","geometry":{"type":"Polygon","coordinates":[[[-81.2533600546764,41.3474912355224],[-81.2543030354986,41.3474923139188],[-81.2543026599135,41.3475734084726],[-81.2543213703324,41.3475746821592],[-81.254339514641,41.3475783523236],[-81.254356556432,41.3475843104631],[-81.254371991892,41.347592380435],[-81.2543853646956,41.3476023236635],[-81.254396279496,41.3476138461928],[-81.254404413613,41.3476266073773],[-81.2544095265725,41.3476402299527],[-81.2544114672158,41.3476543111884],[-81.2544108893824,41.3477667011059],[-81.2544138253889,41.3478387585692],[-81.2544233601342,41.3479104910449],[-81.2544394480825,41.347981555795],[-81.2544620123865,41.3480516132708],[-81.2544909452536,41.3481203287354],[-81.2534701439993,41.3483780868736],[-81.2530346472211,41.348978352678],[-81.2527122057411,41.3489774076439],[-81.2533588359979,41.3480924093018],[-81.2533600546764,41.3474912355224]]]},"properties":{"source_county":"Geauga","jurisdiction":"Auburn Township","parcel_id":"01-118952","owner_name":"VROTSOS ANDREW & CLARA N","property_address":"19191 SANCTUARY DR","property_city":"AUBURN TOWNSHIP","property_zip":"44023"}}]}