{"type":"FeatureCollection","features":[{"type":"Feature","geometry":{"type":"Polygon","coordinates":[[[-81.2758238134543,41.4997219508007],[-81.2760062398644,41.4997235075087],[-81.276006192228,41.4997509534449],[-81.27600515097,41.500356391264],[-81.2749831016614,41.5003564186584],[-81.274984291833,41.4997422339308],[-81.2749843447042,41.4997147871452],[-81.2758238134543,41.4997219508007]]]},"properties":{"source_county":"Geauga","jurisdiction":"Munson Township","parcel_id":"22-006410","owner_name":"JEVNIKAR KENNETH J JR & NOVOTNEY DONNA L","property_address":"10250 CEDAR RD","property_city":"NEWBURY","property_zip":"44065"}},{"type":"Feature","geometry":{"type":"Polygon","coordinates":[[[-81.275823813456,41.4997219508035],[-81.276006239866,41.4997235075115],[-81.2760061922297,41.4997509534478],[-81.2760051509716,41.5003563912668],[-81.274983101663,41.5003564186612],[-81.2749842918346,41.4997422339337],[-81.2749843447059,41.499714787148],[-81.275823813456,41.4997219508035]]]},"properties":{"source_county":"Geauga","jurisdiction":"Munson Township","parcel_id":"22-006410","owner_name":"JEVNIKAR KENNETH J JR & NOVOTNEY DONNA L","property_address":"10250 CEDAR RD","property_city":"NEWBURY","property_zip":"44065"}},{"type":"Feature","geometry":{"type":"Polygon","coordinates":[[[-81.2978864365402,41.4786651979858],[-81.2992546795301,41.478659933331],[-81.2992708146077,41.4806643156397],[-81.2975782051425,41.4806725802205],[-81.2975577279377,41.478666461872],[-81.2978864365402,41.4786651979858]]]},"properties":{"source_county":"Geauga","jurisdiction":"Russell Township","parcel_id":"26-020900","owner_name":"STEFANAC MARC D & LANA P","property_address":"9636 PEKIN RD","property_city":"NOVELTY","property_zip":"44072"}},{"type":"Feature","geometry":{"type":"Polygon","coordinates":[[[-81.3012413570587,41.4931731100049],[-81.3012323763703,41.4925997831336],[-81.2997807322055,41.4926461655073],[-81.2995056431213,41.492821636023],[-81.2989166021176,41.4930555063857],[-81.2980853410968,41.4929597910141],[-81.2980636789047,41.4929432431447],[-81.2978491340027,41.4927793517172],[-81.2971627892927,41.4922550453782],[-81.2971625129061,41.492254834496],[-81.2971625302048,41.4922518675204],[-81.2971627148093,41.492219801648],[-81.3020777916558,41.4922465375377],[-81.3020620468013,41.4922693665315],[-81.3019250693176,41.4923788926352],[-81.3016605733293,41.4925464397454],[-81.3013707636282,41.4927448135859],[-81.3013490742235,41.4929314408111],[-81.3012413570587,41.4931731100049]]]},"properties":{"source_county":"Geauga","jurisdiction":"Russell Township","parcel_id":"26-030100","owner_name":"BROOKS LINDEN E III","property_address":"13748 SPERRY RD","property_city":"NOVELTY","property_zip":"44072"}},{"type":"Feature","geometry":{"type":"Polygon","coordinates":[[[-81.2971679415619,41.4913135776209],[-81.2971714791623,41.4907002612648],[-81.298075886176,41.4906994836931],[-81.2986646183166,41.4906989733455],[-81.2991025325017,41.4906985924119],[-81.299603740717,41.4906981535065],[-81.2999276171596,41.4906978687828],[-81.3002011067654,41.4906976283631],[-81.3003342603838,41.4906975108395],[-81.3004687913098,41.4906973920987],[-81.3007483003744,41.4906971442039],[-81.3010217827897,41.4906969017749],[-81.3012411644599,41.4906967056002],[-81.3015127389932,41.490696463907],[-81.3019976458087,41.4906960290158],[-81.3020711445191,41.4910591132153],[-81.3021723682504,41.4912834191513],[-81.2982480074398,41.4913031234247],[-81.2980922518586,41.4910591843176],[-81.2971679415619,41.4913135776209]]]},"properties":{"source_county":"Geauga","jurisdiction":"Russell Township","parcel_id":"26-031950","owner_name":"FLANIGAN TIMOTHY M & CYNTHIA M","property_address":" SPERRY RD","property_city":"NOVELTY","property_zip":"44072"}},{"type":"Feature","geometry":{"type":"Polygon","coordinates":[[[-81.2976191377531,41.4932205271146],[-81.2978076524893,41.4930645484109],[-81.2978295809906,41.493079046844],[-81.2979452036106,41.4929833799525],[-81.2980636789047,41.4929432431447],[-81.2980853410968,41.4929597910141],[-81.2981370008633,41.4929992541108],[-81.2977521216512,41.4933124492423],[-81.2976191377531,41.4932205271146]]]},"properties":{"source_county":"Geauga","jurisdiction":"Russell Township","parcel_id":"26-054210","owner_name":"MACKIE JEFFREY T","property_address":" SPERRY RD","property_city":"NOVELTY","property_zip":"44072"}},{"type":"Feature","geometry":{"type":"Polygon","coordinates":[[[-81.2971807489275,41.4891812846387],[-81.2971928604962,41.4880100923215],[-81.2987429247502,41.4880067739035],[-81.2987467513335,41.4886372386635],[-81.2984479560716,41.4886629912079],[-81.2984354668598,41.4885811942963],[-81.2983724032055,41.4885876648276],[-81.2983097600019,41.4885961354153],[-81.2982476493877,41.4886065908962],[-81.2981861825485,41.4886190125537],[-81.2981254695175,41.4886333781516],[-81.2980656189787,41.4886496619736],[-81.2980067380723,41.4886678348699],[-81.2979489322032,41.4886878643088],[-81.2978923048519,41.4887097144349],[-81.2978369573896,41.4887333461339],[-81.2977829888968,41.488758717102],[-81.2977304959855,41.4887857819219],[-81.2976795726267,41.4888144921441],[-81.2976303099822,41.4888447963733],[-81.297582796241,41.4888766403609],[-81.2975371164618,41.4889099671018],[-81.2971807489275,41.4891812846387]]]},"properties":{"source_county":"Geauga","jurisdiction":"Russell Township","parcel_id":"26-062000","owner_name":"KEEN BART & MARLENE","property_address":"9659 FAIRMOUNT RD","property_city":"NOVELTY","property_zip":"44072"}},{"type":"Feature","geometry":{"type":"Polygon","coordinates":[[[-81.2985650085046,41.4960526276681],[-81.3001925631689,41.4960220939358],[-81.3004063879541,41.4964600838613],[-81.2971146063743,41.4965218125239],[-81.2971143104214,41.4965218184598],[-81.2971192972322,41.496079730401],[-81.297119665067,41.4960797234095],[-81.2985650085046,41.4960526276681]]]},"properties":{"source_county":"Geauga","jurisdiction":"Russell Township","parcel_id":"26-063300","owner_name":"MIKASH SARAH C & NICHOLAS E III","property_address":"13640 HEATH RD","property_city":"NOVELTY","property_zip":"44072"}},{"type":"Feature","geometry":{"type":"Polygon","coordinates":[[[-81.2987467513335,41.4886372386635],[-81.2987957161901,41.4886330118483],[-81.2985687447281,41.4892883783967],[-81.2980759683483,41.4906992477124],[-81.298075886176,41.4906994836931],[-81.2971714791623,41.4907002612648],[-81.2971732427607,41.4903944075894],[-81.2978581346336,41.4902679195627],[-81.2973349855639,41.4894100593769],[-81.29791941646,41.4887924971631],[-81.297981113124,41.4887677148252],[-81.2980443852104,41.4887452904807],[-81.2981090734478,41.4887252805766],[-81.2981750150007,41.4887077354822],[-81.2982420438791,41.4886926993624],[-81.2983099913564,41.4886802100662],[-81.298378686394,41.488670299032],[-81.2984479560716,41.4886629912079],[-81.2987467513335,41.4886372386635]]]},"properties":{"source_county":"Geauga","jurisdiction":"Russell Township","parcel_id":"26-065440","owner_name":"SANDERS ELLEN M TRUSTEE","property_address":"9640 FAIRMOUNT RD","property_city":"NOVELTY","property_zip":"44072"}},{"type":"Feature","geometry":{"type":"Polygon","coordinates":[[[-81.2987429247502,41.4880067739035],[-81.3005531019608,41.4880028724679],[-81.299999287061,41.4885291032524],[-81.2998892343178,41.4885386048893],[-81.2987467513335,41.4886372386635],[-81.2987429247502,41.4880067739035]]]},"properties":{"source_county":"Geauga","jurisdiction":"Russell Township","parcel_id":"26-087400","owner_name":"PATTI WILLIAM A TRUSTEE","property_address":"9615 FAIRMOUNT RD","property_city":"NOVELTY","property_zip":"44072"}},{"type":"Feature","geometry":{"type":"Polygon","coordinates":[[[-81.2974590288793,41.4933530006511],[-81.2973681855938,41.4932293654],[-81.2972903921561,41.4932370018901],[-81.2971514027626,41.4932506449306],[-81.2971512767813,41.4932506571316],[-81.2971536641788,41.4930509172204],[-81.2971538187001,41.4930374013864],[-81.2973911307243,41.4929433553228],[-81.2974647551343,41.4930045252298],[-81.2978491340027,41.4927793517172],[-81.2980636789047,41.4929432431447],[-81.2979452036106,41.4929833799525],[-81.2978295809906,41.493079046844],[-81.2978076524893,41.4930645484109],[-81.2976191377531,41.4932205271146],[-81.2974590288793,41.4933530006511]]]},"properties":{"source_county":"Geauga","jurisdiction":"Russell Township","parcel_id":"26-091200","owner_name":"MACKIE JEFFREY T","property_address":"13741 SPERRY RD","property_city":"NOVELTY","property_zip":"44072"}},{"type":"Feature","geometry":{"type":"Polygon","coordinates":[[[-81.2991027153771,41.4906980891234],[-81.2998892343178,41.4885386048893],[-81.299999287061,41.4885291032524],[-81.3004379405284,41.4886600183852],[-81.2996040002347,41.4906975195372],[-81.299603740717,41.4906981535065],[-81.2991025325017,41.4906985924119],[-81.2991027153771,41.4906980891234]]]},"properties":{"source_county":"Geauga","jurisdiction":"Russell Township","parcel_id":"26-111070","owner_name":"NEMETH STEPHAN M & FALCONE OLIVIA","property_address":"9594 FAIRMOUNT RD","property_city":"NOVELTY","property_zip":"44072"}},{"type":"Feature","geometry":{"type":"Polygon","coordinates":[[[-81.2972257515469,41.4848218969422],[-81.2972505344892,41.4824194689758],[-81.2972631030633,41.4812010187115],[-81.2972889395163,41.4786961971457],[-81.2972888087134,41.4786674822566],[-81.2975577279377,41.478666461872],[-81.2975782051425,41.4806725802205],[-81.2992708146077,41.4806643156397],[-81.3009130600279,41.480656271946],[-81.3009253256785,41.482175209788],[-81.3022708116692,41.4821699697685],[-81.3022716825639,41.4823259379983],[-81.3022767351533,41.4832316091714],[-81.3037219797697,41.4832257380042],[-81.3037239008527,41.4835687957208],[-81.3037306659732,41.4847766280601],[-81.2972772872075,41.4848223692695],[-81.2972257433901,41.4848227334261],[-81.2972257515469,41.4848218969422]]]},"properties":{"source_county":"Geauga","jurisdiction":"Russell Township","parcel_id":"26-125500","owner_name":"CLEVELAND MUSEUM OF NATURAL HISTORY THE","property_address":" PEKIN RD","property_city":"NOVELTY","property_zip":"44072"}},{"type":"Feature","geometry":{"type":"Polygon","coordinates":[[[-81.2971266538593,41.495469029065],[-81.2985538119027,41.4954618685124],[-81.2985650085046,41.4960526276681],[-81.297119665067,41.4960797234095],[-81.2971192972322,41.496079730401],[-81.2971203138603,41.4959896484954],[-81.2971261855038,41.4954690314121],[-81.2971266538593,41.495469029065]]]},"properties":{"source_county":"Geauga","jurisdiction":"Russell Township","parcel_id":"26-130600","owner_name":"OSBORN SANDRA STARR O W SANDRA S","property_address":" HEATH RD","property_city":"NOVELTY","property_zip":"44072"}},{"type":"Feature","geometry":{"type":"Polygon","coordinates":[[[-81.2971312821018,41.49505777212],[-81.2988414323725,41.495063174197],[-81.2988482933537,41.4952707999739],[-81.2988545571374,41.4954603573007],[-81.2985538119027,41.4954618685124],[-81.2971266538593,41.495469029065],[-81.2971261855038,41.4954690314121],[-81.2971288209733,41.4952354083373],[-81.2971308245928,41.4950577709776],[-81.2971312821018,41.49505777212]]]},"properties":{"source_county":"Geauga","jurisdiction":"Russell Township","parcel_id":"26-130700","owner_name":"OSBORN SANDRA STARR O W SANDRA S","property_address":" HEATH RD","property_city":"NOVELTY","property_zip":"44072"}},{"type":"Feature","geometry":{"type":"Polygon","coordinates":[[[-81.2976207323144,41.4936865839849],[-81.2972903921561,41.4932370018901],[-81.2973681855938,41.4932293654],[-81.2974590288793,41.4933530006511],[-81.2976191377531,41.4932205271146],[-81.2977521216512,41.4933124492423],[-81.2981370008633,41.4929992541108],[-81.2990617304571,41.4937056377748],[-81.2990740535003,41.4937308830542],[-81.2993235493849,41.4942419782521],[-81.2995730491754,41.4947530719335],[-81.2998225528388,41.495264165899],[-81.2998306293053,41.4952807097239],[-81.2999913189825,41.4956098682405],[-81.2988545571374,41.4954603573007],[-81.2988482933537,41.4952707999739],[-81.2988414323725,41.495063174197],[-81.2988338798413,41.4948345892804],[-81.298506077479,41.494500594084],[-81.2984653961933,41.4944591449381],[-81.2985159983382,41.4939253258868],[-81.297536267974,41.4938863834131],[-81.2976142227519,41.4937855383859],[-81.2976207323144,41.4936865839849]]]},"properties":{"source_county":"Geauga","jurisdiction":"Russell Township","parcel_id":"26-130800","owner_name":"OSBORN SANDRA STARR O W SANDRA S","property_address":"13685 SPERRY RD","property_city":"NOVELTY","property_zip":"44072"}},{"type":"Feature","geometry":{"type":"Polygon","coordinates":[[[-81.297140413629,41.4942208415491],[-81.297536267974,41.4938863834131],[-81.2985159983382,41.4939253258868],[-81.2984653961933,41.4944591449381],[-81.298506077479,41.494500594084],[-81.2971374090033,41.4944962675578],[-81.297137158696,41.4944962667631],[-81.2971402639937,41.4942209678686],[-81.297140413629,41.4942208415491]]]},"properties":{"source_county":"Geauga","jurisdiction":"Russell Township","parcel_id":"26-130900","owner_name":"OSBORN SANDRA STARR O W SANDRA S","property_address":" HEATH RD","property_city":"NOVELTY","property_zip":"44072"}},{"type":"Feature","geometry":{"type":"Polygon","coordinates":[[[-81.2971374090033,41.4944962675578],[-81.298506077479,41.494500594084],[-81.2988338798413,41.4948345892804],[-81.2988414323725,41.495063174197],[-81.2971312821018,41.49505777212],[-81.2971308245928,41.4950577709776],[-81.2971366038001,41.4945453824737],[-81.297137158696,41.4944962667631],[-81.2971374090033,41.4944962675578]]]},"properties":{"source_county":"Geauga","jurisdiction":"Russell Township","parcel_id":"26-131000","owner_name":"OSBORN SANDRA STARR O W SANDRA S","property_address":" HEATH RD","property_city":"NOVELTY","property_zip":"44072"}},{"type":"Feature","geometry":{"type":"Polygon","coordinates":[[[-81.2998892343178,41.4885386048893],[-81.2991027153771,41.4906980891234],[-81.2991025325017,41.4906985924119],[-81.2986646183166,41.4906989733455],[-81.2986647416081,41.490698584705],[-81.2993343448287,41.4885865120759],[-81.2998892343178,41.4885386048893]]]},"properties":{"source_county":"Geauga","jurisdiction":"Russell Township","parcel_id":"26-137300","owner_name":"PATTI WILLIAM A TRUSTEE","property_address":"9600 FAIRMOUNT RD","property_city":"NOVELTY","property_zip":"44072"}},{"type":"Feature","geometry":{"type":"Polygon","coordinates":[[[-81.2971514027626,41.4932506449306],[-81.2972903921561,41.4932370018901],[-81.2976207323144,41.4936865839849],[-81.2976142227519,41.4937855383859],[-81.297536267974,41.4938863834131],[-81.297140413629,41.4942208415491],[-81.2971402639937,41.4942209678686],[-81.2971438174578,41.4939083757138],[-81.2971474329053,41.4935895301866],[-81.2971512767813,41.4932506571316],[-81.2971514027626,41.4932506449306]]]},"properties":{"source_county":"Geauga","jurisdiction":"Russell Township","parcel_id":"26-152540","owner_name":"GLASSER DAVID A & JAN S","property_address":" HEATH RD","property_city":"NOVELTY","property_zip":"44072"}},{"type":"Feature","geometry":{"type":"Polygon","coordinates":[[[-81.2971146063743,41.4965218125239],[-81.3004063879541,41.4964600838613],[-81.3012768713351,41.4982430828058],[-81.3016834782618,41.4985444687029],[-81.3018759272846,41.4986868526317],[-81.2981976691353,41.4987110464624],[-81.2970895329953,41.4987183125387],[-81.2970903644992,41.4986445926811],[-81.2970938145656,41.4983387725375],[-81.2970938151272,41.4983387419264],[-81.2971044471607,41.4973962467221],[-81.2971106386068,41.4968473745542],[-81.2971143104214,41.4965218184598],[-81.2971146063743,41.4965218125239]]]},"properties":{"source_county":"Geauga","jurisdiction":"Russell Township","parcel_id":"26-153400","owner_name":"RODE JOHN A III","property_address":"13570 HEATH RD","property_city":"NOVELTY","property_zip":"44072"}},{"type":"Feature","geometry":{"type":"Polygon","coordinates":[[[-81.2980759683483,41.4906992477124],[-81.2985687447281,41.4892883783967],[-81.2987127736792,41.4892970751754],[-81.2987957161901,41.4886330118483],[-81.2993343436313,41.4885865120635],[-81.2986647416081,41.490698584705],[-81.2986646183166,41.4906989733455],[-81.298075886176,41.4906994836931],[-81.2980759683483,41.4906992477124]]]},"properties":{"source_county":"Geauga","jurisdiction":"Russell Township","parcel_id":"26-158700","owner_name":"SANDERS MATTHEW J","property_address":"9624 FAIRMOUNT RD","property_city":"NOVELTY","property_zip":"44072"}},{"type":"Feature","geometry":{"type":"Polygon","coordinates":[[[-81.2987957161901,41.4886330118483],[-81.2987127736792,41.4892970751754],[-81.2985687447281,41.4892883783967],[-81.2987957161901,41.4886330118483]]]},"properties":{"source_county":"Geauga","jurisdiction":"Russell Township","parcel_id":"26-158900","owner_name":"SANDERS ELLEN M TRUSTEE","property_address":" FAIRMOUNT RD","property_city":"NOVELTY","property_zip":"44072"}},{"type":"Feature","geometry":{"type":"Polygon","coordinates":[[[-81.300318627138,41.4730842419669],[-81.301172441583,41.4730778674659],[-81.3011739520642,41.4742285442969],[-81.3011754385893,41.4753604233167],[-81.3011768451301,41.4764320896941],[-81.3011780562118,41.4773545462115],[-81.3011796979927,41.4786042380019],[-81.3011797612807,41.4786524616211],[-81.3008968909044,41.4786535613663],[-81.300349487542,41.4786556882426],[-81.2998020829469,41.4786578125227],[-81.2992546795301,41.478659933331],[-81.2978864365402,41.4786651979858],[-81.2975577279377,41.478666461872],[-81.2972888087134,41.4786674822566],[-81.2972884219325,41.4785829243376],[-81.2972781389719,41.4763288892019],[-81.2972764737016,41.4759639362157],[-81.2972715592513,41.4748865855174],[-81.2972634455177,41.4731078447372],[-81.2978434310837,41.4731033700822],[-81.300318627138,41.4730842419669]]]},"properties":{"source_county":"Geauga","jurisdiction":"Russell Township","parcel_id":"26-182400","owner_name":"STAY S FINLEY TRUSTEE","property_address":"9619 PEKIN RD","property_city":"NOVELTY","property_zip":"44072"}},{"type":"Feature","geometry":{"type":"Polygon","coordinates":[[[-81.2971538187001,41.4930374013864],[-81.2971571693844,41.4927355950329],[-81.297161252661,41.4923682576965],[-81.2971625129061,41.492254834496],[-81.2971627892927,41.4922550453782],[-81.2978491340027,41.4927793517172],[-81.2974647551343,41.4930045252298],[-81.2973911307243,41.4929433553228],[-81.2971538187001,41.4930374013864]]]},"properties":{"source_county":"Geauga","jurisdiction":"Russell Township","parcel_id":"26-190250","owner_name":"DAVET INVESTMENTS LLC","property_address":"13757 SPERRY RD","property_city":"NOVELTY","property_zip":"44072"}},{"type":"Feature","geometry":{"type":"Polygon","coordinates":[[[-81.2992708146077,41.4806643156397],[-81.2992546795301,41.478659933331],[-81.2998020829469,41.4786578125227],[-81.2998123688031,41.4799343556928],[-81.3003597793921,41.4799318314923],[-81.3003591147447,41.4798494166862],[-81.3009065258009,41.4798468899174],[-81.3009130600279,41.480656271946],[-81.2992708146077,41.4806643156397]]]},"properties":{"source_county":"Geauga","jurisdiction":"Russell Township","parcel_id":"26-191400","owner_name":"WEBER LILY A & DEAN A CO TRUSTEES","property_address":"9624 PEKIN RD","property_city":"NOVELTY","property_zip":"44072"}},{"type":"Feature","geometry":{"type":"Polygon","coordinates":[[[-81.2984976276133,41.4990408075126],[-81.2996639301581,41.4990331464848],[-81.2996368229255,41.4999048470954],[-81.2996367066477,41.4999085811655],[-81.2984703872805,41.499916244606],[-81.298470544101,41.4999112169379],[-81.298489169089,41.4993126277338],[-81.2984976276133,41.4990408075126]]]},"properties":{"source_county":"Geauga","jurisdiction":"Russell Township","parcel_id":"26-197590","owner_name":"FLANIGAN TIMOTHY M & CYNTHIA M","property_address":" HEATH RD","property_city":"NOVELTY","property_zip":"44072"}},{"type":"Feature","geometry":{"type":"Polygon","coordinates":[[[-81.2970827238851,41.4993218518694],[-81.298489169089,41.4993126277338],[-81.298470544101,41.4999112169379],[-81.2984703872805,41.499916244606],[-81.2971123276976,41.4999251527364],[-81.2970759158472,41.4999253911006],[-81.2970762182809,41.4998979397871],[-81.2970827238851,41.4993218518694]]]},"properties":{"source_county":"Geauga","jurisdiction":"Russell Township","parcel_id":"26-197600","owner_name":"FLANIGAN TIMOTHY M & CYNTHIA M","property_address":"13530 HEATH RD","property_city":"NOVELTY","property_zip":"44072"}},{"type":"Feature","geometry":{"type":"Polygon","coordinates":[[[-81.2996639301581,41.4990331464848],[-81.3004118607898,41.4990282268573],[-81.3003847412376,41.4999006207985],[-81.300384647284,41.4999036608144],[-81.2996367066477,41.4999085811655],[-81.2996368229255,41.4999048470954],[-81.2996639301581,41.4990331464848]]]},"properties":{"source_county":"Geauga","jurisdiction":"Russell Township","parcel_id":"26-197610","owner_name":"FLANIGAN TIMOTHY M & CYNTHIA M","property_address":" HEATH RD","property_city":"NOVELTY","property_zip":"44072"}},{"type":"Feature","geometry":{"type":"Polygon","coordinates":[[[-81.2970827238851,41.4993218518694],[-81.2970895329953,41.4987183125387],[-81.2981976691353,41.4987110464624],[-81.2981873434123,41.499042844088],[-81.2984976276133,41.4990408075126],[-81.298489169089,41.4993126277338],[-81.2970827238851,41.4993218518694]]]},"properties":{"source_county":"Geauga","jurisdiction":"Russell Township","parcel_id":"26-197620","owner_name":"FLANIGAN TIMOTHY M & CYNTHIA M","property_address":" HEATH RD","property_city":"NOVELTY","property_zip":"44072"}},{"type":"Feature","geometry":{"type":"Polygon","coordinates":[[[-81.2981976691353,41.4987110464624],[-81.3018759272846,41.4986868526317],[-81.302320341931,41.499015652489],[-81.3011597913091,41.4990233024077],[-81.3004118607898,41.4990282268573],[-81.2996639301581,41.4990331464848],[-81.2984976276133,41.4990408075126],[-81.2981873434123,41.499042844088],[-81.2981976691353,41.4987110464624]]]},"properties":{"source_county":"Geauga","jurisdiction":"Russell Township","parcel_id":"26-197800","owner_name":"SZUCS PAUL J TOD","property_address":" SPERRY RD","property_city":"NOVELTY","property_zip":"44072"}},{"type":"Feature","geometry":{"type":"Polygon","coordinates":[[[-81.2971779862203,41.4895719698568],[-81.2973349855639,41.4894100593769],[-81.2978581346336,41.4902679195627],[-81.2971732427607,41.4903944075894],[-81.2971756892686,41.4899702988252],[-81.2971779862203,41.4895719698568]]]},"properties":{"source_county":"Geauga","jurisdiction":"Russell Township","parcel_id":"26-202900","owner_name":"BECK BRANDON R","property_address":"9674 FAIRMOUNT RD","property_city":"NOVELTY","property_zip":"44072"}},{"type":"Feature","geometry":{"type":"Polygon","coordinates":[[[-81.2985538119027,41.4954618685124],[-81.2988545571374,41.4954603573007],[-81.2999913189825,41.4956098682405],[-81.3001925631689,41.4960220939358],[-81.2985650085046,41.4960526276681],[-81.2985538119027,41.4954618685124]]]},"properties":{"source_county":"Geauga","jurisdiction":"Russell Township","parcel_id":"26-211600","owner_name":"WILLIAMS KELLY C","property_address":"13655 SPERRY RD","property_city":"NOVELTY","property_zip":"44072"}},{"type":"Feature","geometry":{"type":"Polygon","coordinates":[[[-81.2990617304571,41.4937056377748],[-81.2981370008633,41.4929992541108],[-81.2980853410968,41.4929597910141],[-81.2989166021176,41.4930555063857],[-81.2995056431213,41.492821636023],[-81.2997807322055,41.4926461655073],[-81.3012323763703,41.4925997831336],[-81.3012413570587,41.4931731100049],[-81.3011580418103,41.4933600295768],[-81.3012312796399,41.4935706987863],[-81.3011523638936,41.4937182002366],[-81.3010336109181,41.4937189259735],[-81.3006011863649,41.4935361560545],[-81.2997772411986,41.4936113311913],[-81.2990740535003,41.4937308830542],[-81.2990617304571,41.4937056377748]]]},"properties":{"source_county":"Geauga","jurisdiction":"Russell Township","parcel_id":"26-214057","owner_name":"LEMMINGS RACHEL & TRAVIS","property_address":"13730 SPERRY RD","property_city":"NOVELTY","property_zip":"44072"}},{"type":"Feature","geometry":{"type":"Polygon","coordinates":[[[-81.2984354668598,41.4885811942963],[-81.2984479560716,41.4886629912079],[-81.298378686394,41.4886702990321],[-81.2983099913564,41.4886802100663],[-81.2982420438791,41.4886926993625],[-81.2981750150007,41.4887077354823],[-81.2981090734478,41.4887252805767],[-81.2980443852104,41.4887452904808],[-81.297981113124,41.4887677148253],[-81.29791941646,41.4887924971631],[-81.2973349855639,41.4894100593769],[-81.2971779862203,41.4895719698568],[-81.2971796048334,41.4892989577223],[-81.2971805803199,41.489198180831],[-81.2971807489275,41.4891812846387],[-81.2975371164618,41.4889099671018],[-81.2975827962409,41.4888766403608],[-81.2976303099821,41.4888447963732],[-81.2976795726265,41.4888144921439],[-81.2977304959853,41.4887857819217],[-81.2977829888966,41.4887587171017],[-81.2978369573894,41.4887333461336],[-81.2978923048517,41.4887097144346],[-81.297948932203,41.4886878643084],[-81.2980067380721,41.4886678348696],[-81.2980656189785,41.4886496619733],[-81.2981254695174,41.4886333781513],[-81.2981861825484,41.4886190125534],[-81.2982476493876,41.488606590896],[-81.2983097600018,41.4885961354152],[-81.2983724032054,41.4885876648275],[-81.2984354668598,41.4885811942963]]]},"properties":{"source_county":"Geauga","jurisdiction":"Russell Township","parcel_id":"26-702500","owner_name":"GEAUGA COUNTY BOARD OF COMMISSIONERS","property_address":" FAIRMOUNT RD","property_city":"NOVELTY","property_zip":"44072"}},{"type":"Feature","geometry":{"type":"Polygon","coordinates":[[[-81.2978864365419,41.4786651979887],[-81.2992546795317,41.4786599333338],[-81.2992708146094,41.4806643156426],[-81.2975782051442,41.4806725802234],[-81.2975577279394,41.4786664618748],[-81.2978864365419,41.4786651979887]]]},"properties":{"source_county":"Geauga","jurisdiction":"Russell Township","parcel_id":"26-020900","owner_name":"STEFANAC MARC D & LANA P","property_address":"9636 PEKIN RD","property_city":"NOVELTY","property_zip":"44072"}},{"type":"Feature","geometry":{"type":"Polygon","coordinates":[[[-81.3012413570604,41.4931731100078],[-81.301232376372,41.4925997831365],[-81.2997807322071,41.4926461655101],[-81.299505643123,41.4928216360259],[-81.2989166021193,41.4930555063885],[-81.2980853410985,41.492959791017],[-81.2980636789064,41.4929432431476],[-81.2978491340044,41.49277935172],[-81.2971627892944,41.492255045381],[-81.2971625129077,41.4922548344988],[-81.2971625302064,41.4922518675232],[-81.297162714811,41.4922198016509],[-81.3020777916574,41.4922465375405],[-81.3020620468029,41.4922693665343],[-81.3019250693193,41.4923788926381],[-81.3016605733309,41.4925464397482],[-81.3013707636298,41.4927448135888],[-81.3013490742252,41.4929314408139],[-81.3012413570604,41.4931731100078]]]},"properties":{"source_county":"Geauga","jurisdiction":"Russell Township","parcel_id":"26-030100","owner_name":"BROOKS LINDEN E III","property_address":"13748 SPERRY RD","property_city":"NOVELTY","property_zip":"44072"}},{"type":"Feature","geometry":{"type":"Polygon","coordinates":[[[-81.2971679415636,41.4913135776238],[-81.297171479164,41.4907002612676],[-81.2980758861777,41.4906994836959],[-81.2986646183182,41.4906989733484],[-81.2991025325034,41.4906985924147],[-81.2996037407187,41.4906981535093],[-81.2999276171613,41.4906978687857],[-81.3002011067671,41.490697628366],[-81.3003342603855,41.4906975108423],[-81.3004687913115,41.4906973921015],[-81.300748300376,41.4906971442067],[-81.3010217827913,41.4906969017777],[-81.3012411644616,41.4906967056031],[-81.3015127389949,41.4906964639099],[-81.3019976458104,41.4906960290186],[-81.3020711445208,41.4910591132181],[-81.302172368252,41.4912834191541],[-81.2982480074415,41.4913031234276],[-81.2980922518603,41.4910591843204],[-81.2971679415636,41.4913135776238]]]},"properties":{"source_county":"Geauga","jurisdiction":"Russell Township","parcel_id":"26-031950","owner_name":"FLANIGAN TIMOTHY M & CYNTHIA M","property_address":" SPERRY RD","property_city":"NOVELTY","property_zip":"44072"}},{"type":"Feature","geometry":{"type":"Polygon","coordinates":[[[-81.2976191377547,41.4932205271174],[-81.297807652491,41.4930645484138],[-81.2978295809922,41.4930790468468],[-81.2979452036122,41.4929833799553],[-81.2980636789064,41.4929432431476],[-81.2980853410985,41.492959791017],[-81.298137000865,41.4929992541136],[-81.2977521216528,41.4933124492452],[-81.2976191377547,41.4932205271174]]]},"properties":{"source_county":"Geauga","jurisdiction":"Russell Township","parcel_id":"26-054210","owner_name":"MACKIE JEFFREY T","property_address":" SPERRY RD","property_city":"NOVELTY","property_zip":"44072"}},{"type":"Feature","geometry":{"type":"Polygon","coordinates":[[[-81.2971807489292,41.4891812846415],[-81.2971928604978,41.4880100923243],[-81.2987429247518,41.4880067739064],[-81.2987467513352,41.4886372386664],[-81.2984479560732,41.4886629912107],[-81.2984354668615,41.4885811942991],[-81.2983236386238,41.4885940809416],[-81.2982134145943,41.4886132504245],[-81.2981054181826,41.4886385943284],[-81.2980002602014,41.4886699693122],[-81.297898535412,41.4887071979238],[-81.2978008191609,41.4887500696037],[-81.2977076641257,41.4887983418754],[-81.2976195971901,41.4888517417169],[-81.2975371164635,41.4889099671046],[-81.2971807489292,41.4891812846415]]]},"properties":{"source_county":"Geauga","jurisdiction":"Russell Township","parcel_id":"26-062000","owner_name":"KEEN BART & MARLENE","property_address":"9659 FAIRMOUNT RD","property_city":"NOVELTY","property_zip":"44072"}},{"type":"Feature","geometry":{"type":"Polygon","coordinates":[[[-81.2985650085063,41.4960526276708],[-81.3001925631706,41.4960220939386],[-81.3004063879557,41.4964600838642],[-81.2971146063761,41.4965218125267],[-81.2971143104231,41.4965218184627],[-81.2971192972339,41.4960797304039],[-81.2971196650687,41.4960797234123],[-81.2985650085063,41.4960526276708]]]},"properties":{"source_county":"Geauga","jurisdiction":"Russell Township","parcel_id":"26-063300","owner_name":"MIKASH SARAH C & NICHOLAS E III","property_address":"13640 HEATH RD","property_city":"NOVELTY","property_zip":"44072"}},{"type":"Feature","geometry":{"type":"Polygon","coordinates":[[[-81.2987467513352,41.4886372386664],[-81.2987957161918,41.4886330118511],[-81.2985687447298,41.4892883783995],[-81.2980759683499,41.4906992477153],[-81.2980758861777,41.4906994836959],[-81.297171479164,41.4907002612676],[-81.2971732427625,41.4903944075922],[-81.2978581346353,41.4902679195655],[-81.2973349855655,41.4894100593797],[-81.2979194164617,41.4887924971659],[-81.298018897436,41.4887539735149],[-81.2981221667637,41.4887215728724],[-81.2982285591819,41.4886955039627],[-81.2983373893119,41.4886759347208],[-81.2984479560732,41.4886629912107],[-81.2987467513352,41.4886372386664]]]},"properties":{"source_county":"Geauga","jurisdiction":"Russell Township","parcel_id":"26-065440","owner_name":"SANDERS ELLEN M TRUSTEE","property_address":"9640 FAIRMOUNT RD","property_city":"NOVELTY","property_zip":"44072"}},{"type":"Feature","geometry":{"type":"Polygon","coordinates":[[[-81.2987429247518,41.4880067739064],[-81.3005531019625,41.4880028724707],[-81.2999992870627,41.4885291032552],[-81.2998892343195,41.4885386048921],[-81.2987467513352,41.4886372386664],[-81.2987429247518,41.4880067739064]]]},"properties":{"source_county":"Geauga","jurisdiction":"Russell Township","parcel_id":"26-087400","owner_name":"PATTI WILLIAM A TRUSTEE","property_address":"9615 FAIRMOUNT RD","property_city":"NOVELTY","property_zip":"44072"}},{"type":"Feature","geometry":{"type":"Polygon","coordinates":[[[-81.297459028881,41.4933530006539],[-81.2973681855955,41.4932293654029],[-81.2972903921578,41.4932370018929],[-81.2971514027642,41.4932506449334],[-81.2971512767831,41.4932506571344],[-81.2971536641804,41.4930509172232],[-81.2971538187018,41.4930374013892],[-81.2973911307259,41.4929433553256],[-81.2974647551359,41.4930045252326],[-81.2978491340044,41.49277935172],[-81.2980636789064,41.4929432431476],[-81.2979452036122,41.4929833799553],[-81.2978295809922,41.4930790468468],[-81.297807652491,41.4930645484138],[-81.2976191377547,41.4932205271174],[-81.297459028881,41.4933530006539]]]},"properties":{"source_county":"Geauga","jurisdiction":"Russell Township","parcel_id":"26-091200","owner_name":"MACKIE JEFFREY T","property_address":"13741 SPERRY RD","property_city":"NOVELTY","property_zip":"44072"}},{"type":"Feature","geometry":{"type":"Polygon","coordinates":[[[-81.2991027153788,41.4906980891262],[-81.2998892343195,41.4885386048921],[-81.2999992870627,41.4885291032552],[-81.3004379405301,41.488660018388],[-81.2996040002364,41.49069751954],[-81.2996037407187,41.4906981535093],[-81.2991025325034,41.4906985924147],[-81.2991027153788,41.4906980891262]]]},"properties":{"source_county":"Geauga","jurisdiction":"Russell Township","parcel_id":"26-111070","owner_name":"NEMETH STEPHAN M & FALCONE OLIVIA","property_address":"9594 FAIRMOUNT RD","property_city":"NOVELTY","property_zip":"44072"}},{"type":"Feature","geometry":{"type":"Polygon","coordinates":[[[-81.2972257515486,41.484821896945],[-81.2972505344909,41.4824194689786],[-81.297263103065,41.4812010187143],[-81.297288939518,41.4786961971485],[-81.2972888087151,41.4786674822594],[-81.2975577279394,41.4786664618748],[-81.2975782051442,41.4806725802234],[-81.2992708146094,41.4806643156426],[-81.3009130600296,41.4806562719488],[-81.3009253256802,41.4821752097909],[-81.3022708116709,41.4821699697714],[-81.3022716825656,41.4823259380012],[-81.3022767351549,41.4832316091742],[-81.3037219797714,41.483225738007],[-81.3037239008543,41.4835687957236],[-81.3037306659749,41.484776628063],[-81.2972772872091,41.4848223692723],[-81.2972257433918,41.4848227334289],[-81.2972257515486,41.484821896945]]]},"properties":{"source_county":"Geauga","jurisdiction":"Russell Township","parcel_id":"26-125500","owner_name":"CLEVELAND MUSEUM OF NATURAL HISTORY THE","property_address":" PEKIN RD","property_city":"NOVELTY","property_zip":"44072"}},{"type":"Feature","geometry":{"type":"Polygon","coordinates":[[[-81.297126653861,41.4954690290679],[-81.2985538119044,41.4954618685152],[-81.2985650085063,41.4960526276708],[-81.2971196650687,41.4960797234123],[-81.2971192972339,41.4960797304039],[-81.297120313862,41.4959896484982],[-81.2971261855055,41.495469031415],[-81.297126653861,41.4954690290679]]]},"properties":{"source_county":"Geauga","jurisdiction":"Russell Township","parcel_id":"26-130600","owner_name":"OSBORN SANDRA STARR O W SANDRA S","property_address":" HEATH RD","property_city":"NOVELTY","property_zip":"44072"}},{"type":"Feature","geometry":{"type":"Polygon","coordinates":[[[-81.2971312821035,41.4950577721228],[-81.2988414323742,41.4950631741998],[-81.2988482933553,41.4952707999768],[-81.2988545571391,41.4954603573035],[-81.2985538119044,41.4954618685152],[-81.297126653861,41.4954690290679],[-81.2971261855055,41.495469031415],[-81.297128820975,41.4952354083401],[-81.2971308245944,41.4950577709804],[-81.2971312821035,41.4950577721228]]]},"properties":{"source_county":"Geauga","jurisdiction":"Russell Township","parcel_id":"26-130700","owner_name":"OSBORN SANDRA STARR O W SANDRA S","property_address":" HEATH RD","property_city":"NOVELTY","property_zip":"44072"}},{"type":"Feature","geometry":{"type":"Polygon","coordinates":[[[-81.297620732316,41.4936865839877],[-81.2972903921578,41.4932370018929],[-81.2973681855955,41.4932293654029],[-81.297459028881,41.4933530006539],[-81.2976191377547,41.4932205271174],[-81.2977521216528,41.4933124492452],[-81.298137000865,41.4929992541136],[-81.2990617304587,41.4937056377776],[-81.2990740535019,41.493730883057],[-81.2993235493866,41.4942419782549],[-81.2995730491771,41.4947530719363],[-81.2998225528405,41.4952641659018],[-81.2998306293071,41.4952807097267],[-81.2999913189841,41.4956098682433],[-81.2988545571391,41.4954603573035],[-81.2988482933553,41.4952707999768],[-81.2988414323742,41.4950631741998],[-81.298833879843,41.4948345892832],[-81.2985060774807,41.4945005940868],[-81.298465396195,41.494459144941],[-81.2985159983399,41.4939253258897],[-81.2975362679756,41.493886383416],[-81.2976142227535,41.4937855383887],[-81.297620732316,41.4936865839877]]]},"properties":{"source_county":"Geauga","jurisdiction":"Russell Township","parcel_id":"26-130800","owner_name":"OSBORN SANDRA STARR O W SANDRA S","property_address":"13685 SPERRY RD","property_city":"NOVELTY","property_zip":"44072"}},{"type":"Feature","geometry":{"type":"Polygon","coordinates":[[[-81.2971404136307,41.4942208415519],[-81.2975362679756,41.493886383416],[-81.2985159983399,41.4939253258897],[-81.298465396195,41.494459144941],[-81.2985060774807,41.4945005940868],[-81.2971374090049,41.4944962675607],[-81.2971371586977,41.494496266766],[-81.2971402639954,41.4942209678714],[-81.2971404136307,41.4942208415519]]]},"properties":{"source_county":"Geauga","jurisdiction":"Russell Township","parcel_id":"26-130900","owner_name":"OSBORN SANDRA STARR O W SANDRA S","property_address":" HEATH RD","property_city":"NOVELTY","property_zip":"44072"}},{"type":"Feature","geometry":{"type":"Polygon","coordinates":[[[-81.2971374090049,41.4944962675607],[-81.2985060774807,41.4945005940868],[-81.298833879843,41.4948345892832],[-81.2988414323742,41.4950631741998],[-81.2971312821035,41.4950577721228],[-81.2971308245944,41.4950577709804],[-81.2971366038017,41.4945453824766],[-81.2971371586977,41.494496266766],[-81.2971374090049,41.4944962675607]]]},"properties":{"source_county":"Geauga","jurisdiction":"Russell Township","parcel_id":"26-131000","owner_name":"OSBORN SANDRA STARR O W SANDRA S","property_address":" HEATH RD","property_city":"NOVELTY","property_zip":"44072"}},{"type":"Feature","geometry":{"type":"Polygon","coordinates":[[[-81.2998892343195,41.4885386048921],[-81.2991027153788,41.4906980891262],[-81.2991025325034,41.4906985924147],[-81.2986646183182,41.4906989733484],[-81.2986647416098,41.4906985847078],[-81.2993343448304,41.4885865120787],[-81.2998892343195,41.4885386048921]]]},"properties":{"source_county":"Geauga","jurisdiction":"Russell Township","parcel_id":"26-137300","owner_name":"PATTI WILLIAM A TRUSTEE","property_address":"9600 FAIRMOUNT RD","property_city":"NOVELTY","property_zip":"44072"}},{"type":"Feature","geometry":{"type":"Polygon","coordinates":[[[-81.2971514027642,41.4932506449334],[-81.2972903921578,41.4932370018929],[-81.297620732316,41.4936865839877],[-81.2976142227535,41.4937855383887],[-81.2975362679756,41.493886383416],[-81.2971404136307,41.4942208415519],[-81.2971402639954,41.4942209678714],[-81.2971438174595,41.4939083757166],[-81.2971474329069,41.4935895301895],[-81.2971512767831,41.4932506571344],[-81.2971514027642,41.4932506449334]]]},"properties":{"source_county":"Geauga","jurisdiction":"Russell Township","parcel_id":"26-152540","owner_name":"GLASSER DAVID A & JAN S","property_address":" HEATH RD","property_city":"NOVELTY","property_zip":"44072"}},{"type":"Feature","geometry":{"type":"Polygon","coordinates":[[[-81.2971146063761,41.4965218125267],[-81.3004063879557,41.4964600838642],[-81.3012768713367,41.4982430828086],[-81.3016834782635,41.4985444687057],[-81.3018759272863,41.4986868526345],[-81.298197669137,41.4987110464652],[-81.2970895329969,41.4987183125415],[-81.2970903645008,41.4986445926839],[-81.2970938145673,41.4983387725404],[-81.2970938151289,41.4983387419292],[-81.2971044471623,41.4973962467249],[-81.2971106386085,41.496847374557],[-81.2971143104231,41.4965218184627],[-81.2971146063761,41.4965218125267]]]},"properties":{"source_county":"Geauga","jurisdiction":"Russell Township","parcel_id":"26-153400","owner_name":"RODE JOHN A III","property_address":"13570 HEATH RD","property_city":"NOVELTY","property_zip":"44072"}},{"type":"Feature","geometry":{"type":"Polygon","coordinates":[[[-81.2980759683499,41.4906992477153],[-81.2985687447298,41.4892883783995],[-81.2987127736809,41.4892970751782],[-81.2987957161918,41.4886330118511],[-81.2993343436329,41.4885865120664],[-81.2986647416098,41.4906985847078],[-81.2986646183182,41.4906989733484],[-81.2980758861777,41.4906994836959],[-81.2980759683499,41.4906992477153]]]},"properties":{"source_county":"Geauga","jurisdiction":"Russell Township","parcel_id":"26-158700","owner_name":"SANDERS MATTHEW J","property_address":"9624 FAIRMOUNT RD","property_city":"NOVELTY","property_zip":"44072"}},{"type":"Feature","geometry":{"type":"Polygon","coordinates":[[[-81.2987957161918,41.4886330118511],[-81.2987127736809,41.4892970751782],[-81.2985687447298,41.4892883783995],[-81.2987957161918,41.4886330118511]]]},"properties":{"source_county":"Geauga","jurisdiction":"Russell Township","parcel_id":"26-158900","owner_name":"SANDERS ELLEN M TRUSTEE","property_address":" FAIRMOUNT RD","property_city":"NOVELTY","property_zip":"44072"}},{"type":"Feature","geometry":{"type":"Polygon","coordinates":[[[-81.3003186271397,41.4730842419697],[-81.3011724415847,41.4730778674687],[-81.3011739520659,41.4742285442997],[-81.3011754385909,41.4753604233195],[-81.3011768451317,41.476432089697],[-81.3011780562135,41.4773545462143],[-81.3011796979944,41.4786042380047],[-81.3011797612824,41.478652461624],[-81.3008968909061,41.4786535613691],[-81.3003494875437,41.4786556882454],[-81.2998020829485,41.4786578125256],[-81.2992546795317,41.4786599333338],[-81.2978864365419,41.4786651979887],[-81.2975577279394,41.4786664618748],[-81.2972888087151,41.4786674822594],[-81.2972884219341,41.4785829243404],[-81.2972781389735,41.4763288892047],[-81.2972764737034,41.4759639362186],[-81.297271559253,41.4748865855202],[-81.2972634455194,41.47310784474],[-81.2978434310854,41.4731033700851],[-81.3003186271397,41.4730842419697]]]},"properties":{"source_county":"Geauga","jurisdiction":"Russell Township","parcel_id":"26-182400","owner_name":"STAY S FINLEY TRUSTEE","property_address":"9619 PEKIN RD","property_city":"NOVELTY","property_zip":"44072"}},{"type":"Feature","geometry":{"type":"Polygon","coordinates":[[[-81.2971538187018,41.4930374013892],[-81.2971571693861,41.4927355950357],[-81.2971612526628,41.4923682576993],[-81.2971625129077,41.4922548344988],[-81.2971627892944,41.492255045381],[-81.2978491340044,41.49277935172],[-81.2974647551359,41.4930045252326],[-81.2973911307259,41.4929433553256],[-81.2971538187018,41.4930374013892]]]},"properties":{"source_county":"Geauga","jurisdiction":"Russell Township","parcel_id":"26-190250","owner_name":"DAVET INVESTMENTS LLC","property_address":"13757 SPERRY RD","property_city":"NOVELTY","property_zip":"44072"}},{"type":"Feature","geometry":{"type":"Polygon","coordinates":[[[-81.2992708146094,41.4806643156426],[-81.2992546795317,41.4786599333338],[-81.2998020829485,41.4786578125256],[-81.2998123688048,41.4799343556956],[-81.3003597793938,41.4799318314953],[-81.3003591147464,41.479849416689],[-81.3009065258026,41.4798468899203],[-81.3009130600296,41.4806562719488],[-81.2992708146094,41.4806643156426]]]},"properties":{"source_county":"Geauga","jurisdiction":"Russell Township","parcel_id":"26-191400","owner_name":"WEBER LILY A & DEAN A CO TRUSTEES","property_address":"9624 PEKIN RD","property_city":"NOVELTY","property_zip":"44072"}},{"type":"Feature","geometry":{"type":"Polygon","coordinates":[[[-81.298497627615,41.4990408075154],[-81.2996639301598,41.4990331464876],[-81.2996368229272,41.4999048470983],[-81.2996367066494,41.4999085811683],[-81.2984703872821,41.4999162446089],[-81.2984705441027,41.4999112169408],[-81.2984891690906,41.4993126277367],[-81.298497627615,41.4990408075154]]]},"properties":{"source_county":"Geauga","jurisdiction":"Russell Township","parcel_id":"26-197590","owner_name":"FLANIGAN TIMOTHY M & CYNTHIA M","property_address":" HEATH RD","property_city":"NOVELTY","property_zip":"44072"}},{"type":"Feature","geometry":{"type":"Polygon","coordinates":[[[-81.2970827238868,41.4993218518722],[-81.2984891690906,41.4993126277367],[-81.2984705441027,41.4999112169408],[-81.2984703872821,41.4999162446089],[-81.2971123276993,41.4999251527393],[-81.2970759158489,41.4999253911034],[-81.2970762182826,41.4998979397899],[-81.2970827238868,41.4993218518722]]]},"properties":{"source_county":"Geauga","jurisdiction":"Russell Township","parcel_id":"26-197600","owner_name":"FLANIGAN TIMOTHY M & CYNTHIA M","property_address":"13530 HEATH RD","property_city":"NOVELTY","property_zip":"44072"}},{"type":"Feature","geometry":{"type":"Polygon","coordinates":[[[-81.2996639301598,41.4990331464876],[-81.3004118607915,41.4990282268601],[-81.3003847412393,41.4999006208013],[-81.3003846472857,41.4999036608172],[-81.2996367066494,41.4999085811683],[-81.2996368229272,41.4999048470983],[-81.2996639301598,41.4990331464876]]]},"properties":{"source_county":"Geauga","jurisdiction":"Russell Township","parcel_id":"26-197610","owner_name":"FLANIGAN TIMOTHY M & CYNTHIA M","property_address":" HEATH RD","property_city":"NOVELTY","property_zip":"44072"}},{"type":"Feature","geometry":{"type":"Polygon","coordinates":[[[-81.2970827238868,41.4993218518722],[-81.2970895329969,41.4987183125415],[-81.298197669137,41.4987110464652],[-81.298187343414,41.4990428440908],[-81.298497627615,41.4990408075154],[-81.2984891690906,41.4993126277367],[-81.2970827238868,41.4993218518722]]]},"properties":{"source_county":"Geauga","jurisdiction":"Russell Township","parcel_id":"26-197620","owner_name":"FLANIGAN TIMOTHY M & CYNTHIA M","property_address":" HEATH RD","property_city":"NOVELTY","property_zip":"44072"}},{"type":"Feature","geometry":{"type":"Polygon","coordinates":[[[-81.298197669137,41.4987110464652],[-81.3018759272863,41.4986868526345],[-81.3023203419326,41.4990156524918],[-81.3011597913108,41.4990233024106],[-81.3004118607915,41.4990282268601],[-81.2996639301598,41.4990331464876],[-81.298497627615,41.4990408075154],[-81.298187343414,41.4990428440908],[-81.298197669137,41.4987110464652]]]},"properties":{"source_county":"Geauga","jurisdiction":"Russell Township","parcel_id":"26-197800","owner_name":"SZUCS PAUL J TOD","property_address":" SPERRY RD","property_city":"NOVELTY","property_zip":"44072"}},{"type":"Feature","geometry":{"type":"Polygon","coordinates":[[[-81.297177986222,41.4895719698596],[-81.2973349855655,41.4894100593797],[-81.2978581346353,41.4902679195655],[-81.2971732427625,41.4903944075922],[-81.2971756892703,41.4899702988279],[-81.297177986222,41.4895719698596]]]},"properties":{"source_county":"Geauga","jurisdiction":"Russell Township","parcel_id":"26-202900","owner_name":"BECK BRANDON R","property_address":"9674 FAIRMOUNT RD","property_city":"NOVELTY","property_zip":"44072"}},{"type":"Feature","geometry":{"type":"Polygon","coordinates":[[[-81.2985538119044,41.4954618685152],[-81.2988545571391,41.4954603573035],[-81.2999913189841,41.4956098682433],[-81.3001925631706,41.4960220939386],[-81.2985650085063,41.4960526276708],[-81.2985538119044,41.4954618685152]]]},"properties":{"source_county":"Geauga","jurisdiction":"Russell Township","parcel_id":"26-211600","owner_name":"WILLIAMS KELLY C","property_address":"13655 SPERRY RD","property_city":"NOVELTY","property_zip":"44072"}},{"type":"Feature","geometry":{"type":"Polygon","coordinates":[[[-81.2990617304587,41.4937056377776],[-81.298137000865,41.4929992541136],[-81.2980853410985,41.492959791017],[-81.2989166021193,41.4930555063885],[-81.299505643123,41.4928216360259],[-81.2997807322071,41.4926461655101],[-81.301232376372,41.4925997831365],[-81.3012413570604,41.4931731100078],[-81.301158041812,41.4933600295796],[-81.3012312796416,41.4935706987892],[-81.3011523638952,41.4937182002394],[-81.3010336109198,41.4937189259763],[-81.3006011863665,41.4935361560573],[-81.2997772412003,41.4936113311942],[-81.2990740535019,41.493730883057],[-81.2990617304587,41.4937056377776]]]},"properties":{"source_county":"Geauga","jurisdiction":"Russell Township","parcel_id":"26-214057","owner_name":"LEMMINGS RACHEL & TRAVIS","property_address":"13730 SPERRY RD","property_city":"NOVELTY","property_zip":"44072"}},{"type":"Feature","geometry":{"type":"Polygon","coordinates":[[[-81.2984354668615,41.4885811942991],[-81.2984479560732,41.4886629912107],[-81.2983373893119,41.4886759347208],[-81.298228559182,41.4886955039628],[-81.2981221667637,41.4887215728725],[-81.298018897436,41.4887539735149],[-81.2979194164617,41.4887924971659],[-81.2973349855655,41.4894100593797],[-81.297177986222,41.4895719698596],[-81.2971796048351,41.4892989577251],[-81.2971805803217,41.4891981808338],[-81.2971807489292,41.4891812846415],[-81.2975371164635,41.4889099671046],[-81.29761959719,41.4888517417168],[-81.2977076641255,41.4887983418752],[-81.2978008191606,41.4887500696034],[-81.2978985354118,41.4887071979235],[-81.2980002602012,41.4886699693119],[-81.2981054181825,41.4886385943281],[-81.2982134145942,41.4886132504243],[-81.2983236386238,41.4885940809415],[-81.2984354668615,41.4885811942991]]]},"properties":{"source_county":"Geauga","jurisdiction":"Russell Township","parcel_id":"26-702500","owner_name":"GEAUGA COUNTY BOARD OF COMMISSIONERS","property_address":" FAIRMOUNT RD","property_city":"NOVELTY","property_zip":"44072"}}]}