{"type":"FeatureCollection","features":[{"type":"Feature","geometry":{"type":"Polygon","coordinates":[[[-81.3796130248019,41.3493311135972],[-81.3799952663303,41.3491518442585],[-81.3800923103467,41.3492679661929],[-81.379698198437,41.3494549879508],[-81.3796130070113,41.3493522046727],[-81.379600423808,41.34933702334],[-81.3796130248019,41.3493311135972]]]},"properties":{"source_county":"Geauga","jurisdiction":"Bainbridge Township","parcel_id":"02-007900","owner_name":"MISLOSKY FLORENCE E TOD","property_address":" AURORA RD","property_city":"AURORA","property_zip":"44202"}},{"type":"Feature","geometry":{"type":"Polygon","coordinates":[[[-81.3787912883569,41.3482206794743],[-81.3787163050724,41.3481374619768],[-81.3796033913539,41.3481469934682],[-81.3796020990527,41.3482293837244],[-81.3795997603244,41.3483783398422],[-81.3791254029814,41.3486084618687],[-81.3789613817933,41.3484130851002],[-81.3787912883569,41.3482206794743]]]},"properties":{"source_county":"Geauga","jurisdiction":"Bainbridge Township","parcel_id":"02-050300","owner_name":"SPEEDWAY LLC","property_address":"7353 AURORA RD","property_city":"AURORA","property_zip":"44202"}},{"type":"Feature","geometry":{"type":"Polygon","coordinates":[[[-81.3791254029814,41.3486084618687],[-81.3795997603244,41.3483783398422],[-81.3795873973746,41.349165873602],[-81.3791254029814,41.3486084618687]]]},"properties":{"source_county":"Geauga","jurisdiction":"Bainbridge Township","parcel_id":"02-050400","owner_name":"SPEEDWAY LLC","property_address":" AURORA RD","property_city":"AURORA","property_zip":"44202"}},{"type":"Feature","geometry":{"type":"Polygon","coordinates":[[[-81.3810412734849,41.3495963639161],[-81.3811794056183,41.3495304993309],[-81.3817143389272,41.3498644067474],[-81.3816016865207,41.3499627156291],[-81.3810412734849,41.3495963639161]]]},"properties":{"source_county":"Geauga","jurisdiction":"Bainbridge Township","parcel_id":"02-083448","owner_name":"BAINBRIDGE PROPERTIES LLC","property_address":" AURORA RD","property_city":"AURORA","property_zip":"44202"}},{"type":"Feature","geometry":{"type":"Polygon","coordinates":[[[-81.3810412734849,41.3495963639161],[-81.3807496145039,41.3492479556086],[-81.3804103504208,41.349408951847],[-81.3803144079306,41.3492923122384],[-81.379867837167,41.3495042272998],[-81.3797753747801,41.3495481029661],[-81.379698198437,41.3494549879508],[-81.3800923103467,41.3492679661929],[-81.3807295117769,41.3489655828229],[-81.3811828897097,41.3495080774722],[-81.3812018509039,41.3495199135913],[-81.3811794056183,41.3495304993309],[-81.3810412734849,41.3495963639161]]]},"properties":{"source_county":"Geauga","jurisdiction":"Bainbridge Township","parcel_id":"02-257200","owner_name":"MISLOSKY FLORENCE E TOD","property_address":"7337 AURORA RD","property_city":"AURORA","property_zip":"44202"}},{"type":"Feature","geometry":{"type":"Polygon","coordinates":[[[-81.379867837167,41.3495042272998],[-81.3803144079306,41.3492923122384],[-81.3804103504208,41.349408951847],[-81.3799653128751,41.3496201400805],[-81.3799070577852,41.3495515477699],[-81.379867837167,41.3495042272998]]]},"properties":{"source_county":"Geauga","jurisdiction":"Bainbridge Township","parcel_id":"02-257300","owner_name":"MISLOSKY FLORENCE E TOD","property_address":" AURORA RD","property_city":"AURORA","property_zip":"44202"}},{"type":"Feature","geometry":{"type":"Polygon","coordinates":[[[-81.3796131544501,41.3491721708957],[-81.3805308434828,41.3487278591417],[-81.3807295117769,41.3489655828229],[-81.3800923103467,41.3492679661929],[-81.3799952663303,41.3491518442585],[-81.3796130248019,41.3493311135972],[-81.379600423808,41.34933702334],[-81.3795984981003,41.3491792665467],[-81.3796131544501,41.3491721708957]]]},"properties":{"source_county":"Geauga","jurisdiction":"Bainbridge Township","parcel_id":"02-257400","owner_name":"MISLOSKY FLORENCE E TOD","property_address":"7339 AURORA RD","property_city":"AURORA","property_zip":"44202"}},{"type":"Feature","geometry":{"type":"Polygon","coordinates":[[[-81.3796020990527,41.3482293837244],[-81.3796033913539,41.3481469934682],[-81.3796156357551,41.3481471264148],[-81.3796159177357,41.3481471291447],[-81.3798121117055,41.348149237246],[-81.3805411892303,41.3481570654333],[-81.3805411884328,41.348157112253],[-81.3805396963769,41.3482394420416],[-81.3805308434828,41.3487278591417],[-81.3796131544501,41.3491721708957],[-81.3795984981003,41.3491792665467],[-81.3795873973746,41.349165873602],[-81.3795997603244,41.3483783398422],[-81.3796020990527,41.3482293837244]]]},"properties":{"source_county":"Geauga","jurisdiction":"Bainbridge Township","parcel_id":"02-419537","owner_name":"SPEEDWAY LLC","property_address":" AURORA RD","property_city":"AURORA","property_zip":"44202"}},{"type":"Feature","geometry":{"type":"Polygon","coordinates":[[[-81.3877252773542,41.3483134444023],[-81.3877252609067,41.3482310992109],[-81.3884543547261,41.3482385886195],[-81.3884543720871,41.3483209338106],[-81.3884546877899,41.3498363772879],[-81.3882104387134,41.3498364058699],[-81.3872654180564,41.350696192623],[-81.3872310497191,41.3506747592609],[-81.3869146708849,41.3504774572599],[-81.3876192023436,41.3498364709426],[-81.3877255926613,41.349836461466],[-81.3877252773542,41.3483134444023]]]},"properties":{"source_county":"Geauga","jurisdiction":"Bainbridge Township","parcel_id":"02-421195","owner_name":"MARKETPLACE ASSOCIATES LLC","property_address":"7305 MARKET PLACE DR","property_city":"AURORA","property_zip":"44202"}},{"type":"Feature","geometry":{"type":"Polygon","coordinates":[[[-81.3811828897097,41.3495080774722],[-81.3807295117769,41.3489655828229],[-81.3805308434828,41.3487278591417],[-81.3805396963769,41.3482394420416],[-81.3805411884328,41.348157112253],[-81.3805411892303,41.3481570654333],[-81.3815372878428,41.3481673573536],[-81.3841337619004,41.34819414416],[-81.3877252609067,41.3482310992109],[-81.3877252773542,41.3483134444023],[-81.3877255926613,41.349836461466],[-81.3876192023436,41.3498364709426],[-81.3869146708849,41.3504774572599],[-81.3862624326275,41.350070696922],[-81.3864368555472,41.3499118862334],[-81.3855307449505,41.349346787613],[-81.3836412165413,41.3510671006542],[-81.3834807976129,41.350966974371],[-81.3828216121278,41.3505555510398],[-81.3817143389272,41.3498644067474],[-81.3811794056183,41.3495304993309],[-81.3812018509039,41.3495199135913],[-81.3811828897097,41.3495080774722]]]},"properties":{"source_county":"Geauga","jurisdiction":"Bainbridge Township","parcel_id":"02-421196","owner_name":"MARKETPLACE ASSOCIATES LLC","property_address":"7355 MARKET PLACE DR","property_city":"AURORA","property_zip":"44202"}},{"type":"Feature","geometry":{"type":"Polygon","coordinates":[[[-81.3799653610685,41.3496201171332],[-81.3804103504208,41.349408951847],[-81.3807496145039,41.3492479556086],[-81.3810412734849,41.3495963639161],[-81.3802912421699,41.3499539845024],[-81.3802912186102,41.3499539644628],[-81.3802352110171,41.3499017008166],[-81.3801804241474,41.3498487078195],[-81.3801268720622,41.3497950018187],[-81.3800745723763,41.3497406009969],[-81.3800235403758,41.3496855199123],[-81.3799653610685,41.3496201171332]]]},"properties":{"source_county":"Geauga","jurisdiction":"Bainbridge Township","parcel_id":"02-037000","owner_name":"BALDERAS MANUEL & ERNESTINA & FELIPE & JUANA","property_address":"7331 AURORA RD","property_city":"AURORA","property_zip":"44202"}},{"type":"Feature","geometry":{"type":"Polygon","coordinates":[[[-81.3796130248035,41.3493311136],[-81.3799952663321,41.3491518442614],[-81.3800923103483,41.3492679661958],[-81.3796981984387,41.3494549879536],[-81.379613007013,41.3493522046756],[-81.3796004238097,41.3493370233429],[-81.3796130248035,41.3493311136]]]},"properties":{"source_county":"Geauga","jurisdiction":"Bainbridge Township","parcel_id":"02-007900","owner_name":"MISLOSKY FLORENCE E TOD","property_address":" AURORA RD","property_city":"AURORA","property_zip":"44202"}},{"type":"Feature","geometry":{"type":"Polygon","coordinates":[[[-81.3787912883586,41.3482206794771],[-81.3787163050741,41.3481374619796],[-81.3796033913556,41.348146993471],[-81.3796020990544,41.3482293837272],[-81.3795997603261,41.3483783398451],[-81.3791254029831,41.3486084618715],[-81.3789613817951,41.348413085103],[-81.3787912883586,41.3482206794771]]]},"properties":{"source_county":"Geauga","jurisdiction":"Bainbridge Township","parcel_id":"02-050300","owner_name":"SPEEDWAY LLC","property_address":"7353 AURORA RD","property_city":"AURORA","property_zip":"44202"}},{"type":"Feature","geometry":{"type":"Polygon","coordinates":[[[-81.3791254029831,41.3486084618715],[-81.3795997603261,41.3483783398451],[-81.3795873973762,41.3491658736048],[-81.3791254029831,41.3486084618715]]]},"properties":{"source_county":"Geauga","jurisdiction":"Bainbridge Township","parcel_id":"02-050400","owner_name":"SPEEDWAY LLC","property_address":" AURORA RD","property_city":"AURORA","property_zip":"44202"}},{"type":"Feature","geometry":{"type":"Polygon","coordinates":[[[-81.3810412734866,41.349596363919],[-81.38117940562,41.3495304993338],[-81.3817143389288,41.3498644067503],[-81.3816016865224,41.349962715632],[-81.3810412734866,41.349596363919]]]},"properties":{"source_county":"Geauga","jurisdiction":"Bainbridge Township","parcel_id":"02-083448","owner_name":"BAINBRIDGE PROPERTIES LLC","property_address":" AURORA RD","property_city":"AURORA","property_zip":"44202"}},{"type":"Feature","geometry":{"type":"Polygon","coordinates":[[[-81.3810412734866,41.349596363919],[-81.3807496145056,41.3492479556115],[-81.3804103504225,41.3494089518498],[-81.3803144079322,41.3492923122413],[-81.3798678371687,41.3495042273027],[-81.3797753747817,41.349548102969],[-81.3796981984387,41.3494549879536],[-81.3800923103483,41.3492679661958],[-81.3807295117785,41.3489655828257],[-81.3811828897114,41.3495080774751],[-81.3812018509056,41.3495199135942],[-81.38117940562,41.3495304993338],[-81.3810412734866,41.349596363919]]]},"properties":{"source_county":"Geauga","jurisdiction":"Bainbridge Township","parcel_id":"02-257200","owner_name":"MISLOSKY FLORENCE E TOD","property_address":"7337 AURORA RD","property_city":"AURORA","property_zip":"44202"}},{"type":"Feature","geometry":{"type":"Polygon","coordinates":[[[-81.3798678371687,41.3495042273027],[-81.3803144079322,41.3492923122413],[-81.3804103504225,41.3494089518498],[-81.3799653128768,41.3496201400833],[-81.3799070577869,41.3495515477727],[-81.3798678371687,41.3495042273027]]]},"properties":{"source_county":"Geauga","jurisdiction":"Bainbridge Township","parcel_id":"02-257300","owner_name":"MISLOSKY FLORENCE E TOD","property_address":" AURORA RD","property_city":"AURORA","property_zip":"44202"}},{"type":"Feature","geometry":{"type":"Polygon","coordinates":[[[-81.3796131544518,41.3491721708985],[-81.3805308434844,41.3487278591446],[-81.3807295117785,41.3489655828257],[-81.3800923103483,41.3492679661958],[-81.3799952663321,41.3491518442614],[-81.3796130248035,41.3493311136],[-81.3796004238097,41.3493370233429],[-81.379598498102,41.3491792665495],[-81.3796131544518,41.3491721708985]]]},"properties":{"source_county":"Geauga","jurisdiction":"Bainbridge Township","parcel_id":"02-257400","owner_name":"MISLOSKY FLORENCE E TOD","property_address":"7339 AURORA RD","property_city":"AURORA","property_zip":"44202"}},{"type":"Feature","geometry":{"type":"Polygon","coordinates":[[[-81.3796020990544,41.3482293837272],[-81.3796033913556,41.348146993471],[-81.3796156357568,41.3481471264177],[-81.3796159177374,41.3481471291475],[-81.3798121117071,41.3481492372488],[-81.3805411892319,41.3481570654362],[-81.3805411884344,41.3481571122559],[-81.3805396963786,41.3482394420445],[-81.3805308434844,41.3487278591446],[-81.3796131544518,41.3491721708985],[-81.379598498102,41.3491792665495],[-81.3795873973762,41.3491658736048],[-81.3795997603261,41.3483783398451],[-81.3796020990544,41.3482293837272]]]},"properties":{"source_county":"Geauga","jurisdiction":"Bainbridge Township","parcel_id":"02-419537","owner_name":"SPEEDWAY LLC","property_address":" AURORA RD","property_city":"AURORA","property_zip":"44202"}},{"type":"Feature","geometry":{"type":"Polygon","coordinates":[[[-81.3877252773559,41.3483134444051],[-81.3877252609084,41.3482310992137],[-81.3884543547277,41.3482385886224],[-81.3884543720888,41.3483209338135],[-81.3884546877917,41.3498363772907],[-81.3882104387151,41.3498364058727],[-81.3872654180581,41.3506961926259],[-81.3872310497208,41.3506747592637],[-81.3869146708867,41.3504774572627],[-81.3876192023453,41.3498364709455],[-81.387725592663,41.3498364614689],[-81.3877252773559,41.3483134444051]]]},"properties":{"source_county":"Geauga","jurisdiction":"Bainbridge Township","parcel_id":"02-421195","owner_name":"MARKETPLACE ASSOCIATES LLC","property_address":"7305 MARKET PLACE DR","property_city":"AURORA","property_zip":"44202"}},{"type":"Feature","geometry":{"type":"Polygon","coordinates":[[[-81.3811828897114,41.3495080774751],[-81.3807295117785,41.3489655828257],[-81.3805308434844,41.3487278591446],[-81.3805396963786,41.3482394420445],[-81.3805411884344,41.3481571122559],[-81.3805411892319,41.3481570654362],[-81.3815372878446,41.3481673573564],[-81.3841337619021,41.3481941441628],[-81.3877252609084,41.3482310992137],[-81.3877252773559,41.3483134444051],[-81.387725592663,41.3498364614689],[-81.3876192023453,41.3498364709455],[-81.3869146708867,41.3504774572627],[-81.3862624326291,41.3500706969249],[-81.3864368555489,41.3499118862362],[-81.3855307449522,41.3493467876159],[-81.383641216543,41.351067100657],[-81.3834807976146,41.3509669743738],[-81.3828216121294,41.3505555510426],[-81.3817143389288,41.3498644067503],[-81.38117940562,41.3495304993338],[-81.3812018509056,41.3495199135942],[-81.3811828897114,41.3495080774751]]]},"properties":{"source_county":"Geauga","jurisdiction":"Bainbridge Township","parcel_id":"02-421196","owner_name":"MARKETPLACE ASSOCIATES LLC","property_address":"7355 MARKET PLACE DR","property_city":"AURORA","property_zip":"44202"}},{"type":"Feature","geometry":{"type":"Polygon","coordinates":[[[-81.3799653610702,41.349620117136],[-81.3804103504225,41.3494089518498],[-81.3807496145056,41.3492479556115],[-81.3810412734866,41.349596363919],[-81.3802912421717,41.3499539845052],[-81.3802912186119,41.3499539644656],[-81.3802352110187,41.3499017008194],[-81.3801804241491,41.3498487078223],[-81.3801268720639,41.3497950018215],[-81.380074572378,41.3497406009998],[-81.3800235403775,41.3496855199151],[-81.3799653610702,41.349620117136]]]},"properties":{"source_county":"Geauga","jurisdiction":"Bainbridge Township","parcel_id":"02-037000","owner_name":"BALDERAS MANUEL & ERNESTINA & FELIPE & JUANA","property_address":"7331 AURORA RD","property_city":"AURORA","property_zip":"44202"}}]}