{"type":"FeatureCollection","features":[{"type":"Feature","geometry":{"type":"Polygon","coordinates":[[[-81.4618136579542,41.50099300182695],[-81.46274483630636,41.50100257963701],[-81.46274969080217,41.50099736754851],[-81.46275388234126,41.500991838576404],[-81.46275737319446,41.500986040488584],[-81.4627601373106,41.50098002710804],[-81.46276214774021,41.50097384485708],[-81.46276338561866,41.500967548231486],[-81.46276387430218,41.500961193072705],[-81.46276812423179,41.500563672144054],[-81.46181963085253,41.500553920688596],[-81.46181387714314,41.50055386081009],[-81.4618136579542,41.50099300182695]]]},"properties":{"source_county":"Cuyahoga","jurisdiction":"PEPPER PIKE","parcel_id":"87109013","owner_name":"STONE, ROBERT TRS","property_address":"30600  LANDER RD, PEPPER PIKE, OH, 44124","property_city":"PEPPER PIKE","property_zip":"44124"}},{"type":"Feature","geometry":{"type":"Polygon","coordinates":[[[-81.45421252814333,41.50094134379393],[-81.4547600863433,41.50094731008292],[-81.4547812165154,41.49985140162954],[-81.45478138539869,41.49984261889882],[-81.45472968735407,41.49985648395987],[-81.45426651060369,41.499980708261695],[-81.45423087892796,41.499990264019104],[-81.45423071363794,41.49999878770235],[-81.45421252814333,41.50094134379393]]]},"properties":{"source_county":"Cuyahoga","jurisdiction":"PEPPER PIKE","parcel_id":"87111050","owner_name":"HERSCHMAN, SHEILA E.","property_address":"0  CEDAR RD, PEPPER PIKE, OH, 44124","property_city":"PEPPER PIKE","property_zip":"44124"}},{"type":"Feature","geometry":{"type":"Polygon","coordinates":[[[-81.47092996717164,41.50012590812259],[-81.47080475369914,41.5001250583799],[-81.47080194556557,41.50036093454858],[-81.47084304887971,41.50036121375836],[-81.47092712220714,41.500363171590685],[-81.47092996717164,41.50012590812259]]]},"properties":{"source_county":"Cuyahoga","jurisdiction":"PEPPER PIKE","parcel_id":"87105117","owner_name":"CBT PEPPER PIKE 69 LLC","property_address":"29150  ADDISON CT, PEPPER PIKE, OH, 44124","property_city":"PEPPER PIKE","property_zip":"44124"}},{"type":"Feature","geometry":{"type":"Polygon","coordinates":[[[-81.47035526907032,41.50075658367299],[-81.47048047805124,41.50075764264524],[-81.4704844072823,41.50049600801987],[-81.47044702479006,41.5004957563952],[-81.47040292739109,41.50049384902639],[-81.47035928364132,41.5004887458895],[-81.47035526907032,41.50075658367299]]]},"properties":{"source_county":"Cuyahoga","jurisdiction":"PEPPER PIKE","parcel_id":"87107092","owner_name":"CBT PEPPER PIKE 55 LLC","property_address":"29205  ADDISON CT, PEPPER PIKE, OH, 44124","property_city":"PEPPER PIKE","property_zip":"44124"}},{"type":"Feature","geometry":{"type":"Polygon","coordinates":[[[-81.4684722008088,41.49993770296269],[-81.46847171392193,41.4999822886655],[-81.46847025326127,41.50011575763252],[-81.46857046751774,41.500116377951535],[-81.46868707692646,41.50011709851725],[-81.468746923589,41.50011746855568],[-81.46874838335134,41.49998399757382],[-81.46874887023822,41.499939413890566],[-81.4684722008088,41.49993770296269]]]},"properties":{"source_county":"Cuyahoga","jurisdiction":"PEPPER PIKE","parcel_id":"87107084","owner_name":"DINKEL, ERIC & DINKEL, COURTNEY","property_address":"2530  EDGEWOOD TRACE, PEPPER PIKE, OH, 44124","property_city":"PEPPER PIKE","property_zip":"44124"}},{"type":"Feature","geometry":{"type":"Polygon","coordinates":[[[-81.47360187662686,41.500854923368905],[-81.47372789678649,41.5008560381811],[-81.47373079115835,41.50062032057625],[-81.47360593521532,41.500596630222596],[-81.47360187662686,41.500854923368905]]]},"properties":{"source_county":"Cuyahoga","jurisdiction":"PEPPER PIKE","parcel_id":"87105071","owner_name":" CBT PEPPER PIKE 18 LLC","property_address":"28915  ADDISON CT, PEPPER PIKE, OH, 44124","property_city":"PEPPER PIKE","property_zip":"44124"}},{"type":"Feature","geometry":{"type":"Polygon","coordinates":[[[-81.47433993965082,41.500891207568685],[-81.47448617370097,41.50089249999659],[-81.47448965826597,41.50066966109898],[-81.4743441716141,41.50066837203061],[-81.47434342331748,41.500668365975486],[-81.47433993965082,41.500891207568685]]]},"properties":{"source_county":"Cuyahoga","jurisdiction":"PEPPER PIKE","parcel_id":"87105066","owner_name":"CBT PEPPER PIKE 13 LLC","property_address":"28825  ADDISON CT, PEPPER PIKE, OH, 44124","property_city":"PEPPER PIKE","property_zip":"44124"}},{"type":"Feature","geometry":{"type":"Polygon","coordinates":[[[-81.46524632097913,41.500025924346666],[-81.46523974531125,41.50053553528217],[-81.46609604818616,41.500541772744015],[-81.46610261756584,41.5000321618576],[-81.46524632097913,41.500025924346666]]]},"properties":{"source_county":"Cuyahoga","jurisdiction":"PEPPER PIKE","parcel_id":"87107029","owner_name":"TANNOUS, TOUFIC & AZZI, MARGARET ANN","property_address":"2424  SUFFOLK LN, PEPPER PIKE, OH, 44124","property_city":"PEPPER PIKE","property_zip":"44124"}},{"type":"Feature","geometry":{"type":"Polygon","coordinates":[[[-81.46924211539779,41.50001933496176],[-81.46924072750068,41.50014620707965],[-81.46949998578324,41.50014780900893],[-81.46950137188374,41.50002093554857],[-81.46924211539779,41.50001933496176]]]},"properties":{"source_county":"Cuyahoga","jurisdiction":"PEPPER PIKE","parcel_id":"87107070","owner_name":"GRISCHKAN, DAVID M.-TRS","property_address":"2422  EDGEWOOD(PRIVATE) TRL, PEPPER PIKE, OH, 44124","property_city":"PEPPER PIKE","property_zip":"44124"}},{"type":"Feature","geometry":{"type":"Polygon","coordinates":[[[-81.47182217391183,41.500510077470125],[-81.47194656991743,41.500521312440654],[-81.47195207120023,41.500494123526074],[-81.4719930226991,41.50029171538256],[-81.4718692267681,41.500277561785445],[-81.47182217391183,41.500510077470125]]]},"properties":{"source_county":"Cuyahoga","jurisdiction":"PEPPER PIKE","parcel_id":"87105124","owner_name":"CBT PEPPER PIKE 76 LLC","property_address":"29040  ADDISON CT, PEPPER PIKE, OH, 44124","property_city":"PEPPER PIKE","property_zip":"44124"}},{"type":"Feature","geometry":{"type":"Polygon","coordinates":[[[-81.47064973502383,41.500497132930114],[-81.47064579950455,41.5007599079308],[-81.47077100938381,41.50076096757579],[-81.47077494849633,41.50049798064956],[-81.47064973502383,41.500497132930114]]]},"properties":{"source_county":"Cuyahoga","jurisdiction":"PEPPER PIKE","parcel_id":"87105115","owner_name":"CBT PEPPER PIKE 53 LLC","property_address":"29175  ADDISON CT, PEPPER PIKE, OH, 44124","property_city":"PEPPER PIKE","property_zip":"44124"}},{"type":"Feature","geometry":{"type":"Polygon","coordinates":[[[-81.45924380789504,41.50099397669685],[-81.45973068220265,41.50099899636826],[-81.45974340953357,41.500065947747814],[-81.45974348858532,41.5000601428491],[-81.45925662415922,41.50005512243211],[-81.45925432716702,41.50025091033231],[-81.45924388784512,41.50098817053577],[-81.45924380789504,41.50099397669685]]]},"properties":{"source_county":"Cuyahoga","jurisdiction":"PEPPER PIKE","parcel_id":"87109001","owner_name":"KRASNEY, BRIAN & JANA","property_address":"31000  CEDAR RD, PEPPER PIKE, OH, 44124","property_city":"PEPPER PIKE","property_zip":"44124"}},{"type":"Feature","geometry":{"type":"Polygon","coordinates":[[[-81.4740328128417,41.50009497559745],[-81.47402931570029,41.50031844149916],[-81.47417554885213,41.50031973528405],[-81.47417904509521,41.500096268713996],[-81.4740328128417,41.50009497559745]]]},"properties":{"source_county":"Cuyahoga","jurisdiction":"PEPPER PIKE","parcel_id":"87105079","owner_name":" CBT PEPPER PIKE 26, LLC ","property_address":"28870  ADDISON CT, PEPPER PIKE, OH, 44124","property_city":"PEPPER PIKE","property_zip":"44124"}},{"type":"Feature","geometry":{"type":"Polygon","coordinates":[[[-81.46905677858163,41.50027519018133],[-81.46905813413939,41.500151199232086],[-81.46878153028699,41.50014950916647],[-81.46878017383094,41.50027349944612],[-81.46905677858163,41.50027519018133]]]},"properties":{"source_county":"Cuyahoga","jurisdiction":"PEPPER PIKE","parcel_id":"87107055","owner_name":"KANARSKY, MAXIM ","property_address":"2415  EDGEWOOD(PRIVATE) TRL, PEPPER PIKE, OH, 44124","property_city":"PEPPER PIKE","property_zip":"44124"}},{"type":"Feature","geometry":{"type":"Polygon","coordinates":[[[-81.47326272308123,41.50010100117054],[-81.47325803387545,41.500424549267194],[-81.47325703944043,41.50049313452],[-81.47329814365288,41.50049349782834],[-81.47329714921786,41.500562128085235],[-81.47328990789836,41.501061786968386],[-81.475225493468,41.50107487200804],[-81.47588827407789,41.501056216961764],[-81.47646150882363,41.50099155869659],[-81.47656090920644,41.50060755367544],[-81.47657264389899,41.500056646319145],[-81.47653613816249,41.50005640074795],[-81.47349439140648,41.50002618673796],[-81.47349328558037,41.50010256071474],[-81.47326272308123,41.50010100117054]],[[-81.4741583613858,41.50088960027549],[-81.47403399232967,41.50088850093804],[-81.47390795150878,41.50088738679925],[-81.47391171005992,41.5006471804428],[-81.47403675015758,41.50065896976977],[-81.47416186212047,41.50066574747124],[-81.4741583613858,41.50088960027549]],[[-81.47385229458872,41.50085713886466],[-81.47360187662686,41.500854923368905],[-81.47360593521532,41.500596630222596],[-81.47373079115835,41.50062032057625],[-81.47385571267837,41.50063872143282],[-81.47385229458872,41.50085713886466]],[[-81.4735858515805,41.50080948382365],[-81.47333543541528,41.50080726765351],[-81.4733391221012,41.50057186339241],[-81.47338530808321,41.50057227581418],[-81.47346429065794,41.50057577904425],[-81.4735272005756,41.500582632107175],[-81.47358924002575,41.50059304289466],[-81.4735858515805,41.50080948382365]],[[-81.47596150384153,41.50082175820255],[-81.47581526979137,41.50082046711884],[-81.47566903574122,41.50081917603511],[-81.47567243676288,41.50060149989218],[-81.47574566742486,41.50057780280369],[-81.47574570066251,41.50057778598391],[-81.47581940743157,41.50055443873891],[-81.47589203352737,41.500535873696975],[-81.47596619933553,41.500521149624774],[-81.47596150384153,41.50082175820255]],[[-81.47600208074292,41.50051555535108],[-81.47606454509621,41.50050788954702],[-81.47612749184479,41.5005029310617],[-81.47622850829681,41.50050065836645],[-81.47625275921622,41.50050094363071],[-81.47624892340995,41.500746610898446],[-81.47612371442902,41.50074550550349],[-81.4759985063464,41.50074440078127],[-81.47600208074292,41.50051555535108]],[[-81.47563263959918,41.500886177124315],[-81.47538222253563,41.500883964993506],[-81.4753857008124,41.50066140460221],[-81.47544877422344,41.500652423507866],[-81.4755112313902,41.50064127131346],[-81.47557454375313,41.50062759345657],[-81.47563692815633,41.50061168730971],[-81.47563263959918,41.500886177124315]],[[-81.47534571769742,41.50089146861088],[-81.4750953015322,41.50088925648024],[-81.47509864955327,41.500675038720544],[-81.47514146415801,41.5006754141381],[-81.47522387650051,41.500674307396324],[-81.47528669389168,41.50067099793553],[-81.4753492480765,41.500665559762396],[-81.47534571769742,41.50089146861088]],[[-81.47505873560856,41.500897551969736],[-81.47480831944333,41.500895339166505],[-81.47481180311,41.500672504315446],[-81.47506221927523,41.500674717126294],[-81.47505873560856,41.500897551969736]],[[-81.47477188826699,41.500895017573356],[-81.47464667928604,41.50089391083529],[-81.47452147210176,41.50089280409724],[-81.47452495756504,41.50066996856465],[-81.47465016474935,41.500671075306556],[-81.47477537283196,41.50067218204838],[-81.47477188826699,41.500895017573356]],[[-81.47448965826597,41.50066966109898],[-81.47448617370097,41.50089249999659],[-81.47433993965082,41.500891207568685],[-81.47419370380403,41.50088991446802],[-81.47419719555553,41.50066674925766],[-81.47424230715248,41.50066746981731],[-81.47434342331748,41.500668365975486],[-81.4743441716141,41.50066837203061],[-81.47448965826597,41.50066966109898]],[[-81.47331257508792,41.50016602363509],[-81.47356298855821,41.50016823915437],[-81.47355861735603,41.50044744242324],[-81.47349631739445,41.500440389526226],[-81.47343355659714,41.50043623569721],[-81.47338736702184,41.50043504081536],[-81.47330837276903,41.50043435052886],[-81.47331257508792,41.50016602363509]],[[-81.473600757326,41.500091153435406],[-81.47372596451032,41.50009226085996],[-81.4738511707963,41.500093368957295],[-81.47384767365489,41.5003168348645],[-81.47372246736892,41.5003157274438],[-81.4735972592863,41.50031462002307],[-81.473600757326,41.500091153435406]],[[-81.47388657968986,41.50009368180807],[-81.4740328128417,41.50009497559745],[-81.47417904509521,41.500096268713996],[-81.47417554885213,41.50031973528405],[-81.47402931570029,41.50031844149916],[-81.47388308254845,41.500317148387005],[-81.47388657968986,41.50009368180807]],[[-81.47421423479985,41.50009657954638],[-81.47433944198414,41.500097686970825],[-81.47446464827014,41.50009879372251],[-81.47446115292537,41.50032226028381],[-81.47433594663937,41.50032115353599],[-81.47421073855676,41.500320046115355],[-81.47421423479985,41.50009657954638]],[[-81.47450111448077,41.50009911599243],[-81.47462632166507,41.50010022274404],[-81.47475108687827,41.500101325458864],[-81.47475152795107,41.500101329495614],[-81.47474803350461,41.50032479604822],[-81.47462282721861,41.500323689300444],[-81.47449761913602,41.50032258255261],[-81.47450111448077,41.50009911599243]],[[-81.47478722879708,41.50010164503759],[-81.47493346194892,41.50010293748119],[-81.47507969420245,41.50010422925202],[-81.4750762006543,41.500327695794596],[-81.47492996750246,41.50032640402824],[-81.47478373435062,41.50032511158905],[-81.47478722879708,41.50010164503759]],[[-81.47568822465401,41.50012160827642],[-81.47581343273663,41.50012271435488],[-81.47593863812429,41.500123819087705],[-81.47593454539985,41.50038584341904],[-81.47587129322407,41.50039756955096],[-81.47580891241411,41.500411690154934],[-81.47574536289598,41.5004288100712],[-81.47568309886701,41.500448414610126],[-81.47568822465401,41.50012160827642]],[[-81.47597465966888,41.50012416019584],[-81.47609986595485,41.50012526492864],[-81.47622507403747,41.500126370334186],[-81.47622129752003,41.50036335660917],[-81.47615863463908,41.5003640892825],[-81.47609609392897,41.50036712156764],[-81.47603316155343,41.50037251267018],[-81.47597066036923,41.50038022827708],[-81.47597465966888,41.50012416019584]],[[-81.47536214159577,41.50034394513656],[-81.47523693351316,41.50034283906193],[-81.47511172722716,41.50034173298723],[-81.47511522077531,41.500118266493125],[-81.47524042616297,41.500119372571596],[-81.47536563424559,41.500120478650096],[-81.47536214159577,41.50034394513656]],[[-81.4754013341933,41.50012079419192],[-81.4755265413776,41.50012189959759],[-81.47565174766359,41.50012300567599],[-81.47564825591208,41.500346472153794],[-81.47552304962609,41.50034536607915],[-81.47539784154348,41.50034426067735],[-81.4754013341933,41.50012079419192]]]},"properties":{"source_county":"Cuyahoga","jurisdiction":"PEPPER PIKE","parcel_id":"87105097","owner_name":"CBT PEPPER PIKE PHASE 1 COMMON AREAS LLC","property_address":"0  ADDISON CT, PEPPER PIKE, OH, 44124","property_city":"PEPPER PIKE","property_zip":"44124"}},{"type":"Feature","geometry":{"type":"Polygon","coordinates":[[[-81.46655813977169,41.5000977777985],[-81.46654583375062,41.50105267204486],[-81.46700216264358,41.50105592429925],[-81.46701446237645,41.50010109872614],[-81.46655813977169,41.5000977777985]]]},"properties":{"source_county":"Cuyahoga","jurisdiction":"PEPPER PIKE","parcel_id":"87107019","owner_name":"NOCE, PAOLO  TRUSTEE","property_address":"29850  CEDAR RD, PEPPER PIKE, OH, 44124","property_city":"PEPPER PIKE","property_zip":"44124"}},{"type":"Feature","geometry":{"type":"Polygon","coordinates":[[[-81.47450111448077,41.50009911599243],[-81.47449761913602,41.50032258255261],[-81.47462282721861,41.500323689300444],[-81.47462632166507,41.50010022274404],[-81.47450111448077,41.50009911599243]]]},"properties":{"source_county":"Cuyahoga","jurisdiction":"PEPPER PIKE","parcel_id":"87105082","owner_name":" CBT PEPPER PIKE 29 LLC ","property_address":"28820  ADDISON CT, PEPPER PIKE, OH, 44124","property_city":"PEPPER PIKE","property_zip":"44124"}},{"type":"Feature","geometry":{"type":"Polygon","coordinates":[[[-81.4547600863433,41.50094731008292],[-81.45538305182315,41.500954093809305],[-81.45538309314567,41.50094667093377],[-81.45538913880752,41.49984535450363],[-81.45505743409224,41.49976886248334],[-81.45478138539869,41.49984261889882],[-81.4547812165154,41.49985140162954],[-81.4547600863433,41.50094731008292]]]},"properties":{"source_county":"Cuyahoga","jurisdiction":"PEPPER PIKE","parcel_id":"87111049","owner_name":"HERSCHMAN GERALD L","property_address":"31700  CEDAR RD, PEPPER PIKE, OH, 44124","property_city":"PEPPER PIKE","property_zip":"44124"}},{"type":"Feature","geometry":{"type":"Polygon","coordinates":[[[-81.47183746683122,41.50065029546805],[-81.47171240427568,41.50063512468813],[-81.47170940390264,41.500886863369246],[-81.47183461917177,41.50088771175639],[-81.47183746683122,41.50065029546805]]]},"properties":{"source_county":"Cuyahoga","jurisdiction":"PEPPER PIKE","parcel_id":"87105110","owner_name":"CBT PEPPER PIKE 48 LLC","property_address":"29075  ADDISON CT, PEPPER PIKE, OH, 44124","property_city":"PEPPER PIKE","property_zip":"44124"}},{"type":"Feature","geometry":{"type":"Polygon","coordinates":[[[-81.4712239183905,41.50053321078298],[-81.47114277087593,41.50052034967393],[-81.47106089842093,41.50051042059459],[-81.47105683713754,41.50077980570606],[-81.47122019577195,41.500781186944494],[-81.4712239183905,41.50053321078298]]]},"properties":{"source_county":"Cuyahoga","jurisdiction":"PEPPER PIKE","parcel_id":"87105114","owner_name":"CBT PEPPER PIKE 52 LLC","property_address":"29135  ADDISON CT, PEPPER PIKE, OH, 44124","property_city":"PEPPER PIKE","property_zip":"44124"}},{"type":"Feature","geometry":{"type":"Polygon","coordinates":[[[-81.46803109746159,41.5002338899428],[-81.46803094744294,41.500247627761674],[-81.4680295694273,41.500373414214835],[-81.46829167447099,41.50037503632232],[-81.46828684692466,41.50035086146674],[-81.46828541051852,41.50032643901357],[-81.46828625583319,41.50024920546779],[-81.46828640585187,41.500235462939706],[-81.46803109746159,41.5002338899428]]]},"properties":{"source_county":"Cuyahoga","jurisdiction":"PEPPER PIKE","parcel_id":"87107077","owner_name":"BUSTA, WILLIAM E. ","property_address":"2521  EDGEWOOD TRL, PEPPER PIKE, OH, 44124","property_city":"PEPPER PIKE","property_zip":"44124"}},{"type":"Feature","geometry":{"type":"Polygon","coordinates":[[[-81.47242688921838,41.50064856841193],[-81.47230155537163,41.50065898187998],[-81.47230122568993,41.50068653672382],[-81.47229877688245,41.500890850990494],[-81.47242399215159,41.50089169937753],[-81.47242688921838,41.50064856841193]]]},"properties":{"source_county":"Cuyahoga","jurisdiction":"PEPPER PIKE","parcel_id":"87105108","owner_name":"CBT PEPPER PIKE 46 LLC","property_address":"29025  ADDISON CT, PEPPER PIKE, OH, 44124","property_city":"PEPPER PIKE","property_zip":"44124"}},{"type":"Feature","geometry":{"type":"Polygon","coordinates":[[[-81.46086343262307,41.50101066654772],[-81.46133835664241,41.50101555636981],[-81.46135106061718,41.50008250731515],[-81.46135113966892,41.500076701745115],[-81.46087622283609,41.500071813197756],[-81.46087614378435,41.50007762078661],[-81.46086343262307,41.50101066654772]]]},"properties":{"source_county":"Cuyahoga","jurisdiction":"PEPPER PIKE","parcel_id":"87109004","owner_name":"SOMMERS, DANIEL & KRISTIN ","property_address":"30776  CEDAR RD, PEPPER PIKE, OH, 44124","property_city":"PEPPER PIKE","property_zip":"44124"}},{"type":"Feature","geometry":{"type":"Polygon","coordinates":[[[-81.47388657968986,41.50009368180807],[-81.47388308254845,41.500317148387005],[-81.47402931570029,41.50031844149916],[-81.4740328128417,41.50009497559745],[-81.47388657968986,41.50009368180807]]]},"properties":{"source_county":"Cuyahoga","jurisdiction":"PEPPER PIKE","parcel_id":"87105078","owner_name":" CBT PEPPER PIKE 25 LLC ","property_address":"28890  ADDISON CT, PEPPER PIKE, OH, 44124","property_city":"PEPPER PIKE","property_zip":"44124"}},{"type":"Feature","geometry":{"type":"Polygon","coordinates":[[[-81.4703494964963,41.50005986094684],[-81.47022428212547,41.500059104049384],[-81.47022205160863,41.500267839217116],[-81.47024217027773,41.500285704628716],[-81.47027274354011,41.50030885484158],[-81.47030779849744,41.50032808332449],[-81.47034645300411,41.5003429070142],[-81.4703494964963,41.50005986094684]]]},"properties":{"source_county":"Cuyahoga","jurisdiction":"PEPPER PIKE","parcel_id":"87107102","owner_name":"CBT PEPPER PIKE 65 LLC","property_address":"29220  ADDISON CT, PEPPER PIKE, OH, 44124","property_city":"PEPPER PIKE","property_zip":"44124"}},{"type":"Feature","geometry":{"type":"Polygon","coordinates":[[[-81.4652341416205,41.50096096028795],[-81.465234465014,41.50096814028521],[-81.46523562024746,41.500975268477],[-81.46523759833772,41.50098229507698],[-81.46524038491174,41.500989168280526],[-81.465243955715,41.500995828209525],[-81.46524828289971,41.501002231805614],[-81.46525333861813,41.50100832591871],[-81.46525908244605,41.501014066817554],[-81.46526546587447,41.501019410098294],[-81.4652724493775,41.501024313375495],[-81.4652799736663,41.501028739645804],[-81.46528798035044,41.50103265863391],[-81.465296412836,41.50103603602781],[-81.46530520285106,41.50103884827995],[-81.46531428751354,41.501041075206786],[-81.46532359765312,41.50104269797035],[-81.46533305511643,41.5010437044605],[-81.46534259702139,41.50104408660382],[-81.46552265803189,41.50104537230077],[-81.46608949856943,41.50104941709915],[-81.46609604818616,41.500541772744015],[-81.46523974531125,41.50053553528217],[-81.4652341416205,41.50096096028795]]]},"properties":{"source_county":"Cuyahoga","jurisdiction":"PEPPER PIKE","parcel_id":"87107021","owner_name":"NEGRESCU, EMIL VASILE & TECUTA,  MIHAELA MIRELA","property_address":"2412  SUFFOLK LN, PEPPER PIKE, OH, 44124","property_city":"PEPPER PIKE","property_zip":"44124"}},{"type":"Feature","geometry":{"type":"Polygon","coordinates":[[[-81.4687820360385,41.500563688963894],[-81.46859539846183,41.500561682696556],[-81.46859316794497,41.50076598659246],[-81.4687798189964,41.50076713975524],[-81.4687820360385,41.500563688963894]]]},"properties":{"source_county":"Cuyahoga","jurisdiction":"PEPPER PIKE","parcel_id":"87107033","owner_name":"HURWITZ, FRANCES I & LEON H. ","property_address":"2505  EDGEWOOD (PRIVATE) TRL, PEPPER PIKE, OH, 44124","property_city":"PEPPER PIKE","property_zip":"44124"}},{"type":"Feature","geometry":{"type":"Polygon","coordinates":[[[-81.47273636602029,41.500598693676196],[-81.47265749842992,41.500614774079374],[-81.47257788703449,41.500628630901616],[-81.47266153725543,41.50085452844151],[-81.4728189211949,41.50082158933229],[-81.47273636602029,41.500598693676196]]]},"properties":{"source_county":"Cuyahoga","jurisdiction":"PEPPER PIKE","parcel_id":"87105106","owner_name":"CBT PEPPER PIKE 44 LLC","property_address":"28995  ADDISON CT, PEPPER PIKE, OH, 44124","property_city":"PEPPER PIKE","property_zip":"44124"}},{"type":"Feature","geometry":{"type":"Polygon","coordinates":[[[-81.46828640585187,41.500235462939706],[-81.46828755569541,41.500130362039],[-81.46828781710518,41.50010653290988],[-81.46819475703163,41.500105961705],[-81.46817971653883,41.50010587222296],[-81.4680325087149,41.5001049720202],[-81.46803109746159,41.5002338899428],[-81.46828640585187,41.500235462939706]]]},"properties":{"source_county":"Cuyahoga","jurisdiction":"PEPPER PIKE","parcel_id":"87107078","owner_name":"DAOUD, ANSAAM & DWEIK, LOAI ","property_address":"2525  EDGEWOOD TRL, PEPPER PIKE, OH, 44124","property_city":"PEPPER PIKE","property_zip":"44124"}},{"type":"Feature","geometry":{"type":"Polygon","coordinates":[[[-81.47433944198414,41.500097686970825],[-81.47433594663937,41.50032115353599],[-81.47446115292537,41.50032226028381],[-81.47446464827014,41.50009879372251],[-81.47433944198414,41.500097686970825]]]},"properties":{"source_county":"Cuyahoga","jurisdiction":"PEPPER PIKE","parcel_id":"87105081","owner_name":"  CBT PEPPER PIKE 28, LLC ","property_address":"28840  ADDISON CT, PEPPER PIKE, OH, 44124","property_city":"PEPPER PIKE","property_zip":"44124"}},{"type":"Feature","geometry":{"type":"Polygon","coordinates":[[[-81.47092996357839,41.50012590812259],[-81.47092711861389,41.500363171590685],[-81.47105224135655,41.500371254544454],[-81.47105517345763,41.500126757865274],[-81.47092996357839,41.50012590812259]]]},"properties":{"source_county":"Cuyahoga","jurisdiction":"PEPPER PIKE","parcel_id":"87105118","owner_name":"CBT PEPPER PIKE  70 LLC","property_address":"29140  ADDISON CT, PEPPER PIKE, OH, 44124","property_city":"PEPPER PIKE","property_zip":"44124"}},{"type":"Feature","geometry":{"type":"Polygon","coordinates":[[[-81.47478722879708,41.50010164503759],[-81.47478373435062,41.50032511158905],[-81.47492996750246,41.50032640402824],[-81.47493346194892,41.50010293748119],[-81.47478722879708,41.50010164503759]]]},"properties":{"source_county":"Cuyahoga","jurisdiction":"PEPPER PIKE","parcel_id":"87105084","owner_name":" CBT PEPPER PIKE 31, LLC ","property_address":"28780  ADDISON CT, PEPPER PIKE, OH, 44124","property_city":"PEPPER PIKE","property_zip":"44124"}},{"type":"Feature","geometry":{"type":"Polygon","coordinates":[[[-81.47493784393089,41.50067361778518],[-81.4749343602642,41.50089645330521],[-81.47505873560856,41.500897551969736],[-81.47506221927523,41.500674717126294],[-81.47493784393089,41.50067361778518]]]},"properties":{"source_county":"Cuyahoga","jurisdiction":"PEPPER PIKE","parcel_id":"87105062","owner_name":"CBT PEPPER PIKE 9 LLC","property_address":"28765  ADDISON CT, PEPPER PIKE, OH, 44124","property_city":"PEPPER PIKE","property_zip":"44124"}},{"type":"Feature","geometry":{"type":"Polygon","coordinates":[[[-81.47419370380403,41.50088991446802],[-81.47433993965082,41.500891207568685],[-81.47434342331748,41.500668365975486],[-81.47424230715248,41.50066746981731],[-81.47419719555553,41.50066674925766],[-81.47419370380403,41.50088991446802]]]},"properties":{"source_county":"Cuyahoga","jurisdiction":"PEPPER PIKE","parcel_id":"87105067","owner_name":" CBT PEPPER PIKE 14 LLC ","property_address":"28845  ADDISON CT, PEPPER PIKE, OH, 44124","property_city":"PEPPER PIKE","property_zip":"44124"}},{"type":"Feature","geometry":{"type":"Polygon","coordinates":[[[-81.47255228415058,41.50063259095428],[-81.47242688562513,41.50064856908474],[-81.47242398855833,41.50089169937753],[-81.47254920203083,41.50089254978297],[-81.47255228415058,41.50063259095428]]]},"properties":{"source_county":"Cuyahoga","jurisdiction":"PEPPER PIKE","parcel_id":"87105107","owner_name":"CBT PEPPER PIKE 45 LLC","property_address":"29015  ADDISON CT, PEPPER PIKE, OH, 44124","property_city":"PEPPER PIKE","property_zip":"44124"}},{"type":"Feature","geometry":{"type":"Polygon","coordinates":[[[-81.46924072750068,41.50014620707965],[-81.4692392066529,41.50028537495895],[-81.46949846403716,41.500286975539225],[-81.46949998578324,41.50014780900893],[-81.46924072750068,41.50014620707965]]]},"properties":{"source_county":"Cuyahoga","jurisdiction":"PEPPER PIKE","parcel_id":"87107071","owner_name":"SILL, SCOTT M.","property_address":"2420  EDGEWOOD(PRIVATE) TRL, PEPPER PIKE, OH, 44124","property_city":"PEPPER PIKE","property_zip":"44124"}},{"type":"Feature","geometry":{"type":"Polygon","coordinates":[[[-81.46835447838745,41.50075005962307],[-81.468515441215,41.50078293485356],[-81.46859539846183,41.500561682696556],[-81.46858966721031,41.50056162079965],[-81.46854904539316,41.500559171834766],[-81.46850919972042,41.50055274061036],[-81.46847081919991,41.500542440154376],[-81.46843456588998,41.500528448082335],[-81.46835447838745,41.50075005962307]]]},"properties":{"source_county":"Cuyahoga","jurisdiction":"PEPPER PIKE","parcel_id":"87107034","owner_name":"SLIFSTEIN, BARRY M & ELIZABETH","property_address":"2511  EDGEWOOD TRACE, PEPPER PIKE, OH, 44124","property_city":"PEPPER PIKE","property_zip":"44124"}},{"type":"Feature","geometry":{"type":"Polygon","coordinates":[[[-81.46309124554453,41.49985563421363],[-81.46313553967455,41.50023466567651],[-81.46423967156667,41.50024129742572],[-81.46424180326886,41.50001859488373],[-81.46424369062926,41.49986257818073],[-81.46309124554453,41.49985563421363]]]},"properties":{"source_county":"Cuyahoga","jurisdiction":"PEPPER PIKE","parcel_id":"87107014","owner_name":"GLAZ, MARTIN J. & DANIELLE C.","property_address":"2426  LANDER RD, PEPPER PIKE, OH, 44124","property_city":"PEPPER PIKE","property_zip":"44124"}},{"type":"Feature","geometry":{"type":"Polygon","coordinates":[[[-81.46701446237645,41.50010109872614],[-81.46700216264358,41.50105592429925],[-81.46745849243487,41.501059175207885],[-81.46747078498122,41.50010443647357],[-81.46701446237645,41.50010109872614]]]},"properties":{"source_county":"Cuyahoga","jurisdiction":"PEPPER PIKE","parcel_id":"87107018","owner_name":"QUTUBUDDIN, RUKIYE & SYED","property_address":"29800  CEDAR RD, PEPPER PIKE, OH, 44124","property_city":"PEPPER PIKE","property_zip":"44124"}},{"type":"Feature","geometry":{"type":"Polygon","coordinates":[[[-81.47313480208646,41.50056068830919],[-81.47306705114774,41.50056009154217],[-81.47300956256281,41.50056081950375],[-81.47300608159108,41.50079391949881],[-81.4731312896737,41.500794979143244],[-81.47313480208646,41.50056068830919]]]},"properties":{"source_county":"Cuyahoga","jurisdiction":"PEPPER PIKE","parcel_id":"87105104","owner_name":"CBT PEPPER PIKE 42 LLC","property_address":"28955  ADDISON CT, PEPPER PIKE, OH, 44124","property_city":"PEPPER PIKE","property_zip":"44124"}},{"type":"Feature","geometry":{"type":"Polygon","coordinates":[[[-81.45162866077249,41.50010071994126],[-81.45215376737856,41.50054731319201],[-81.45282138092468,41.50036827406472],[-81.45212068781652,41.49977327201946],[-81.45162866077249,41.50010071994126]]]},"properties":{"source_county":"Cuyahoga","jurisdiction":"PEPPER PIKE","parcel_id":"87111028","owner_name":"WAXMAN, LESLIE LOUISE","property_address":"32049  GATES MILLS BLVD, PEPPER PIKE, OH, 44124","property_city":"PEPPER PIKE","property_zip":"44124"}},{"type":"Feature","geometry":{"type":"Polygon","coordinates":[[[-81.47154962864789,41.50060685262606],[-81.47142482211221,41.50057834372879],[-81.47142066111581,41.50085589756807],[-81.47154587369,41.50085695653873],[-81.47154962864789,41.50060685262606]]]},"properties":{"source_county":"Cuyahoga","jurisdiction":"PEPPER PIKE","parcel_id":"87105112","owner_name":"CBT PEPPER PIKE 50 LLC","property_address":"29095  ADDISON CT, PEPPER PIKE, OH, 44124","property_city":"PEPPER PIKE","property_zip":"44124"}},{"type":"Feature","geometry":{"type":"Polygon","coordinates":[[[-81.47035928723457,41.50048874723505],[-81.4703163064415,41.50048045034763],[-81.47027460125612,41.500469054572356],[-81.47023456603884,41.50045466822742],[-81.4702300609877,41.50075552335514],[-81.47035527266358,41.50075658367299],[-81.47035928723457,41.50048874723505]]]},"properties":{"source_county":"Cuyahoga","jurisdiction":"PEPPER PIKE","parcel_id":"87107093","owner_name":"CBT PEPPER PIKE 56 LLC","property_address":"29225  ADDISON CT, PEPPER PIKE, OH, 44124","property_city":"PEPPER PIKE","property_zip":"44124"}},{"type":"Feature","geometry":{"type":"Polygon","coordinates":[[[-81.47063935229578,41.50012529856846],[-81.47051413882326,41.500124495921554],[-81.47051147891169,41.50035896191471],[-81.47063669328253,41.50035981232715],[-81.47063935229578,41.50012529856846]]]},"properties":{"source_county":"Cuyahoga","jurisdiction":"PEPPER PIKE","parcel_id":"87107104","owner_name":"CBT PEPPER PIKE  67 LLC","property_address":"29190  ADDISON CT, PEPPER PIKE, OH, 44124","property_city":"PEPPER PIKE","property_zip":"44124"}},{"type":"Feature","geometry":{"type":"Polygon","coordinates":[[[-81.47235362082719,41.50027402624507],[-81.47239803083988,41.5005130438147],[-81.4724787759092,41.500503409417654],[-81.472558932582,41.50049131192304],[-81.47251541639301,41.50025705026615],[-81.47235362082719,41.50027402624507]]]},"properties":{"source_county":"Cuyahoga","jurisdiction":"PEPPER PIKE","parcel_id":"87105126","owner_name":"CBT PEPPER PIKE 78 LLC","property_address":"29000  ADDISON CT, PEPPER PIKE, OH, 44124","property_city":"PEPPER PIKE","property_zip":"44124"}},{"type":"Feature","geometry":{"type":"Polygon","coordinates":[[[-81.47183461557853,41.50088771175639],[-81.47195982905103,41.500888562834625],[-81.47196223923095,41.50068745642946],[-81.47196256801432,41.50065995540934],[-81.47183746323797,41.50065029546805],[-81.47183461557853,41.50088771175639]]]},"properties":{"source_county":"Cuyahoga","jurisdiction":"PEPPER PIKE","parcel_id":"87105109","owner_name":"CBT PEPPER PIKE 47 LLC","property_address":"29055  ADDISON CT, PEPPER PIKE, OH, 44124","property_city":"PEPPER PIKE","property_zip":"44124"}},{"type":"Feature","geometry":{"type":"Polygon","coordinates":[[[-81.47064973861707,41.500497132930114],[-81.47052452424627,41.500496282519535],[-81.47052059142196,41.500758848285805],[-81.47064580309782,41.5007599079308],[-81.47064973861707,41.500497132930114]]]},"properties":{"source_county":"Cuyahoga","jurisdiction":"PEPPER PIKE","parcel_id":"87107091","owner_name":"CBT PEPPER PIKE 54 LLC","property_address":"29195  ADDISON CT, PEPPER PIKE, OH, 44124","property_city":"PEPPER PIKE","property_zip":"44124"}},{"type":"Feature","geometry":{"type":"Polygon","coordinates":[[[-81.47268247339144,41.50021868407995],[-81.47276026480012,41.500450819847615],[-81.47282139156194,41.50044031215498],[-81.47288317139896,41.50043224804802],[-81.47280389327851,41.50019568185004],[-81.47268247339144,41.50021868407995]]]},"properties":{"source_county":"Cuyahoga","jurisdiction":"PEPPER PIKE","parcel_id":"87105128","owner_name":"CBT PEPPER PIKE 80 LLC","property_address":"28970  ADDISON CT, PEPPER PIKE, OH, 44124","property_city":"PEPPER PIKE","property_zip":"44124"}},{"type":"Feature","geometry":{"type":"Polygon","coordinates":[[[-81.46878017383094,41.50027349944612],[-81.46877850116788,41.50042644318215],[-81.46901784919048,41.50042901594611],[-81.46905526492039,41.50041364394893],[-81.46905677858163,41.50027519018133],[-81.46878017383094,41.50027349944612]]]},"properties":{"source_county":"Cuyahoga","jurisdiction":"PEPPER PIKE","parcel_id":"87107054","owner_name":"LAKIREDDY, MURALI & MANJULA","property_address":"2411  EDGEWOOD(PRIVATE) TRL, PEPPER PIKE, OH, 44124","property_city":"PEPPER PIKE","property_zip":"44124"}},{"type":"Feature","geometry":{"type":"Polygon","coordinates":[[[-81.46846689446042,41.50028108723368],[-81.46846574551518,41.500386004889705],[-81.46847854471135,41.500396916267725],[-81.4684933893714,41.50040625061445],[-81.4685099390339,41.50041379129088],[-81.46852781371142,41.5004193667351],[-81.46854660197559,41.50042284911683],[-81.46856587533,41.5004241577011],[-81.4687419990246,41.50042605161606],[-81.46874356568647,41.5002827947885],[-81.46846689446042,41.50028108723368]]]},"properties":{"source_county":"Cuyahoga","jurisdiction":"PEPPER PIKE","parcel_id":"87107053","owner_name":"STEPHENS, DAVID BREWER","property_address":"2520  EDGEWOOD TRACE, PEPPER PIKE, OH, 44124","property_city":"PEPPER PIKE","property_zip":"44124"}},{"type":"Feature","geometry":{"type":"Polygon","coordinates":[[[-81.47289517648443,41.500569692291194],[-81.47282829601322,41.5005795749388],[-81.47276246118098,41.50059284576651],[-81.47273636242701,41.500598694348945],[-81.47281891760163,41.500821590005096],[-81.47297630333773,41.50078865491589],[-81.47289517648443,41.500569692291194]]]},"properties":{"source_county":"Cuyahoga","jurisdiction":"PEPPER PIKE","parcel_id":"87105105","owner_name":"CBT PEPPER PIKE 43 LLC","property_address":"28975  ADDISON CT, PEPPER PIKE, OH, 44124","property_city":"PEPPER PIKE","property_zip":"44124"}},{"type":"Feature","geometry":{"type":"Polygon","coordinates":[[[-81.46335866412315,41.501007597962165],[-81.46423074141447,41.501041401508765],[-81.4642310971473,41.50101398473745],[-81.4642356453176,41.50062001311035],[-81.46317880433529,41.50061366666375],[-81.46321319903087,41.50091495567446],[-81.46321579336542,41.50092451600351],[-81.46321950520418,41.50093386440273],[-81.46322430490274,41.50094292955664],[-81.46323015742682,41.50095163813137],[-81.46323701786064,41.50095991948427],[-81.46324482511876,41.50096771306461],[-81.46325352709893,41.500974954957684],[-81.46326304654599,41.50098158528547],[-81.46327331249306,41.50098755358906],[-81.46328424139682,41.500992814119115],[-81.46329574971391,41.50099732583564],[-81.46330774671452,41.501001049717196],[-81.46332013538063,41.50100395952509],[-81.46333281959244,41.50100603036636],[-81.46334569514539,41.5010072460941],[-81.46335866412315,41.501007597962165]]]},"properties":{"source_county":"Cuyahoga","jurisdiction":"PEPPER PIKE","parcel_id":"87107015","owner_name":"LEWIN, JOAN  J   TRUSTEE","property_address":"2400  LANDER RD, PEPPER PIKE, OH, 44124","property_city":"PEPPER PIKE","property_zip":"44124"}},{"type":"Feature","geometry":{"type":"Polygon","coordinates":[[[-81.45805115242156,41.50098167207511],[-81.45865347641283,41.500987887292],[-81.45866387800551,41.50025047705183],[-81.45866395975219,41.5002446714969],[-81.45806164204913,41.50023830415685],[-81.45806156030245,41.50024410769397],[-81.45805115242156,41.50098167207511]]]},"properties":{"source_county":"Cuyahoga","jurisdiction":"PEPPER PIKE","parcel_id":"87109021","owner_name":"SUVAK, JOSHUA & LASKI, MICHELLE","property_address":"31150  CEDAR RD, PEPPER PIKE, OH, 44124","property_city":"PEPPER PIKE","property_zip":"44124"}},{"type":"Feature","geometry":{"type":"Polygon","coordinates":[[[-81.47313480208646,41.50056068830919],[-81.4731312896737,41.500794979143244],[-81.47325649955293,41.50079603340534],[-81.47326001286402,41.50056179774407],[-81.47313480208646,41.50056068830919]]]},"properties":{"source_county":"Cuyahoga","jurisdiction":"PEPPER PIKE","parcel_id":"87105103","owner_name":"CBT PEPPER PIKE 41 LLC","property_address":"28945  ADDISON CT, PEPPER PIKE, OH, 44124","property_city":"PEPPER PIKE","property_zip":"44124"}},{"type":"Feature","geometry":{"type":"Polygon","coordinates":[[[-81.47186923036136,41.500277561785445],[-81.47174543532869,41.500263406839636],[-81.47169895380094,41.5004930315826],[-81.4718221775051,41.500510077470125],[-81.47186923036136,41.500277561785445]]]},"properties":{"source_county":"Cuyahoga","jurisdiction":"PEPPER PIKE","parcel_id":"87105123","owner_name":"CBT PEPPER PIKE  75 LLC","property_address":"29060  ADDISON CT, PEPPER PIKE, OH, 44124","property_city":"PEPPER PIKE","property_zip":"44124"}},{"type":"Feature","geometry":{"type":"Polygon","coordinates":[[[-81.47421423479985,41.50009657954638],[-81.47421073855676,41.500320046115355],[-81.47433594663937,41.50032115353599],[-81.47433944198414,41.500097686970825],[-81.47421423479985,41.50009657954638]]]},"properties":{"source_county":"Cuyahoga","jurisdiction":"PEPPER PIKE","parcel_id":"87105080","owner_name":"  CBT PEPPER PIKE 27, LLC ","property_address":"28850  ADDISON CT, PEPPER PIKE, OH, 44124","property_city":"PEPPER PIKE","property_zip":"44124"}},{"type":"Feature","geometry":{"type":"Polygon","coordinates":[[[-81.45214630148023,41.50091880873614],[-81.45304349027697,41.5009285984856],[-81.45305536869998,41.50031343657649],[-81.45305552321021,41.50030548211935],[-81.45282138092468,41.50036827406472],[-81.45215376737856,41.50054731319201],[-81.45214639849829,41.50091357174774],[-81.45214630148023,41.50091880873614]]]},"properties":{"source_county":"Cuyahoga","jurisdiction":"PEPPER PIKE","parcel_id":"87111053","owner_name":"EVERETT, CHANDLER P.","property_address":"32100  CEDAR RD, PEPPER PIKE, OH, 44124","property_city":"PEPPER PIKE","property_zip":"44124"}},{"type":"Feature","geometry":{"type":"Polygon","coordinates":[[[-81.46181387714314,41.50055386081009],[-81.46181963085253,41.500553920688596],[-81.46276812423179,41.500563672144054],[-81.46277314042433,41.50009133239949],[-81.46276080925043,41.500091205240786],[-81.46183474410887,41.50008168111979],[-81.46182894368707,41.500081621913615],[-81.46181411340007,41.500081572126554],[-81.46181387714314,41.50055386081009]]]},"properties":{"source_county":"Cuyahoga","jurisdiction":"PEPPER PIKE","parcel_id":"87109006","owner_name":"BROWN, DAWN M. ","property_address":"2411  LANDER RD, PEPPER PIKE, OH, 44124","property_city":"PEPPER PIKE","property_zip":"44124"}},{"type":"Feature","geometry":{"type":"Polygon","coordinates":[[[-81.46133835664241,41.50101555636981],[-81.46181328425504,41.50102044417312],[-81.4618136579542,41.50099300182695],[-81.46181387714314,41.50055386081009],[-81.46181411340007,41.500081572126554],[-81.46164742830413,41.50007975153644],[-81.46135113966892,41.500076701745115],[-81.46135106061718,41.50008250731515],[-81.46133835664241,41.50101555636981]]]},"properties":{"source_county":"Cuyahoga","jurisdiction":"PEPPER PIKE","parcel_id":"87109005","owner_name":"MCQUEEN, JAMES F. & OLA","property_address":"30726  CEDAR RD, PEPPER PIKE, OH, 44124","property_city":"PEPPER PIKE","property_zip":"44124"}},{"type":"Feature","geometry":{"type":"Polygon","coordinates":[[[-81.47126795470402,41.500137638338344],[-81.47114504990182,41.50011962083378],[-81.47107911266164,41.500373801071646],[-81.47120269838685,41.50038929821804],[-81.47126795470402,41.500137638338344]]]},"properties":{"source_county":"Cuyahoga","jurisdiction":"PEPPER PIKE","parcel_id":"87105119","owner_name":"CBT PEPPER PIKE  71 LLC","property_address":"29130  ADDISON CT, PEPPER PIKE, OH, 44124","property_city":"PEPPER PIKE","property_zip":"44124"}},{"type":"Feature","geometry":{"type":"Polygon","coordinates":[[[-81.47309061485595,41.50017160111903],[-81.47308685720311,41.50042303682631],[-81.4731856431383,41.500423908767324],[-81.47321206887898,41.50042414222682],[-81.47321582293857,41.50017265740965],[-81.47309061485595,41.50017160111903]]]},"properties":{"source_county":"Cuyahoga","jurisdiction":"PEPPER PIKE","parcel_id":"87105130","owner_name":"CBT PEPPER PIKE 82 LLC","property_address":"28950  ADDISON CT, PEPPER PIKE, OH, 44124","property_city":"PEPPER PIKE","property_zip":"44124"}},{"type":"Feature","geometry":{"type":"Polygon","coordinates":[[[-81.4730906184492,41.50017160111903],[-81.47296540767165,41.50017054415559],[-81.47296159791654,41.50042559815293],[-81.47301535400145,41.50042332074536],[-81.47306919362968,41.50042287804696],[-81.47308686349132,41.500423036153556],[-81.4730906184492,41.50017160111903]]]},"properties":{"source_county":"Cuyahoga","jurisdiction":"PEPPER PIKE","parcel_id":"87105129","owner_name":"CBT PEPPER PIKE 81 LLC","property_address":"28960  ADDISON CT, PEPPER PIKE, OH, 44124","property_city":"PEPPER PIKE","property_zip":"44124"}},{"type":"Feature","geometry":{"type":"Polygon","coordinates":[[[-81.47147489151119,41.500446210537916],[-81.47159463154868,41.50047384755309],[-81.47171003362166,41.50020855917071],[-81.47159102032124,41.500179298584364],[-81.47147489151119,41.500446210537916]]]},"properties":{"source_county":"Cuyahoga","jurisdiction":"PEPPER PIKE","parcel_id":"87105122","owner_name":"CBT PEPPER PIKE 74 LLC","property_address":"29080  ADDISON CT, PEPPER PIKE, OH, 44124","property_city":"PEPPER PIKE","property_zip":"44124"}},{"type":"Feature","geometry":{"type":"Polygon","coordinates":[[[-81.47034949290304,41.50005986094684],[-81.47034644941085,41.500342906341395],[-81.47035698844576,41.50034599312392],[-81.47040210633092,41.50035521713965],[-81.47044865433398,41.50035853603572],[-81.47047150837314,41.50035869414248],[-81.4704747036806,41.50006061717153],[-81.47034949290304,41.50005986094684]]]},"properties":{"source_county":"Cuyahoga","jurisdiction":"PEPPER PIKE","parcel_id":"87107103","owner_name":"CBT PEPPER PIKE 66 LLC","property_address":"29200  ADDISON CT, PEPPER PIKE, OH, 44124","property_city":"PEPPER PIKE","property_zip":"44124"}},{"type":"Feature","geometry":{"type":"Polygon","coordinates":[[[-81.4642356453176,41.50062001311035],[-81.4642310971473,41.50101398473745],[-81.46423074141447,41.501041401508765],[-81.4649775782838,41.501046848396534],[-81.46498713096852,41.50104660417469],[-81.46499661448298,41.50104573627881],[-81.46500596325014,41.5010442500912],[-81.46501510091322,41.50104215772199],[-81.46502396369179,41.5010394732996],[-81.46503248241564,41.501036217680436],[-81.46504059240603,41.50103241979431],[-81.46504822539099,41.50102810049751],[-81.46505533286152,41.50102330150271],[-81.4650618555288,41.501018051066964],[-81.46506774668042,41.50101239561253],[-81.46507295960403,41.501006375506535],[-81.46507745207877,41.50100003784405],[-81.46508119535856,41.50099342837458],[-81.46508415530741,41.500986599575505],[-81.46508631395903,41.50097960325147],[-81.4650876524488,41.50097249255265],[-81.4650881635902,41.50096531995656],[-81.4650937223652,41.50053446823276],[-81.4642362930029,41.500528215296015],[-81.4642356453176,41.50062001311035]]]},"properties":{"source_county":"Cuyahoga","jurisdiction":"PEPPER PIKE","parcel_id":"87107022","owner_name":"MARTON, STEVEN L & MARTON, JODI","property_address":"2411  SUFFOLK LN, PEPPER PIKE, OH, 44124","property_city":"PEPPER PIKE","property_zip":"44124"}},{"type":"Feature","geometry":{"type":"Polygon","coordinates":[[[-81.4706393487025,41.50012529856846],[-81.47063668968926,41.50035981232715],[-81.47076190316177,41.500360664757935],[-81.47076455948006,41.50012610121536],[-81.4706393487025,41.50012529856846]]]},"properties":{"source_county":"Cuyahoga","jurisdiction":"PEPPER PIKE","parcel_id":"87105116","owner_name":"CBT PEPPER PIKE 68 LLC","property_address":"29170  ADDISON CT, PEPPER PIKE, OH, 44124","property_city":"PEPPER PIKE","property_zip":"44124"}},{"type":"Feature","geometry":{"type":"Polygon","coordinates":[[[-81.47333543541528,41.50080726765351],[-81.47346145287996,41.50080838313927],[-81.47346429065794,41.50057577904425],[-81.47338530808321,41.50057227581418],[-81.4733391221012,41.50057186339241],[-81.47333543541528,41.50080726765351]]]},"properties":{"source_county":"Cuyahoga","jurisdiction":"PEPPER PIKE","parcel_id":"87105073","owner_name":"  CBT PEPPER PIKE 20, LLC ","property_address":"28935  ADDISON CT, PEPPER PIKE, OH, 44124","property_city":"PEPPER PIKE","property_zip":"44124"}},{"type":"Feature","geometry":{"type":"Polygon","coordinates":[[[-81.4687820360385,41.500563688963894],[-81.4687798189964,41.50076713975524],[-81.46893668191298,41.500768109246174],[-81.46894540275775,41.5007441249371],[-81.46894735569519,41.50056546648166],[-81.4687820360385,41.500563688963894]]]},"properties":{"source_county":"Cuyahoga","jurisdiction":"PEPPER PIKE","parcel_id":"87107032","owner_name":" WARD, NICOLE ","property_address":"2501  EDGEWOOD(PRIVATE) TRL, PEPPER PIKE, OH, 44124","property_city":"PEPPER PIKE","property_zip":"44124"}},{"type":"Feature","geometry":{"type":"Polygon","coordinates":[[[-81.47192094457564,41.500006142061096],[-81.47192405633977,41.49979176327201],[-81.47011794225709,41.499779507536324],[-81.47011539553326,41.50001755406496],[-81.47063251701478,41.500021065398606],[-81.47063181273558,41.50008317002068],[-81.47118818161186,41.50008694576018],[-81.47142278922473,41.500088537598955],[-81.47187986282105,41.50009163650397],[-81.47188273383672,41.5000686019346],[-81.47189071357138,41.50004625764773],[-81.47190357205635,41.50002523876542],[-81.47192094457564,41.500006142061096]]]},"properties":{"source_county":"Cuyahoga","jurisdiction":"PEPPER PIKE","parcel_id":"87105101","owner_name":"ERICSON, DANIEL","property_address":"2431  WINDY HILL DR, PEPPER PIKE, OH, 44124","property_city":"PEPPER PIKE","property_zip":"44124"}},{"type":"Feature","geometry":{"type":"Polygon","coordinates":[[[-81.45684125198957,41.50096917705199],[-81.45744882663368,41.50097545349379],[-81.4574592434977,41.5002377383355],[-81.4574593252444,41.500231933452184],[-81.4568437798488,41.50022541944137],[-81.45684128522723,41.50095962480298],[-81.45684125198957,41.50096917705199]]]},"properties":{"source_county":"Cuyahoga","jurisdiction":"PEPPER PIKE","parcel_id":"87109023","owner_name":"SZUTER, CAROLYN DEBORAH & KALIAKIN, DANIL ","property_address":"31300  CEDAR RD, PEPPER PIKE, OH, 44124","property_city":"PEPPER PIKE","property_zip":"44124"}},{"type":"Feature","geometry":{"type":"Polygon","coordinates":[[[-81.47338736702184,41.50043504081536],[-81.47343355659714,41.50043623569721],[-81.4734386383667,41.50016713913191],[-81.47331257508792,41.50016602363509],[-81.47330837276903,41.50043435052886],[-81.47338736702184,41.50043504081536]]]},"properties":{"source_county":"Cuyahoga","jurisdiction":"PEPPER PIKE","parcel_id":"87105074","owner_name":"  CBT PEPPER PIKE 21, LLC ","property_address":"28940  ADDISON CT, PEPPER PIKE, OH, 44124","property_city":"PEPPER PIKE","property_zip":"44124"}},{"type":"Feature","geometry":{"type":"Polygon","coordinates":[[[-81.47221287728003,41.50001522820156],[-81.47222683081135,41.50003333118056],[-81.4722369611128,41.50005281742684],[-81.47224303372413,41.50007323549194],[-81.4722449067115,41.50009410970724],[-81.47326272308123,41.50010100117054],[-81.47349328558037,41.50010256071474],[-81.47349439140648,41.50002618673796],[-81.47350096887101,41.4998024412884],[-81.4722160905538,41.499793743323934],[-81.47221287728003,41.50001522820156]]]},"properties":{"source_county":"Cuyahoga","jurisdiction":"PEPPER PIKE","parcel_id":"87105100","owner_name":"REED, PHILIP D. JR","property_address":"2432  WINDY HILL DR, PEPPER PIKE, OH, 44124","property_city":"PEPPER PIKE","property_zip":"44124"}},{"type":"Feature","geometry":{"type":"Polygon","coordinates":[[[-81.47465016474935,41.500671075306556],[-81.47464667928604,41.50089391083529],[-81.47477188826699,41.500895017573356],[-81.47477537283196,41.50067218204838],[-81.47465016474935,41.500671075306556]]]},"properties":{"source_county":"Cuyahoga","jurisdiction":"PEPPER PIKE","parcel_id":"87105064","owner_name":"CBT PEPPER PIKE 11 LLC","property_address":"28795  ADDISON CT, PEPPER PIKE, OH, 44124","property_city":"PEPPER PIKE","property_zip":"44124"}},{"type":"Feature","geometry":{"type":"Polygon","coordinates":[[[-81.473600757326,41.500091153435406],[-81.4735972592863,41.50031462002307],[-81.47372246736892,41.5003157274438],[-81.47372596451032,41.50009226085996],[-81.473600757326,41.500091153435406]]]},"properties":{"source_county":"Cuyahoga","jurisdiction":"PEPPER PIKE","parcel_id":"87105076","owner_name":" CBT PEPPER PIKE 23 LLC","property_address":"28920  ADDISON CT, PEPPER PIKE, OH, 44124","property_city":"PEPPER PIKE","property_zip":"44124"}},{"type":"Feature","geometry":{"type":"Polygon","coordinates":[[[-81.47493784393089,41.50067361778518],[-81.47481180311,41.500672504315446],[-81.47480831944333,41.500895339166505],[-81.4749343602642,41.50089645330521],[-81.47493784393089,41.50067361778518]]]},"properties":{"source_county":"Cuyahoga","jurisdiction":"PEPPER PIKE","parcel_id":"87105063","owner_name":"CBT PEPPER PIKE 10 LLC","property_address":"28785  ADDISON CT, PEPPER PIKE, OH, 44124","property_city":"PEPPER PIKE","property_zip":"44124"}},{"type":"Feature","geometry":{"type":"Polygon","coordinates":[[[-81.46905271280667,41.50084134983955],[-81.46919474723285,41.50093099428619],[-81.46933772129685,41.50080296516142],[-81.46933523835341,41.50076999036809],[-81.4693265866789,41.5007376096322],[-81.46931193695325,41.50070647287076],[-81.4692915865188,41.500677201744736],[-81.46926594051575,41.500650385622095],[-81.46905271280667,41.50084134983955]]]},"properties":{"source_county":"Cuyahoga","jurisdiction":"PEPPER PIKE","parcel_id":"87107074","owner_name":"PEPPER PIKE TOWNHOMES LLC","property_address":"0  EDGEWOOD(PRIVATE) TRL, PEPPER PIKE, OH, 44124","property_city":"PEPPER PIKE","property_zip":"44124"}},{"type":"Feature","geometry":{"type":"Polygon","coordinates":[[[-81.46792959232606,41.50106249675902],[-81.46792869041751,41.501144860677506],[-81.4695734742617,41.50115648508119],[-81.46957447767987,41.501064028695765],[-81.46792959232606,41.50106249675902]]]},"properties":{"source_county":"Cuyahoga","jurisdiction":"PEPPER PIKE","parcel_id":"87107073","owner_name":"PEPPER PIKE TOWNHOMES LLC","property_address":"0  CEDAR RD, PEPPER PIKE, OH, 44124","property_city":"PEPPER PIKE","property_zip":"44124"}},{"type":"Feature","geometry":{"type":"Polygon","coordinates":[[[-81.47159102391451,41.50017929992992],[-81.47147200791915,41.500150037984795],[-81.47135571831068,41.50041733556994],[-81.47145964440587,41.500442244418714],[-81.47147489510446,41.50044621121068],[-81.47159102391451,41.50017929992992]]]},"properties":{"source_county":"Cuyahoga","jurisdiction":"PEPPER PIKE","parcel_id":"87105121","owner_name":"CBT PEPPER PIKE 73 LLC","property_address":"29100  ADDISON CT, PEPPER PIKE, OH, 44124","property_city":"PEPPER PIKE","property_zip":"44124"}},{"type":"Feature","geometry":{"type":"Polygon","coordinates":[[[-81.45074322104134,41.50090348529604],[-81.45214630148023,41.50091880873614],[-81.45214639849829,41.50091357174774],[-81.45215376737856,41.50054731319201],[-81.45162866077249,41.50010071994126],[-81.45068513148348,41.50072862922122],[-81.45067933196,41.50073289673315],[-81.45067407322233,41.50073752351499],[-81.45066937772835,41.50074247996394],[-81.45066528141066,41.500747729749214],[-81.45066182110017,41.500753232503335],[-81.45065902105144,41.50075894247646],[-81.45065690192568,41.50076481795552],[-81.45065548438417,41.50077080915399],[-81.45065477471509,41.50077687099489],[-81.45065478190162,41.50078295705561],[-81.4506555041471,41.50078901822257],[-81.45065694055324,41.5007950094188],[-81.45065907135708,41.50080087883948],[-81.45066188488056,41.5008065874628],[-81.45066535956408,41.50081208213845],[-81.45066946666155,41.50081732788133],[-81.45067417563027,41.50082227759631],[-81.45067944694436,41.50082689831665],[-81.45068524197626,41.50083114698402],[-81.4506915104203,41.50083499534118],[-81.45069821185234,41.50083841311276],[-81.45070528878014,41.500841370023224],[-81.45071268371156,41.50084384521622],[-81.45072034184936,41.50084581985372],[-81.45072820031146,41.5008472784615],[-81.45073620250403,41.50084820825667],[-81.45074428285,41.50084860385692],[-81.45074322104134,41.50090348529604]]]},"properties":{"source_county":"Cuyahoga","jurisdiction":"PEPPER PIKE","parcel_id":"87111029","owner_name":"BELLINI, MARCELLO J & MARIA E","property_address":"32099  GATES MILLS BLVD, PEPPER PIKE, OH, 44124","property_city":"PEPPER PIKE","property_zip":"44124"}},{"type":"Feature","geometry":{"type":"Polygon","coordinates":[[[-81.47346146455807,41.50080838313927],[-81.4735858515805,41.50080948382365],[-81.47358924002575,41.50059304289466],[-81.4735272005756,41.500582632107175],[-81.47346429065794,41.50057577904425],[-81.47346146455807,41.50080838313927]]]},"properties":{"source_county":"Cuyahoga","jurisdiction":"PEPPER PIKE","parcel_id":"87105072","owner_name":"  CBT PEPPER PIKE 19 LLC","property_address":"28925  ADDISON CT, PEPPER PIKE, OH, 44124","property_city":"PEPPER PIKE","property_zip":"44124"}},{"type":"Feature","geometry":{"type":"Polygon","coordinates":[[[-81.46893668191298,41.500768109246174],[-81.46905271280667,41.50084134983955],[-81.46926594051575,41.500650385622095],[-81.46923695727145,41.50062754703396],[-81.46920413822085,41.50060785912298],[-81.46916808433693,41.500591681835964],[-81.46912945408475,41.500579313222545],[-81.46894540275775,41.5007441249371],[-81.46893668191298,41.500768109246174]]]},"properties":{"source_county":"Cuyahoga","jurisdiction":"PEPPER PIKE","parcel_id":"87107031","owner_name":"PEPPER PIKE TOWNHOMES LLC","property_address":"0  EDGEWOOD (PRIVATE) TRL, PEPPER PIKE, OH, 44124","property_city":"PEPPER PIKE","property_zip":"44124"}},{"type":"Feature","geometry":{"type":"Polygon","coordinates":[[[-81.47122019217869,41.500781186944494],[-81.47138354811817,41.50078256818289],[-81.47138675330709,41.50056848462874],[-81.47130590762649,41.50054935108098],[-81.47122391479722,41.50053320943737],[-81.47122019217869,41.500781186944494]]]},"properties":{"source_county":"Cuyahoga","jurisdiction":"PEPPER PIKE","parcel_id":"87105113","owner_name":"CBT PEPPER PIKE 51 LLC","property_address":"29125  ADDISON CT, PEPPER PIKE, OH, 44124","property_city":"PEPPER PIKE","property_zip":"44124"}},{"type":"Feature","geometry":{"type":"Polygon","coordinates":[[[-81.46313553967455,41.50023466567651],[-81.46317880433529,41.50061366666375],[-81.4642356453176,41.50062001311035],[-81.4642362930029,41.500528215296015],[-81.46423967156667,41.50024129742572],[-81.46313553967455,41.50023466567651]]]},"properties":{"source_county":"Cuyahoga","jurisdiction":"PEPPER PIKE","parcel_id":"87107016","owner_name":"LANDER 2412 PP LLC","property_address":"2412  LANDER RD, PEPPER PIKE, OH, 44124","property_city":"PEPPER PIKE","property_zip":"44124"}},{"type":"Feature","geometry":{"type":"Polygon","coordinates":[[[-81.47403398424483,41.50088850093804],[-81.4741583604875,41.500889599602694],[-81.47416186212047,41.50066574747124],[-81.47403675015758,41.50065896976977],[-81.47403398424483,41.50088850093804]]]},"properties":{"source_county":"Cuyahoga","jurisdiction":"PEPPER PIKE","parcel_id":"87105068","owner_name":" CBT PEPPER PIKE 15 LLC ","property_address":"28855  ADDISON CT, PEPPER PIKE, OH, 44124","property_city":"PEPPER PIKE","property_zip":"44124"}},{"type":"Feature","geometry":{"type":"Polygon","coordinates":[[[-81.45636600996662,41.50096426569722],[-81.45684125198957,41.50096917705199],[-81.45684128522723,41.50095962480298],[-81.4568437798488,41.50022541944137],[-81.45684656821943,41.499861844828956],[-81.45637199364472,41.499856476559096],[-81.45637195681378,41.49986346223969],[-81.45636602613628,41.5009612179659],[-81.45636600996662,41.50096426569722]]]},"properties":{"source_county":"Cuyahoga","jurisdiction":"PEPPER PIKE","parcel_id":"87109016","owner_name":"HOCH, ALBERT P. AND HOCH, NANCY R.","property_address":"31350  CEDAR RD, PEPPER PIKE, OH, 44124","property_city":"PEPPER PIKE","property_zip":"44124"}},{"type":"Feature","geometry":{"type":"Polygon","coordinates":[[[-81.45865347641283,41.500987887292],[-81.45924380789504,41.50099397669685],[-81.45924388784512,41.50098817053577],[-81.45925432716702,41.50025091033231],[-81.45908327715715,41.500249103202854],[-81.45866395975219,41.5002446714969],[-81.45866387800551,41.50025047705183],[-81.45865347641283,41.500987887292]]]},"properties":{"source_county":"Cuyahoga","jurisdiction":"PEPPER PIKE","parcel_id":"87109020","owner_name":"WALDEN BARBARA TRUSTEE","property_address":"31100  CEDAR RD, PEPPER PIKE, OH, 44124","property_city":"PEPPER PIKE","property_zip":"44124"}},{"type":"Feature","geometry":{"type":"Polygon","coordinates":[[[-81.46843456588998,41.500528448082335],[-81.46839533376658,41.50050749596307],[-81.46836088247711,41.50048223661404],[-81.4683320411666,41.500453275544544],[-81.46830950243611,41.50042131110976],[-81.46829380976642,41.5003871109636],[-81.4681758304269,41.50071357148855],[-81.46835447838745,41.50075005962307],[-81.46843456588998,41.500528448082335]]]},"properties":{"source_county":"Cuyahoga","jurisdiction":"PEPPER PIKE","parcel_id":"87107035","owner_name":"MARTINO, JOHN WILLIAM & IRENE F. ","property_address":"2515  EDGEWOOD TRACE, PEPPER PIKE, OH, 44124","property_city":"PEPPER PIKE","property_zip":"44124"}},{"type":"Feature","geometry":{"type":"Polygon","coordinates":[[[-81.46846835512109,41.500147573530015],[-81.46846689446042,41.50028108723368],[-81.46874356568647,41.5002827947885],[-81.46874502634711,41.50014928176116],[-81.46846835512109,41.500147573530015]]]},"properties":{"source_county":"Cuyahoga","jurisdiction":"PEPPER PIKE","parcel_id":"87107052","owner_name":"2522 EDGEWOOD LLC","property_address":"2522  EDGEWOOD(PRIVATE) TRL, PEPPER PIKE, OH, 44124","property_city":"PEPPER PIKE","property_zip":"44124"}},{"type":"Feature","geometry":{"type":"Polygon","coordinates":[[[-81.47403675015758,41.50065896976977],[-81.47391171005992,41.5006471804428],[-81.47390795150878,41.50088738679925],[-81.47403396807515,41.50088850093804],[-81.47403675015758,41.50065896976977]]]},"properties":{"source_county":"Cuyahoga","jurisdiction":"PEPPER PIKE","parcel_id":"87105069","owner_name":" CBT PEPPER PIKE 16 LLC ","property_address":"28875  ADDISON CT, PEPPER PIKE, OH, 44124","property_city":"PEPPER PIKE","property_zip":"44124"}},{"type":"Feature","geometry":{"type":"Polygon","coordinates":[[[-81.46609604818616,41.500541772744015],[-81.46608949856943,41.50104941709915],[-81.46654583375062,41.50105267204486],[-81.46655813977169,41.5000977777985],[-81.46610261756584,41.5000321618576],[-81.46609604818616,41.500541772744015]]]},"properties":{"source_county":"Cuyahoga","jurisdiction":"PEPPER PIKE","parcel_id":"87107020","owner_name":"SCOTT, KELVIN F. & WANNETTA J. ","property_address":"29900  CEDAR RD, PEPPER PIKE, OH, 44124","property_city":"PEPPER PIKE","property_zip":"44124"}},{"type":"Feature","geometry":{"type":"Polygon","coordinates":[[[-81.47493346194892,41.50010293748119],[-81.47492996750246,41.50032640402824],[-81.4750762006543,41.500327695794596],[-81.47507969420245,41.50010422925202],[-81.47493346194892,41.50010293748119]]]},"properties":{"source_county":"Cuyahoga","jurisdiction":"PEPPER PIKE","parcel_id":"87105085","owner_name":"  CBT PEPPER PIKE 32, LLC ","property_address":"28750  ADDISON CT, PEPPER PIKE, OH, 44124","property_city":"PEPPER PIKE","property_zip":"44124"}},{"type":"Feature","geometry":{"type":"Polygon","coordinates":[[[-81.45366496994336,41.50093537548609],[-81.45421252814333,41.50094134379393],[-81.45423071363794,41.49999878770235],[-81.45423087892796,41.499990264019104],[-81.45380333205668,41.500104929634006],[-81.45368036257575,41.50013790880273],[-81.45368020447226,41.50014616738461],[-81.45366496994336,41.50093537548609]]]},"properties":{"source_county":"Cuyahoga","jurisdiction":"PEPPER PIKE","parcel_id":"87111051","owner_name":"GHASSEMI, LALEH & MOTARJEM, REZA","property_address":"31900  CEDAR RD, PEPPER PIKE, OH, 44124","property_city":"PEPPER PIKE","property_zip":"44124"}},{"type":"Feature","geometry":{"type":"Polygon","coordinates":[[[-81.46423967156667,41.50024129742572],[-81.4642362930029,41.500528215296015],[-81.4650937223652,41.50053446823276],[-81.46510029713475,41.50002485661609],[-81.46424180326886,41.50001859488373],[-81.46423967156667,41.50024129742572]]]},"properties":{"source_county":"Cuyahoga","jurisdiction":"PEPPER PIKE","parcel_id":"87107023","owner_name":"TAUB, AARON D TRUSTEE ","property_address":"2423  SUFFOLK LN, PEPPER PIKE, OH, 44124","property_city":"PEPPER PIKE","property_zip":"44124"}},{"type":"Feature","geometry":{"type":"Polygon","coordinates":[[[-81.47465016474935,41.500671075306556],[-81.47452495756504,41.50066996856465],[-81.47452147210176,41.50089280409724],[-81.47464667928604,41.50089391083529],[-81.47465016474935,41.500671075306556]]]},"properties":{"source_county":"Cuyahoga","jurisdiction":"PEPPER PIKE","parcel_id":"87105065","owner_name":"CBT PEPPER PIKE 12 LLC","property_address":"28805  ADDISON CT, PEPPER PIKE, OH, 44124","property_city":"PEPPER PIKE","property_zip":"44124"}},{"type":"Feature","geometry":{"type":"Polygon","coordinates":[[[-81.45304349027697,41.5009285984856],[-81.45366496994336,41.50093537548609],[-81.45368020447226,41.50014616738461],[-81.45368036257575,41.50013790880273],[-81.45334015350967,41.500229148749675],[-81.45305552321021,41.50030548211935],[-81.45305536869998,41.50031343657649],[-81.45304349027697,41.5009285984856]]]},"properties":{"source_county":"Cuyahoga","jurisdiction":"PEPPER PIKE","parcel_id":"87111052","owner_name":"WORKMAN, DAVID B. & ZATROCH, EMILY K.","property_address":"32000  CEDAR RD, PEPPER PIKE, OH, 44124","property_city":"PEPPER PIKE","property_zip":"44124"}},{"type":"Feature","geometry":{"type":"Polygon","coordinates":[[[-81.4604012907319,41.500066921958854],[-81.46040121168015,41.50007272685691],[-81.4603894419533,41.5009364472384],[-81.46038970965124,41.50094250166308],[-81.46039067623849,41.50094851302877],[-81.46039233452852,41.50095444029536],[-81.46039467463982,41.50096023636761],[-81.46039767411457,41.50096585347767],[-81.46040131318976,41.50097125731341],[-81.46040556491602,41.50097640279796],[-81.46041039425899,41.500981249564155],[-81.4604157661844,41.50098576397269],[-81.46042163757309,41.50098990902022],[-81.46042796620426,41.50099365039463],[-81.46043470806048,41.500996969930775],[-81.46044180744616,41.5009998333165],[-81.46044921046241,41.50100222373217],[-81.46045685871874,41.50100412099423],[-81.46046470011287,41.50100550761012],[-81.46047267445763,41.50100637887048],[-81.46048071527774,41.50100672468346],[-81.46086343262307,41.50101066654772],[-81.46087614378435,41.50007762078661],[-81.46087622283609,41.500071813197756],[-81.4604012907319,41.500066921958854]]]},"properties":{"source_county":"Cuyahoga","jurisdiction":"PEPPER PIKE","parcel_id":"87109003","owner_name":"HARRISON, JACQUELINE K ","property_address":"30850  CEDAR RD, PEPPER PIKE, OH, 44124","property_city":"PEPPER PIKE","property_zip":"44124"}},{"type":"Feature","geometry":{"type":"Polygon","coordinates":[[[-81.47010704209943,41.501067647618655],[-81.47010643663492,41.501159672070095],[-81.47061952018923,41.50116315441201],[-81.47062056403159,41.50107113467501],[-81.47062087484869,41.501043691004774],[-81.47075342396381,41.50104459052168],[-81.47088119224499,41.50104545774478],[-81.47100896322111,41.50104632564066],[-81.47328990789836,41.501061786968386],[-81.47329714921786,41.500562128085235],[-81.47329814365288,41.50049349782834],[-81.47325703944043,41.50049313452],[-81.47325803387545,41.500424549267194],[-81.47326272308123,41.50010100117054],[-81.4722449067115,41.50009410970724],[-81.47224327177769,41.500111239799395],[-81.47223880355745,41.50012808327549],[-81.47222806509656,41.50015045713718],[-81.47221234907066,41.50017110055836],[-81.47219212799361,41.50018939322238],[-81.47216800822822,41.50020478680223],[-81.47214071471495,41.50021681707077],[-81.47211106941225,41.50022512475668],[-81.47207996075396,41.500229457562995],[-81.47204832298797,41.50022968698645],[-81.47201710922681,41.500225805626265],[-81.47198725371832,41.500217931221144],[-81.47195965747281,41.500206297902594],[-81.47193514694028,41.500191258213974],[-81.47191445963762,41.500173261580976],[-81.47189821809727,41.50015284960258],[-81.47188690740953,41.50013063654021],[-81.47188427804069,41.50012288793651],[-81.47188087791733,41.50010735708654],[-81.47187986282105,41.50009163650397],[-81.47142278922473,41.500088537598955],[-81.47118818161186,41.50008694576018],[-81.47063181273558,41.50008317002068],[-81.47063251701478,41.500021065398606],[-81.47011539553326,41.50001755406496],[-81.47012916490993,41.498730360598316],[-81.46959977064502,41.498728769398994],[-81.46958682232851,41.49992566053196],[-81.46958338447591,41.50024311397454],[-81.46996223098068,41.50024543041056],[-81.47011170255912,41.500359525043834],[-81.47010704209943,41.501067647618655]],[[-81.47195982905103,41.500888562834625],[-81.47183461917177,41.50088771175639],[-81.47170940390264,41.500886863369246],[-81.47171240427568,41.50063512468813],[-81.47183746683122,41.50065029546805],[-81.47196256801432,41.50065995540934],[-81.47196223923095,41.50068745642946],[-81.47195982905103,41.500888562834625]],[[-81.47167107907767,41.50085801416378],[-81.47154587369,41.50085695653873],[-81.47142066111581,41.50085589756807],[-81.47142482211221,41.50057834372879],[-81.47154962864789,41.50060685262606],[-81.47167449986227,41.50062941335853],[-81.47167107907767,41.50085801416378]],[[-81.47138354811817,41.50078256818289],[-81.47122019577195,41.500781186944494],[-81.47105683713754,41.50077980570606],[-81.47106089842093,41.50051042059459],[-81.47114277087593,41.50052034967393],[-81.4712239183905,41.50053321078298],[-81.4713059085248,41.500549351753776],[-81.47138675330709,41.50056848462874],[-81.47138354811817,41.50078256818289]],[[-81.47077100938381,41.50076096757579],[-81.47064580309782,41.5007599079308],[-81.47052059142196,41.500758848285805],[-81.47052452424627,41.500496282519535],[-81.47064973861707,41.500497132930114],[-81.47077494849633,41.50049798064956],[-81.47077100938381,41.50076096757579]],[[-81.47048047805124,41.50075764264524],[-81.47035527266358,41.50075658367299],[-81.4702300609877,41.50075552335514],[-81.47023456603884,41.50045466822742],[-81.47027460125612,41.500469054572356],[-81.4703163064415,41.50048045034763],[-81.47035928723457,41.50048874723505],[-81.47040293008602,41.50049384902639],[-81.47044702479006,41.5004957563952],[-81.4704844072823,41.50049600801987],[-81.47048047805124,41.50075764264524]],[[-81.47159463154868,41.50047384755309],[-81.47147489510446,41.50044621121068],[-81.47145964440587,41.500442244418714],[-81.47135571831068,41.50041733556994],[-81.47147200791915,41.500150037984795],[-81.47159102391451,41.50017929992992],[-81.47171003362166,41.50020855917071],[-81.47159463154868,41.50047384755309]],[[-81.47139085231973,41.500155653146756],[-81.47132466804287,41.50041083301527],[-81.47120269838685,41.50038929821804],[-81.47107911266164,41.500373801071646],[-81.47114504990182,41.50011962083378],[-81.47126795470402,41.500137638338344],[-81.47139085231973,41.500155653146756]],[[-81.47105224135655,41.500371254544454],[-81.47092712220714,41.500363171590685],[-81.47084304887971,41.50036121375836],[-81.47080194556557,41.50036093454858],[-81.47080475369914,41.5001250583799],[-81.47092996717164,41.50012590812259],[-81.47105517345763,41.500126757865274],[-81.47105224135655,41.500371254544454]],[[-81.47047150837314,41.50035869414248],[-81.47044865433398,41.50035853603572],[-81.47040210633092,41.50035521713965],[-81.47035698844576,41.50034599312392],[-81.47034645300411,41.5003429070142],[-81.47030779849744,41.50032808332449],[-81.47027274354011,41.50030885484158],[-81.47024217027773,41.500285704628716],[-81.47022205160863,41.500267839217116],[-81.47022428212547,41.500059104049384],[-81.4703494964963,41.50005986094684],[-81.4704747036806,41.50006061717153],[-81.47047150837314,41.50035869414248]],[[-81.47051413882326,41.500124495921554],[-81.47063935229578,41.50012529856846],[-81.47076455948006,41.50012610121536],[-81.47076190316177,41.500360664757935],[-81.47063669328253,41.50035981232715],[-81.47051147891169,41.50035896191471],[-81.47051413882326,41.500124495921554]],[[-81.47256105350438,41.500241686301734],[-81.4726824769847,41.50021868340719],[-81.47280389327851,41.50019568185004],[-81.47288317139896,41.50043224804802],[-81.47282139335856,41.50044031148217],[-81.47276026839336,41.50045081917481],[-81.47270922971218,41.500461587236906],[-81.47263975670305,41.50047648961291],[-81.47256105350438,41.500241686301734]],[[-81.47296540767165,41.50017054415559],[-81.4730906184492,41.50017160111903],[-81.47321582293857,41.50017265740965],[-81.47321206887898,41.50042414222682],[-81.4731856431383,41.500423908767324],[-81.47308686349132,41.500423036153556],[-81.47306919362968,41.50042287804696],[-81.47301535400145,41.50042332074536],[-81.47296159791654,41.50042559815293],[-81.47296540767165,41.50017054415559]],[[-81.472558932582,41.50049131192304],[-81.4724787768075,41.500503409417654],[-81.47239803443314,41.5005130438147],[-81.47231679798537,41.50052020300508],[-81.47223524173737,41.50052486882412],[-81.47223017703578,41.50049758908391],[-81.47219182436305,41.5002910022195],[-81.47235362442044,41.50027402624507],[-81.47251541639301,41.50025705026615],[-81.472558932582,41.50049131192304]],[[-81.47186923036136,41.500277561785445],[-81.4719930226991,41.50029171538256],[-81.47195207120023,41.500494123526074],[-81.47194656991743,41.500521312440654],[-81.4718221775051,41.500510077470125],[-81.47169895380094,41.5004930315826],[-81.47174543532869,41.500263406839636],[-81.47186923036136,41.500277561785445]],[[-81.47300956256281,41.50056081950375],[-81.47306705114774,41.50056009154217],[-81.47313480208646,41.50056069100036],[-81.47326001286402,41.50056179774407],[-81.47325649955293,41.50079603340534],[-81.4731312896737,41.50079497645208],[-81.47300608159108,41.50079391949881],[-81.47300956256281,41.50056081950375]],[[-81.47297630333773,41.50078865491589],[-81.4728189211949,41.50082158933229],[-81.47266153725543,41.50085452844151],[-81.47257788703449,41.500628630901616],[-81.47265749842992,41.500614774079374],[-81.47273636602029,41.500598693676196],[-81.47276246118098,41.50059284576651],[-81.47282829601322,41.5005795749388],[-81.47289517648443,41.500569692291194],[-81.47297630333773,41.50078865491589]],[[-81.47254920203083,41.50089254978297],[-81.47242399215159,41.50089169937753],[-81.47229877688245,41.500890850990494],[-81.47230122568993,41.50068653672382],[-81.47230155537163,41.50065898187998],[-81.47242688921838,41.50064856841193],[-81.47255228415058,41.50063259095428],[-81.47254920203083,41.50089254978297]],[[-81.47005417085506,41.5000207747498],[-81.4697769157241,41.50001909948238],[-81.46976122754597,41.4999895010656],[-81.46975180242201,41.499958436606754],[-81.46974886762598,41.499926651565076],[-81.46974919461275,41.499896109168425],[-81.469750508848,41.49977329624029],[-81.47005678135929,41.49977514846069],[-81.47005546802234,41.49989796205808],[-81.47005417085506,41.5000207747498]],[[-81.47006325911082,41.49965094394866],[-81.47006225120104,41.499745073589295],[-81.46975083134319,41.49974319041922],[-81.46975183925292,41.499649060775845],[-81.46975284626437,41.49955492561319],[-81.4700642643256,41.499556809461545],[-81.47006325911082,41.49965094394866]],[[-81.47006738327626,41.499432529849486],[-81.47006637806146,41.499526659807586],[-81.4697531660646,41.49952476788472],[-81.46975417666931,41.499430635905476],[-81.46975518368075,41.499336501770955],[-81.47006839028771,41.49933839571778],[-81.47006738327626,41.499432529849486]],[[-81.46985988322541,41.49901748902365],[-81.46969652099773,41.4990169978734],[-81.46969778043577,41.49878028992505],[-81.46986114176514,41.4987807810771],[-81.47002449770461,41.498781271556325],[-81.47002324365647,41.49901798219236],[-81.46985988322541,41.49901748902365]]]},"properties":{"source_county":"Cuyahoga","jurisdiction":"PEPPER PIKE","parcel_id":"87105131","owner_name":"CBT PEPPER PIKE PHASE 2 COMMON AREAS LLC","property_address":"0  ADDISON CT, PEPPER PIKE, OH, 44124","property_city":"PEPPER PIKE","property_zip":"44124"}},{"type":"Feature","geometry":{"type":"Polygon","coordinates":[[[-81.47120269479359,41.500389297545226],[-81.47132466804287,41.50041083301527],[-81.47139085231973,41.500155653146756],[-81.47126795111078,41.500137636992775],[-81.47120269479359,41.500389297545226]]]},"properties":{"source_county":"Cuyahoga","jurisdiction":"PEPPER PIKE","parcel_id":"87105120","owner_name":"CBT PEPPER PIKE  72 LLC","property_address":"29120  ADDISON CT, PEPPER PIKE, OH, 44124","property_city":"PEPPER PIKE","property_zip":"44124"}},{"type":"Feature","geometry":{"type":"Polygon","coordinates":[[[-81.47372596451032,41.50009226085996],[-81.47372246736892,41.5003157274438],[-81.47384767365489,41.5003168348645],[-81.4738511707963,41.500093368957295],[-81.47372596451032,41.50009226085996]]]},"properties":{"source_county":"Cuyahoga","jurisdiction":"PEPPER PIKE","parcel_id":"87105077","owner_name":"  CBT PEPPER PIKE 24, LLC ","property_address":"28910  ADDISON CT, PEPPER PIKE, OH, 44124","property_city":"PEPPER PIKE","property_zip":"44124"}},{"type":"Feature","geometry":{"type":"Polygon","coordinates":[[[-81.45973068220265,41.50099899636826],[-81.46011439308467,41.501002950343185],[-81.46012236832776,41.50100277205437],[-81.46013029506183,41.50100206966373],[-81.46013810950647,41.501000846535206],[-81.46014574877967,41.500999117470094],[-81.46015315898244,41.50099689390574],[-81.46016028441926,41.50099419131625],[-81.46016706759798,41.50099103055793],[-81.4601734582129,41.500987437196756],[-81.46017940775504,41.500983439489666],[-81.46018486322376,41.50097906434812],[-81.46018980036456,41.50097434944824],[-81.46019416078695,41.500969327083766],[-81.4601979256263,41.50096403896752],[-81.46020106164495,41.50095852277557],[-81.46020354279177,41.50095281954794],[-81.46020535559202,41.500946978398176],[-81.46020647848613,41.5009410403663],[-81.46020690967747,41.500935051201935],[-81.46021868928578,41.50007084706036],[-81.46021876833753,41.500065042162085],[-81.46020681625266,41.50006491904013],[-81.45974348858532,41.5000601428491],[-81.45974340953357,41.500065947747814],[-81.45973068220265,41.50099899636826]]]},"properties":{"source_county":"Cuyahoga","jurisdiction":"PEPPER PIKE","parcel_id":"87109002","owner_name":"BALDERAS, MARIA DE LOURDES RAMIREZ ","property_address":"30926  CEDAR RD, PEPPER PIKE, OH, 44124","property_city":"PEPPER PIKE","property_zip":"44124"}},{"type":"Feature","geometry":{"type":"Polygon","coordinates":[[[-81.4726824769847,41.50021868340719],[-81.47256105350438,41.500241686301734],[-81.47263975670305,41.50047648961291],[-81.47270922971218,41.500461587236906],[-81.47276026839336,41.50045081917481],[-81.4726824769847,41.50021868340719]]]},"properties":{"source_county":"Cuyahoga","jurisdiction":"PEPPER PIKE","parcel_id":"87105127","owner_name":"CBT PEPPER PIKE 79 LLC","property_address":"28990  ADDISON CT, PEPPER PIKE, OH, 44124","property_city":"PEPPER PIKE","property_zip":"44124"}},{"type":"Feature","geometry":{"type":"Polygon","coordinates":[[[-81.4553949500091,41.50095422365747],[-81.45588049301342,41.500959245350316],[-81.45588050918309,41.50095613437667],[-81.45588643986059,41.4998591482473],[-81.45588648387806,41.499850983820785],[-81.45538913880752,41.49984535450363],[-81.45538309314567,41.50094667093377],[-81.45538305182315,41.500954093809305],[-81.4553949500091,41.50095422365747]]]},"properties":{"source_county":"Cuyahoga","jurisdiction":"PEPPER PIKE","parcel_id":"87109018","owner_name":"ANSTINE, NICHOLAS A. & SARAH L. ","property_address":"31600  CEDAR RD, PEPPER PIKE, OH, 44124","property_city":"PEPPER PIKE","property_zip":"44124"}},{"type":"Feature","geometry":{"type":"Polygon","coordinates":[[[-81.47372790756627,41.5008560381811],[-81.47385229458872,41.50085713886466],[-81.47385571267837,41.50063872143282],[-81.47373079115835,41.50062032057625],[-81.47372790756627,41.5008560381811]]]},"properties":{"source_county":"Cuyahoga","jurisdiction":"PEPPER PIKE","parcel_id":"87105070","owner_name":" CBT PEPPER PIKE 17 LLC ","property_address":"28895  ADDISON CT, PEPPER PIKE, OH, 44124","property_city":"PEPPER PIKE","property_zip":"44124"}},{"type":"Feature","geometry":{"type":"Polygon","coordinates":[[[-81.45588049301342,41.500959245350316],[-81.45636600996662,41.50096426569722],[-81.45636602613628,41.5009612179659],[-81.45637195681378,41.49986346223969],[-81.45637199364472,41.499856476559096],[-81.45602980828501,41.49985260526855],[-81.45588648387806,41.499850983820785],[-81.45588643986059,41.4998591482473],[-81.45588050918309,41.50095613437667],[-81.45588049301342,41.500959245350316]]]},"properties":{"source_county":"Cuyahoga","jurisdiction":"PEPPER PIKE","parcel_id":"87109017","owner_name":"SADANA, DIVYAJOT & KAUR, SIMRAT","property_address":"31540  CEDAR RD, PEPPER PIKE, OH, 44124","property_city":"PEPPER PIKE","property_zip":"44124"}},{"type":"Feature","geometry":{"type":"Polygon","coordinates":[[[-81.46747078498122,41.50010443647357],[-81.46745849243487,41.501059175207885],[-81.46792959232606,41.5010625290528],[-81.46793676896685,41.500407107754214],[-81.46794004512272,41.50010784688296],[-81.46747078498122,41.50010443647357]]]},"properties":{"source_county":"Cuyahoga","jurisdiction":"PEPPER PIKE","parcel_id":"87107017","owner_name":"KHANDEL, JINOUS","property_address":"0  CEDAR RD, PEPPER PIKE, OH, 44124","property_city":"PEPPER PIKE","property_zip":"44124"}},{"type":"Feature","geometry":{"type":"Polygon","coordinates":[[[-81.46958338447591,41.50024311397454],[-81.46957447767987,41.501064028695765],[-81.4695734742617,41.50115648508119],[-81.47010643663492,41.501159672070095],[-81.47010704120112,41.501067647618655],[-81.47011170255912,41.500359525043834],[-81.46996223098068,41.50024543041056],[-81.46958338447591,41.50024311397454]]]},"properties":{"source_county":"Cuyahoga","jurisdiction":"PEPPER PIKE","parcel_id":"87107075","owner_name":"ROSE- MARY HOUSING CORPORATION","property_address":"29400  CEDAR RD, PEPPER PIKE, OH, 44124","property_city":"PEPPER PIKE","property_zip":"44124"}},{"type":"Feature","geometry":{"type":"Polygon","coordinates":[[[-81.47235362442044,41.50027402624507],[-81.47219182436305,41.5002910022195],[-81.47223017703578,41.50049758908391],[-81.47223524173737,41.50052486882412],[-81.47231679798537,41.50052020300508],[-81.47239803443314,41.5005130438147],[-81.47235362442044,41.50027402624507]]]},"properties":{"source_county":"Cuyahoga","jurisdiction":"PEPPER PIKE","parcel_id":"87105125","owner_name":"CBT PEPPER PIKE 77 LLC","property_address":"29020  ADDISON CT, PEPPER PIKE, OH, 44124","property_city":"PEPPER PIKE","property_zip":"44124"}},{"type":"Feature","geometry":{"type":"Polygon","coordinates":[[[-81.47462632166507,41.50010022274404],[-81.47462282721861,41.500323689300444],[-81.47474803350461,41.50032479604822],[-81.47475152795107,41.500101329495614],[-81.47475108687827,41.500101325458864],[-81.47462632166507,41.50010022274404]]]},"properties":{"source_county":"Cuyahoga","jurisdiction":"PEPPER PIKE","parcel_id":"87105083","owner_name":"  CBT PEPPER PIKE 30, LLC ","property_address":"28810  ADDISON CT, PEPPER PIKE, OH, 44124","property_city":"PEPPER PIKE","property_zip":"44124"}},{"type":"Feature","geometry":{"type":"Polygon","coordinates":[[[-81.47355861735603,41.50044744242324],[-81.47356298855821,41.50016823915437],[-81.4734386383667,41.50016713913191],[-81.47343355659714,41.50043623569721],[-81.47349631739445,41.500440389526226],[-81.47355861735603,41.50044744242324]]]},"properties":{"source_county":"Cuyahoga","jurisdiction":"PEPPER PIKE","parcel_id":"87105075","owner_name":" CBT PEPPER PIKE 22, LLC ","property_address":"28930  ADDISON CT, PEPPER PIKE, OH, 44124","property_city":"PEPPER PIKE","property_zip":"44124"}},{"type":"Feature","geometry":{"type":"Polygon","coordinates":[[[-81.45744882663368,41.50097545349379],[-81.45805115242156,41.50098167207511],[-81.45806156030245,41.50024410769397],[-81.45806164204913,41.50023830415685],[-81.45804966301483,41.500238177671186],[-81.4574593252444,41.500231933452184],[-81.4574592434977,41.5002377383355],[-81.45744882663368,41.50097545349379]]]},"properties":{"source_county":"Cuyahoga","jurisdiction":"PEPPER PIKE","parcel_id":"87109022","owner_name":"PATTERSON, A'JA J. & CLARK E. ","property_address":"31200  CEDAR RD, PEPPER PIKE, OH, 44124","property_city":"PEPPER PIKE","property_zip":"44124"}},{"type":"Feature","geometry":{"type":"Polygon","coordinates":[[[-81.47154587009673,41.50085695653873],[-81.47167107907767,41.50085801416378],[-81.47167449986227,41.50062941335853],[-81.47154962505464,41.500606851953314],[-81.47154587009673,41.50085695653873]]]},"properties":{"source_county":"Cuyahoga","jurisdiction":"PEPPER PIKE","parcel_id":"87105111","owner_name":"CBT PEPPER PIKE 49 LLC","property_address":"29085  ADDISON CT, PEPPER PIKE, OH, 44124","property_city":"PEPPER PIKE","property_zip":"44124"}},{"type":"Feature","geometry":{"type":"Polygon","coordinates":[[[-81.46878538495788,41.49993962447666],[-81.46878494119014,41.49998014916604],[-81.46878478937485,41.499993967101766],[-81.46878369522685,41.50009403906347],[-81.46878187793503,41.50011772892818],[-81.46906007000885,41.5001194284138],[-81.46906142376997,41.4999956578442],[-81.46906201665806,41.4999413340589],[-81.46878538495788,41.49993962447666]]]},"properties":{"source_county":"Cuyahoga","jurisdiction":"PEPPER PIKE","parcel_id":"87107085","owner_name":"COY, MELANIE L TRUSTEE","property_address":"2421  EDGEWOOD TRL, PEPPER PIKE, OH, 44124","property_city":"PEPPER PIKE","property_zip":"44124"}}]}