{"type":"FeatureCollection","features":[{"type":"Feature","geometry":{"type":"Polygon","coordinates":[[[-81.42535000211933,41.40351528886606],[-81.42560040211487,41.40373294739509],[-81.42644755205536,41.40331030449702],[-81.42642750974305,41.40331812531538],[-81.42640663469248,41.403324603919664],[-81.42638509309198,41.40332968842762],[-81.42636304394331,41.40333333773758],[-81.42634065792646,41.403335528266766],[-81.42631810212798,41.403336242496565],[-81.42629554902445,41.40333547368886],[-81.4262731701941,41.40333322656032],[-81.42625113901175,41.4033295226724],[-81.42622961537754,41.40332438560791],[-81.42620877625959,41.403317854447025],[-81.42618876628663,41.40330998444111],[-81.4261697444605,41.403300828819994],[-81.4261518545116,41.403290461027595],[-81.4261352338822,41.40327895720297],[-81.42612000743814,41.40326640763501],[-81.42610628746881,41.40325290732936],[-81.42609418626363,41.40323855870332],[-81.42608379275579,41.40322347023859],[-81.42608022824075,41.403218279935345],[-81.42607608341402,41.40321333624351],[-81.42607140229308,41.403208676896135],[-81.42606620464083,41.40320433558342],[-81.42606054076298,41.40320033925765],[-81.4260544412022,41.40319672228277],[-81.42604795806079,41.403193510937115],[-81.42604113625453,41.40319072273976],[-81.42603402159747,41.40318838396893],[-81.42602667068351,41.40318650944846],[-81.42601913202162,41.40318511400204],[-81.42601146669732,41.40318420571529],[-81.4257933773059,41.403173117608524],[-81.42557486211302,41.403177211637455],[-81.42535777344484,41.40319644737107],[-81.42523596907884,41.40321155470853],[-81.42522802707343,41.403212677264236],[-81.42522032491817,41.40321458884309],[-81.42521283207039,41.40321687775152],[-81.42520563836159,41.40321965381934],[-81.42519880038563,41.40322290020144],[-81.42519237204147,41.40322659061936],[-81.42518640273641,41.40323069542579],[-81.42518093738623,41.40323518227808],[-81.42517602360162,41.403240016812234],[-81.42517170001015,41.403245159273816],[-81.42516799895118,41.40325056990841],[-81.42516494647585,41.40325620694015],[-81.42516257312685,41.403262025224265],[-81.42516088968404,41.40326798028973],[-81.42515991501195,41.403274022275184],[-81.42515965899209,41.40328010603575],[-81.42516011803119,41.40328618373157],[-81.42516129123095,41.403292205501266],[-81.42516316601495,41.403298126873864],[-81.42516573250172,41.4033038986619],[-81.42516896643676,41.40330947841584],[-81.42522140199819,41.40338190197526],[-81.42528189724437,41.403450673455495],[-81.42535000211933,41.40351528886606]]]},"properties":{"source_county":"Cuyahoga","jurisdiction":"BENTLEYVILLE","parcel_id":"94102001","owner_name":"PUTT, STEPHEN","property_address":"35614  QUARTERMANE CIR, BENTLEYVILLE, OH, 44139","property_city":"BENTLEYVILLE","property_zip":"44139"}},{"type":"Feature","geometry":{"type":"Polygon","coordinates":[[[-81.42846127398674,41.4088899789464],[-81.42883201499271,41.40889598470065],[-81.42919011760092,41.40890213059309],[-81.42919297604017,41.40881184075885],[-81.42920911966415,41.40830186307727],[-81.4292251869313,41.40779426648689],[-81.42923379818163,41.40752227961406],[-81.42894221402355,41.40751773713586],[-81.4284898422094,41.4075106849075],[-81.42846312721117,41.40880046390207],[-81.42846127398674,41.4088899789464]]]},"properties":{"source_county":"Cuyahoga","jurisdiction":"BENTLEYVILLE","parcel_id":"94104005","owner_name":"GAJAN, LORI, A.","property_address":"35032  CANNON RD, BENTLEYVILLE, OH, 44022","property_city":"BENTLEYVILLE","property_zip":"44022"}},{"type":"Feature","geometry":{"type":"Polygon","coordinates":[[[-81.42810667211316,41.406174931081516],[-81.42816399989965,41.40623099968557],[-81.4281908685098,41.40627956243139],[-81.42822900019699,41.406351998850894],[-81.42822991468194,41.40635883492477],[-81.42824893021988,41.406355743666566],[-81.42835541381871,41.406338435178085],[-81.42927600372862,41.406188798659684],[-81.42927897805052,41.406094800650635],[-81.4292834318977,41.405954040550775],[-81.42929507675872,41.40558615593666],[-81.42821654236063,41.406120498349374],[-81.42812534179973,41.40616568086216],[-81.42810667211316,41.406174931081516]]]},"properties":{"source_county":"Cuyahoga","jurisdiction":"BENTLEYVILLE","parcel_id":"94104017","owner_name":"IGNATOWSKI, MICHAEL J. & GALINA","property_address":"70  BERKSHIRE PARK DR, BENTLEYVILLE, OH, 44022","property_city":"BENTLEYVILLE","property_zip":"44022"}},{"type":"Feature","geometry":{"type":"Polygon","coordinates":[[[-81.42539057183419,41.40884112507285],[-81.42613766921495,41.408853108292526],[-81.42613951345623,41.40876421641182],[-81.42616627426854,41.407474437371434],[-81.42621269560915,41.40523694513008],[-81.42587854208641,41.40523291726152],[-81.425837799895,41.40523242809581],[-81.42548651909306,41.4052282088729],[-81.42539292452193,41.40875255994231],[-81.42539057183419,41.40884112507285]]]},"properties":{"source_county":"Cuyahoga","jurisdiction":"BENTLEYVILLE","parcel_id":"94104002","owner_name":"KVACEK KENNETH C.","property_address":"35054  CANNON RD, BENTLEYVILLE, OH, 44022","property_city":"BENTLEYVILLE","property_zip":"44022"}},{"type":"Feature","geometry":{"type":"Polygon","coordinates":[[[-81.42857410957293,41.40291824830111],[-81.42937588740506,41.402931352478525],[-81.42938128358496,41.40275315417156],[-81.42939101413612,41.40243179696968],[-81.42852715014146,41.402686914125006],[-81.42853193995856,41.40269564668103],[-81.42855174152236,41.40274392570077],[-81.42856556120469,41.402793369023605],[-81.42857328312287,41.40284355888674],[-81.42857484169991,41.402894072138054],[-81.42857410957293,41.40291824830111]]]},"properties":{"source_county":"Cuyahoga","jurisdiction":"BENTLEYVILLE","parcel_id":"94102009","owner_name":"METCALFE, PAUL & GAIL ","property_address":"35235  QUARTERMANE CIR, BENTLEYVILLE, OH, 44139","property_city":"BENTLEYVILLE","property_zip":"44139"}},{"type":"Feature","geometry":{"type":"Polygon","coordinates":[[[-81.42741976634801,41.4030477455958],[-81.42835096805636,41.40306238332608],[-81.42835617918333,41.40289031432059],[-81.42835508683194,41.40285495700077],[-81.42834968166889,41.40281982403946],[-81.42834000591495,41.402785211238424],[-81.42832614670675,41.40275141844291],[-81.42830822082524,41.402718727306016],[-81.42828637739082,41.402687413417034],[-81.42826080055804,41.40265774697518],[-81.42823170951588,41.40262997257538],[-81.42816126902119,41.40256874622076],[-81.42742125575477,41.40292064974557],[-81.42741976634801,41.4030477455958]]]},"properties":{"source_county":"Cuyahoga","jurisdiction":"BENTLEYVILLE","parcel_id":"94102002","owner_name":"WEPLER, CAROLE J. & CHARLES A. - CO-TRUSTEES","property_address":"35198  QUARTERMANE CIR, BENTLEYVILLE, OH, 44139","property_city":"BENTLEYVILLE","property_zip":"44139"}},{"type":"Feature","geometry":{"type":"Polygon","coordinates":[[[-81.42806112213837,41.402230194419936],[-81.42833864406899,41.4024714096339],[-81.42906293681796,41.40201108484962],[-81.42894226702415,41.401906202030965],[-81.42858673449595,41.40190196911577],[-81.42806112213837,41.402230194419936]]]},"properties":{"source_county":"Cuyahoga","jurisdiction":"BENTLEYVILLE","parcel_id":"94102007","owner_name":"CRIVELLI, BRITTANY AND CRIVELLI, JUSTIN (CO-TRS)","property_address":"35183  QUARTERMANE CIR, BENTLEYVILLE, OH, 44139","property_city":"BENTLEYVILLE","property_zip":"44139"}},{"type":"Feature","geometry":{"type":"Polygon","coordinates":[[[-81.42855134895858,41.40366968384017],[-81.42935312229912,41.40368323998451],[-81.42936456773415,41.403305234137385],[-81.42856274408797,41.403293501896464],[-81.42855134895858,41.40366968384017]]]},"properties":{"source_county":"Cuyahoga","jurisdiction":"BENTLEYVILLE","parcel_id":"94102011","owner_name":"DANIELS-KING, SUZANNE M. ET AL","property_address":"35287  QUARTERMANE CIR, BENTLEYVILLE, OH, 44139","property_city":"BENTLEYVILLE","property_zip":"44139"}},{"type":"Feature","geometry":{"type":"Polygon","coordinates":[[[-81.42642454260768,41.40296373894832],[-81.4264283766173,41.40296494169118],[-81.42644838120037,41.40297282117216],[-81.42646739583998,41.40298198357751],[-81.42648527860234,41.4029923561358],[-81.42650189204521,41.40300386540159],[-81.42651711130276,41.403016418389235],[-81.42653082049232,41.40302992346067],[-81.42654291451097,41.40304427819704],[-81.4265533008323,41.40305936872476],[-81.4265568392962,41.403065836573994],[-81.4272956218707,41.402811704664565],[-81.42718298391384,41.40271402749472],[-81.42689704746397,41.402466075075004],[-81.42675765677966,41.40234519737152],[-81.42642454260768,41.40296373894832]]]},"properties":{"source_county":"Cuyahoga","jurisdiction":"BENTLEYVILLE","parcel_id":"94102044","owner_name":"FRATE, CHRISTOPHER P. AND LANZA, KRISTINA ","property_address":"35500  PHEASANT CT, BENTLEYVILLE, OH, 44139","property_city":"BENTLEYVILLE","property_zip":"44139"}},{"type":"Feature","geometry":{"type":"Polygon","coordinates":[[[-81.42659403404052,41.403584600592],[-81.42674604515629,41.40371083268252],[-81.427018783558,41.40371244777571],[-81.4274119429202,41.40371477776825],[-81.42741512834618,41.403443262997634],[-81.42656157251943,41.40320835886112],[-81.42655289479379,41.40322405240424],[-81.42654243301399,41.40323911459048],[-81.42653027251998,41.403253434242906],[-81.42651649775341,41.40326689883696],[-81.42650121471549,41.40327941067187],[-81.42648454737372,41.40329087137305],[-81.4264666089158,41.403301195368265],[-81.42646211374611,41.40330334479663],[-81.42659403404052,41.403584600592]]]},"properties":{"source_county":"Cuyahoga","jurisdiction":"BENTLEYVILLE","parcel_id":"94102042","owner_name":"FLOCKEN, KATHLEEN K.","property_address":"35400  PHEASANT CT, BENTLEYVILLE, OH, 44139","property_city":"BENTLEYVILLE","property_zip":"44139"}},{"type":"Feature","geometry":{"type":"Polygon","coordinates":[[[-81.4255743779211,41.402561555998105],[-81.42543771991187,41.40302164307274],[-81.42543704258215,41.40302392659753],[-81.42556744023216,41.403012527839266],[-81.42581426044131,41.40300878215715],[-81.42606043745673,41.403022754177],[-81.42618495203993,41.40246903040856],[-81.4255743779211,41.402561555998105]]]},"properties":{"source_county":"Cuyahoga","jurisdiction":"BENTLEYVILLE","parcel_id":"94102046","owner_name":"ZEGURA, NATHAN","property_address":"35600  PHEASANT CT, BENTLEYVILLE, OH, 44139","property_city":"BENTLEYVILLE","property_zip":"44139"}},{"type":"Feature","geometry":{"type":"Polygon","coordinates":[[[-81.42850170985261,41.40437255598803],[-81.42932549730752,41.40459564777212],[-81.42932807098079,41.4045106688262],[-81.42932973106743,41.40445579538874],[-81.42933056470403,41.404428355283706],[-81.42933222479068,41.40437347840778],[-81.42933305483399,41.404346040963134],[-81.42933471492063,41.40429116401769],[-81.42933485236287,41.40428662535638],[-81.42933554945554,41.40426372451693],[-81.4293372095422,41.40420884750196],[-81.42933762366553,41.4041951304308],[-81.42934157894771,41.4040644481975],[-81.4285399008286,41.40404765657268],[-81.42853371592787,41.404251564591036],[-81.42853098774435,41.40428248625323],[-81.42852471031716,41.40431311210625],[-81.4285149267654,41.40434321104012],[-81.42850170985261,41.40437255598803]]]},"properties":{"source_county":"Cuyahoga","jurisdiction":"BENTLEYVILLE","parcel_id":"94102013","owner_name":"DUALE, JASON A. & EMILY C. ","property_address":"35339  QUARTERMANE CIR, BENTLEYVILLE, OH, 44139","property_city":"BENTLEYVILLE","property_zip":"44139"}},{"type":"Feature","geometry":{"type":"Polygon","coordinates":[[[-81.42767094787787,41.401891059351584],[-81.42778539414337,41.40199053482471],[-81.42793895485299,41.40189425256855],[-81.42767094787787,41.401891059351584]]]},"properties":{"source_county":"Cuyahoga","jurisdiction":"BENTLEYVILLE","parcel_id":"94102005","owner_name":"STARK, JUSTIN R. & MOREHOUSE, BRITTANY C","property_address":"0  QUARTERMANE CIR, BENTLEYVILLE, OH, 44139","property_city":"BENTLEYVILLE","property_zip":"44139"}},{"type":"Feature","geometry":{"type":"Polygon","coordinates":[[[-81.42700150176857,41.40442292520727],[-81.42740358140153,41.40442772596353],[-81.4274119429202,41.40371477776825],[-81.427018783558,41.40371244777571],[-81.42700150176857,41.40442292520727]]]},"properties":{"source_county":"Cuyahoga","jurisdiction":"BENTLEYVILLE","parcel_id":"94102038","owner_name":"RUBIN, RYAN K. & KASIA P.","property_address":"35458  QUARTERMANE CIR, BENTLEYVILLE, OH, 44139","property_city":"BENTLEYVILLE","property_zip":"44139"}},{"type":"Feature","geometry":{"type":"Polygon","coordinates":[[[-81.42759474558895,41.405253454132996],[-81.42784335703878,41.40525642281539],[-81.42805574122983,41.40525895690847],[-81.42805898235136,41.40460003076673],[-81.42805243542956,41.40460016619825],[-81.42759698149568,41.40459472872448],[-81.42759474558895,41.405253454132996]]]},"properties":{"source_county":"Cuyahoga","jurisdiction":"BENTLEYVILLE","parcel_id":"94102016","owner_name":"MARCIN, RONALD JAMES & JESSAMINE PROCTOR","property_address":"35417  QUARTERMANE CIR, BENTLEYVILLE, OH, 44139","property_city":"BENTLEYVILLE","property_zip":"44139"}},{"type":"Feature","geometry":{"type":"Polygon","coordinates":[[[-81.4273199374688,41.40711730316117],[-81.42727099994707,41.407197998964556],[-81.42726401644404,41.407231983490846],[-81.42725799952828,41.40726999978441],[-81.42726401464742,41.4073279836177],[-81.42728097663662,41.40739987177572],[-81.42733054387736,41.40749764498689],[-81.4273603562667,41.40756598494878],[-81.42747051487336,41.40753725995303],[-81.42762419146564,41.407497187504916],[-81.42807092455475,41.407504152146124],[-81.42807724869435,41.407273989796096],[-81.42793482170438,41.40685487418279],[-81.42790773749856,41.406775176474476],[-81.42790683828497,41.40677252924784],[-81.42785601519944,41.40678398461658],[-81.4277225246499,41.40677917662301],[-81.42766124427617,41.40677440905498],[-81.42759999983504,41.40675199892039],[-81.42732801511983,41.40710398422391],[-81.4273199374688,41.40711730316117]]]},"properties":{"source_county":"Cuyahoga","jurisdiction":"BENTLEYVILLE","parcel_id":"94104006","owner_name":"GRIFFITH, NANCY B. TRUSTEE","property_address":"110  BERKSHIRE PARK DR, BENTLEYVILLE, OH, 44022","property_city":"BENTLEYVILLE","property_zip":"44022"}},{"type":"Feature","geometry":{"type":"Polygon","coordinates":[[[-81.4285399008286,41.40404765657268],[-81.42934157894771,41.4040644481975],[-81.42934934129009,41.40380811687811],[-81.42935312229912,41.40368323998451],[-81.42855134895858,41.40366968384017],[-81.4285399008286,41.40404765657268]]]},"properties":{"source_county":"Cuyahoga","jurisdiction":"BENTLEYVILLE","parcel_id":"94102012","owner_name":"SHERIDAN, MATTHEW C. AND SHERIDAN, MEGHAN A.","property_address":"35313  QUARTERMANE CIR, BENTLEYVILLE, OH, 44139","property_city":"BENTLEYVILLE","property_zip":"44139"}},{"type":"Feature","geometry":{"type":"Polygon","coordinates":[[[-81.42689704746397,41.402466075075004],[-81.42718298391384,41.40271402749472],[-81.42783694576259,41.40228685062338],[-81.427546382989,41.40203429711171],[-81.42689704746397,41.402466075075004]]]},"properties":{"source_county":"Cuyahoga","jurisdiction":"BENTLEYVILLE","parcel_id":"94102032","owner_name":"TOBIN III, WILLIAM T. & SUSAN R. - CO TRUSTEES","property_address":"35146  QUARTERMANE CIR, BENTLEYVILLE, OH, 44139","property_city":"BENTLEYVILLE","property_zip":"44139"}},{"type":"Feature","geometry":{"type":"Polygon","coordinates":[[[-81.4245735379136,41.40493605498136],[-81.42490150114574,41.4052211806522],[-81.42547292668449,41.40488020019748],[-81.42606176786165,41.404374493810664],[-81.42600552793496,41.40433426915643],[-81.4259528794728,41.404291377609674],[-81.42578546135161,41.404145846515966],[-81.42512423842044,41.40457698652076],[-81.4245735379136,41.40493605498136]]]},"properties":{"source_county":"Cuyahoga","jurisdiction":"BENTLEYVILLE","parcel_id":"94102048","owner_name":"MAZANEC, MARK AND MARGARET ","property_address":"35547  QUARTERMANE CIR, BENTLEYVILLE, OH, 44139","property_city":"BENTLEYVILLE","property_zip":"44139"}},{"type":"Feature","geometry":{"type":"Polygon","coordinates":[[[-81.42675765677966,41.40234519737152],[-81.42689704746397,41.402466075075004],[-81.427546382989,41.40203429711171],[-81.42736555661388,41.4018769765825],[-81.42708442076088,41.40187015216582],[-81.42659007336844,41.402199873496535],[-81.42675765677966,41.40234519737152]]]},"properties":{"source_county":"Cuyahoga","jurisdiction":"BENTLEYVILLE","parcel_id":"94102031","owner_name":"GOYZMAN, YELENA DEMUROVA","property_address":"35120  QUARTERMANE CIR, BENTLEYVILLE, OH, 44139","property_city":"BENTLEYVILLE","property_zip":"44139"}},{"type":"Feature","geometry":{"type":"Polygon","coordinates":[[[-81.42898872699234,41.405270090476435],[-81.42915915806297,41.40527212260171],[-81.42930496182012,41.40527386095814],[-81.42931735407946,41.40486458184458],[-81.42932549730752,41.40459564777212],[-81.42850170985261,41.40437255598803],[-81.42848516288508,41.404400929316665],[-81.42846540533873,41.40442811474055],[-81.4284425935204,41.40445390406009],[-81.4284168909235,41.40447810861578],[-81.4283884978723,41.404500542443465],[-81.42835762816588,41.40452103507631],[-81.4283288236863,41.4045370368979],[-81.42898872699234,41.405270090476435]]]},"properties":{"source_county":"Cuyahoga","jurisdiction":"BENTLEYVILLE","parcel_id":"94102014","owner_name":"PAWAR, ROGER-TRUSTEE","property_address":"35365  QUARTERMANE CIR, BENTLEYVILLE, OH, 44139","property_city":"BENTLEYVILLE","property_zip":"44139"}},{"type":"Feature","geometry":{"type":"Polygon","coordinates":[[[-81.42621269560915,41.40523694513008],[-81.42659615586125,41.40524152549955],[-81.42669495527113,41.404580945703515],[-81.42660088638952,41.40457081865793],[-81.42650828176183,41.404554775743584],[-81.42641779536157,41.40453293486915],[-81.42632932747576,41.404505412594325],[-81.42587854208641,41.40523291726152],[-81.42621269560915,41.40523694513008]]]},"properties":{"source_county":"Cuyahoga","jurisdiction":"BENTLEYVILLE","parcel_id":"94102019","owner_name":"TRUCCO, MATTEO","property_address":"35495  QUARTERMANE CIR, BENTLEYVILLE, OH, 44139","property_city":"BENTLEYVILLE","property_zip":"44139"}},{"type":"Feature","geometry":{"type":"Polygon","coordinates":[[[-81.42679328755708,41.40442043622556],[-81.42700150176857,41.40442292520727],[-81.427018783558,41.40371244777571],[-81.42674604515629,41.40371083268252],[-81.42644649024669,41.404363719893595],[-81.42649326732017,41.404378376867356],[-81.42656623926732,41.40439599043132],[-81.42664092160678,41.40440892788446],[-81.42671677984096,41.404417096920234],[-81.42679328755708,41.40442043622556]]]},"properties":{"source_county":"Cuyahoga","jurisdiction":"BENTLEYVILLE","parcel_id":"94102039","owner_name":"JOSEPH, TREVOR A. AND JOSEPH, MILISSA I. ","property_address":"35484  QUARTERMANE CIR, BENTLEYVILLE, OH, 44139","property_city":"BENTLEYVILLE","property_zip":"44139"}},{"type":"Feature","geometry":{"type":"Polygon","coordinates":[[[-81.42606043745673,41.403022754177],[-81.42606866782134,41.403023236621294],[-81.42607692244049,41.40302315778614],[-81.42608513214388,41.403022514302464],[-81.42609323315111,41.40302131627734],[-81.42610115449527,41.403019569775],[-81.42610883598927,41.40301729164048],[-81.42611620846282,41.40301449669746],[-81.42612321891528,41.403011213245684],[-81.42612980536295,41.403007467563484],[-81.42613591031362,41.403003286602996],[-81.42615259023181,41.402991830567714],[-81.42617052958805,41.40298151191378],[-81.42618959632995,41.40297241149846],[-81.4262096422355,41.40296459602893],[-81.42623052087934,41.40295812614822],[-81.42625206337817,41.4029530496969],[-81.42627411701841,41.40294940642979],[-81.42629650393359,41.4029472226256],[-81.42631906152869,41.402946517824866],[-81.42634161014064,41.40294729539664],[-81.4263639898693,41.40294954792896],[-81.42638602015334,41.40295326194565],[-81.42640753660102,41.402958405103725],[-81.42642454260768,41.40296373894832],[-81.42675765677966,41.40234519737152],[-81.42659007336844,41.402199873496535],[-81.42618495203993,41.40246903040856],[-81.42606043745673,41.403022754177]]]},"properties":{"source_county":"Cuyahoga","jurisdiction":"BENTLEYVILLE","parcel_id":"94102045","owner_name":"LAYNE, ALLEN T.  & ALICIA J. ","property_address":"35550  PHEASANT CT, BENTLEYVILLE, OH, 44139","property_city":"BENTLEYVILLE","property_zip":"44139"}},{"type":"Feature","geometry":{"type":"Polygon","coordinates":[[[-81.42504673986257,41.40299513221321],[-81.42504794629998,41.403000910092366],[-81.42504980760924,41.403006592290765],[-81.42505230133249,41.40301213231572],[-81.42505541040168,41.40301749512956],[-81.42505911774886,41.40302263693493],[-81.4250633937296,41.40302752134644],[-81.4250682078012,41.40303211736918],[-81.42507352133612,41.403036384574825],[-81.42507930199498,41.40304029668512],[-81.42508550306539,41.40304382405267],[-81.42509207963158,41.40304694039928],[-81.42509898318454,41.4030496234893],[-81.4251061697068,41.403051851761106],[-81.42511357631632,41.40305361443392],[-81.42512116079227,41.4030548953364],[-81.42512886115088,41.403055682340145],[-81.42513662079831,41.40305597409749],[-81.42514438853055,41.40305576926095],[-81.42515210326225,41.40305506446135],[-81.42532221093937,41.40303396292046],[-81.42543704258215,41.40302392659753],[-81.42543771991187,41.40302164307274],[-81.4255743779211,41.402561555998105],[-81.42618495203993,41.40246903040856],[-81.42659007336844,41.402199873496535],[-81.42708442076088,41.40187015216582],[-81.42595270160638,41.40185157368501],[-81.42556171886211,41.402106374404035],[-81.42560944994642,41.40214786518619],[-81.42552679056723,41.402201770955116],[-81.42547906127955,41.40216028155503],[-81.42539734063985,41.402218521280496],[-81.42532275262349,41.40228195133227],[-81.42525587754216,41.402350084529196],[-81.4251972337238,41.40242238652423],[-81.4251472811058,41.402498301409885],[-81.42510640596372,41.40257723150455],[-81.42507492719953,41.40265856834795],[-81.42505309095161,41.40274167720414],[-81.42504106250995,41.40282591188542],[-81.42503893979095,41.40291061475272],[-81.42504673986257,41.40299513221321]]]},"properties":{"source_county":"Cuyahoga","jurisdiction":"BENTLEYVILLE","parcel_id":"94102030","owner_name":"PEPPERWOOD LANE HOMEOWNERS","property_address":"0  PHEASANT CT, BENTLEYVILLE, OH, 44139","property_city":"BENTLEYVILLE","property_zip":"44139"}},{"type":"Feature","geometry":{"type":"Polygon","coordinates":[[[-81.42759999983504,41.40675199892039],[-81.42766124427617,41.40677440905498],[-81.4277225246499,41.40677917662301],[-81.42785601519944,41.40678398461658],[-81.42790683828497,41.40677252924784],[-81.42795800003533,41.406760999089016],[-81.42804899937362,41.40671199942851],[-81.42807435252588,41.406687070058034],[-81.42810097409932,41.40666089083987],[-81.42816100042492,41.4065989992318],[-81.42820599973244,41.40652899943473],[-81.42821546797555,41.40650094640175],[-81.42823300039494,41.4064489988042],[-81.4282362190586,41.406405967835504],[-81.42822991468194,41.40635883492477],[-81.42822900019699,41.406351998850894],[-81.4281908685098,41.40627956243139],[-81.42816399989965,41.40623099968557],[-81.42810667211316,41.406174931081516],[-81.42807300056138,41.40614199843506],[-81.42802633128574,41.406107956067935],[-81.42799717825982,41.40609037396161],[-81.4279750006521,41.406076998890676],[-81.42789199901478,41.40605299908395],[-81.4278269493101,41.406048200469066],[-81.42782401631071,41.40604798418777],[-81.42771700001092,41.40606399978256],[-81.42766701774849,41.40607943323329],[-81.4276522710048,41.40608814916284],[-81.42761699955348,41.40610899906842],[-81.42757097167494,41.40615413644645],[-81.4275395423181,41.406200040545635],[-81.42753804482652,41.40620794658521],[-81.42752799986502,41.40626099868665],[-81.42752626162495,41.4063301046789],[-81.42753164522844,41.406512835725444],[-81.42753140088668,41.406525134698256],[-81.42752999951485,41.40659599894367],[-81.42756399985002,41.406718998516006],[-81.42759999983504,41.40675199892039]]]},"properties":{"source_county":"Cuyahoga","jurisdiction":"BENTLEYVILLE","parcel_id":"94104014","owner_name":"BERKSHIRE HOMEOWNER'S","property_address":"0  BERKSHIRE PARK DR, BENTLEYVILLE, OH, 44022","property_city":"BENTLEYVILLE","property_zip":"44022"}},{"type":"Feature","geometry":{"type":"Polygon","coordinates":[[[-81.42741604911936,41.40652377840208],[-81.42752541002207,41.4065250646263],[-81.42753140088668,41.406525134698256],[-81.42753164522844,41.406512835725444],[-81.42752626162495,41.4063301046789],[-81.42752799986502,41.40626099868665],[-81.42753804482652,41.40620794658521],[-81.42743416454539,41.40618809928423],[-81.42698758866145,41.40610277744917],[-81.42663964510078,41.40574688622892],[-81.42656244298693,41.4059537151177],[-81.42662372785226,41.406514454791626],[-81.42741604911936,41.40652377840208]]]},"properties":{"source_county":"Cuyahoga","jurisdiction":"BENTLEYVILLE","parcel_id":"94104011","owner_name":"BAKER, CHERYL L. TRUSTEE","property_address":"20  BERKSHIRE PARK DR, BENTLEYVILLE, OH, 44022","property_city":"BENTLEYVILLE","property_zip":"44022"}},{"type":"Feature","geometry":{"type":"Polygon","coordinates":[[[-81.41370396250163,41.41602307551666],[-81.41307804066616,41.4172446623183],[-81.41265536535869,41.41778296827029],[-81.41228841254828,41.418622710934095],[-81.41310801475225,41.419147594687246],[-81.41344235242964,41.419812757284355],[-81.41635444354405,41.42264992303152],[-81.41697036982535,41.42290829915232],[-81.41933904846483,41.42373882010985],[-81.41956395157769,41.42376449803094],[-81.41978734192759,41.42379680743031],[-81.42000887186654,41.42383569710531],[-81.4202282027297,41.42388110642108],[-81.4204449931572,41.423932966658036],[-81.42065891077243,41.4239911969702],[-81.42086962319875,41.4240557077534],[-81.42107680704261,41.42412639929814],[-81.4220568753058,41.42446591540562],[-81.42782071410373,41.42448071468513],[-81.42857922458016,41.424482640457015],[-81.42859245317105,41.42414829757617],[-81.42859406834192,41.42410644902419],[-81.4286046172583,41.42383283704619],[-81.42862580043102,41.42328343728835],[-81.42862791776015,41.42322857027671],[-81.42862897417892,41.423201134732736],[-81.42863108791478,41.423146267651596],[-81.42863214792682,41.42311883274641],[-81.42863426166268,41.42306396559573],[-81.42863531808145,41.42303653200299],[-81.42863743541058,41.422981664782725],[-81.42863793128062,41.422968812533504],[-81.42866916570306,41.422158651589584],[-81.42866969660737,41.42214493291941],[-81.42867180944494,41.42209006629305],[-81.42867286945697,41.42206263363611],[-81.42867498319283,41.42200776424578],[-81.4286758222193,41.42198606261307],[-81.42867604320486,41.42198033222763],[-81.42867815694072,41.421925464788586],[-81.42867921335952,41.4218980300413],[-81.42868133068863,41.421843163206326],[-81.42869622026446,41.42145692031208],[-81.42871253007675,41.421033865943315],[-81.42871306008277,41.4210201477091],[-81.42871404553465,41.42099461622529],[-81.4287151774119,41.420965280132414],[-81.42871623383067,41.42093784834759],[-81.42871834756654,41.42088297868048],[-81.42871940847688,41.420855546187255],[-81.42872152041612,41.42080067645061],[-81.4287215311959,41.420800423842906],[-81.4287225822248,41.42077324459625],[-81.42872469506233,41.420718377484555],[-81.42874150164297,41.42028241432812],[-81.42875642265986,41.4198953612052],[-81.42875854088729,41.41984049402545],[-81.42875959640774,41.41981305974458],[-81.42876171463519,41.4197581924953],[-81.42876277015566,41.41973076020059],[-81.42876488748479,41.41967589086091],[-81.42876594480187,41.419648458531384],[-81.42876805674109,41.419593588448514],[-81.42878840088734,41.41906588710181],[-81.42879978523695,41.41877057475588],[-81.42880031434464,41.418756858738206],[-81.42880243167376,41.41870199194392],[-81.42880348899087,41.41867455718211],[-81.42880560542166,41.41861968964466],[-81.42880666184044,41.418592256195396],[-81.42880877467798,41.418537388588405],[-81.42880983558834,41.418509953083415],[-81.42881194842587,41.41845508608055],[-81.42882857175022,41.41802388659925],[-81.4288431469157,41.41764578903605],[-81.4288436760234,41.41763207210715],[-81.42884579155589,41.41757720503634],[-81.428846848873,41.41754977114669],[-81.42884896350715,41.41749490400634],[-81.42885002172257,41.41746746873464],[-81.42885213635674,41.41741260219844],[-81.42885319457216,41.417385166891926],[-81.42885530920634,41.41733029893885],[-81.42888703500722,41.416507285533],[-81.4288891496414,41.416452416164695],[-81.42889020695849,41.41642498382093],[-81.42889232249098,41.416370116404096],[-81.4288933807064,41.416342682004576],[-81.42889539472925,41.41629043508407],[-81.42889549534056,41.41628781451821],[-81.42889655265766,41.41626038008394],[-81.42889866549521,41.416205512528045],[-81.42892916509574,41.415414377391556],[-81.42893039309271,41.41538249834319],[-81.42893091950549,41.41536877958899],[-81.4289330359363,41.41531391195357],[-81.42893409235506,41.415286477108],[-81.42893620878588,41.41523161007675],[-81.42893726700127,41.41520417789108],[-81.4289393834321,41.41514930809559],[-81.42894043985086,41.41512187587522],[-81.42894255268841,41.41506700870493],[-81.42897025493514,41.41434836939556],[-81.42897374848329,41.4142577105388],[-81.4289742784893,41.41424399154704],[-81.42897639132684,41.414189124308905],[-81.42897744864393,41.41416168966192],[-81.42897956417643,41.41410682235427],[-81.42898062149352,41.41407939036728],[-81.42898273792434,41.41402452029535],[-81.42898379434311,41.4139970889473],[-81.42898591077392,41.413942218132156],[-81.42901423195988,41.41320746429419],[-81.42901763298154,41.41311920289155],[-81.42901974581909,41.41306433605074],[-81.42902080583113,41.41303690227611],[-81.42902291866868,41.412982034692114],[-81.42902397508745,41.412954598861596],[-81.42902609151827,41.41289973255546],[-81.42902714793703,41.41287230073247],[-81.42902926436784,41.41281742964087],[-81.42904970104057,41.412287175800486],[-81.42904998939976,41.41227969224241],[-81.42906098567715,41.41199441564477],[-81.42906151208992,41.41198069954357],[-81.42906362762241,41.41192583241487],[-81.42906468404118,41.41189839748571],[-81.429066800472,41.41184353028749],[-81.42906785689077,41.411816093976185],[-81.42906997332156,41.41176122805586],[-81.42907102974034,41.41173379305718],[-81.42907314706947,41.41167892571994],[-81.42908552315915,41.411357786481325],[-81.42910433567783,41.410869626439236],[-81.42910486568384,41.41085591010056],[-81.4291069794197,41.41080104067444],[-81.42910803853341,41.41077360796516],[-81.42911015226929,41.41071874116438],[-81.42911120778975,41.41069130572551],[-81.42911332511888,41.41063643885521],[-81.42911437974101,41.41060900405526],[-81.42911649707014,41.410554136441775],[-81.42911713487398,41.41053756949771],[-81.42913828121577,41.4099888873055],[-81.4291482165828,41.409731120721055],[-81.42915032852206,41.40967625101864],[-81.42915138853408,41.40964881850815],[-81.42915350137163,41.40959394873623],[-81.42915456138367,41.409566516864736],[-81.4291566733229,41.40951164904454],[-81.42915772974166,41.409484215117054],[-81.42915984617248,41.409429347227366],[-81.42917710999562,41.40898137158953],[-81.42917242617972,41.408981298825296],[-81.42917195276758,41.40898129074034],[-81.42747430127228,41.4089548220632],[-81.42685439455596,41.40894515317121],[-81.41941171767974,41.40882877937631],[-81.41871549818173,41.40881695717717],[-81.41846402829266,41.416092716797344],[-81.41465204894408,41.416034025349184],[-81.41370396250163,41.41602307551666]]]},"properties":{"source_county":"Cuyahoga","jurisdiction":"BENTLEYVILLE","parcel_id":"94101001","owner_name":"CLEVE METRO PARK BD","property_address":"0  CHAGRIN RIVER RD, BENTLEYVILLE, OH, 44022","property_city":"BENTLEYVILLE","property_zip":"44022"}},{"type":"Feature","geometry":{"type":"Polygon","coordinates":[[[-81.4278269493101,41.406048200469066],[-81.42789199901478,41.40605299908395],[-81.4279750006521,41.406076998890676],[-81.42799717825982,41.40609037396161],[-81.4280051058922,41.40608014878044],[-81.42806013309325,41.40600915595537],[-81.42845158565639,41.40550413550297],[-81.42915915806297,41.40527212260171],[-81.42898872699234,41.405270090476435],[-81.42805574122983,41.40525895690847],[-81.42784335703878,41.40525642281539],[-81.4278287585171,41.405960437365565],[-81.42782706159952,41.40604277457067],[-81.4278269493101,41.406048200469066]]]},"properties":{"source_county":"Cuyahoga","jurisdiction":"BENTLEYVILLE","parcel_id":"94104016","owner_name":"WILSON, BARBARA.","property_address":"50  BERKSHIRE PARK DR, BENTLEYVILLE, OH, 44022","property_city":"BENTLEYVILLE","property_zip":"44022"}},{"type":"Feature","geometry":{"type":"Polygon","coordinates":[[[-81.42894221402355,41.40751773713586],[-81.42923379818163,41.40752227961406],[-81.42924256034891,41.40724551328904],[-81.42924800593615,41.40707509125692],[-81.42924795922376,41.40707504207226],[-81.42886206992716,41.40667355496636],[-81.42833881924047,41.40653387549742],[-81.4282361121591,41.40650645715679],[-81.42821546797555,41.40650094640175],[-81.42820599973244,41.40652899943473],[-81.42816100042492,41.4065989992318],[-81.42810097409932,41.40666089083987],[-81.42807435252588,41.406687070058034],[-81.4280858150289,41.406695000967694],[-81.42816603817703,41.40675050585444],[-81.42856629333167,41.407027426558535],[-81.42894221402355,41.40751773713586]]]},"properties":{"source_county":"Cuyahoga","jurisdiction":"BENTLEYVILLE","parcel_id":"94104018","owner_name":"KOSTEAS, BILL D. & JANET J.C., TRUSTEES","property_address":"90  BERKSHIRE PARK DR, BENTLEYVILLE, OH, 44022","property_city":"BENTLEYVILLE","property_zip":"44022"}},{"type":"Feature","geometry":{"type":"Polygon","coordinates":[[[-81.42743416454539,41.40618809928423],[-81.42753804482652,41.40620794658521],[-81.4275395423181,41.406200040545635],[-81.42757097167494,41.40615413644645],[-81.42761699955348,41.40610899906842],[-81.4276522710048,41.40608814916284],[-81.42764966678878,41.40608548573766],[-81.42758504108895,41.406019385864155],[-81.42682724207818,41.40524428733142],[-81.42663964510078,41.40574688622892],[-81.42698758866145,41.40610277744917],[-81.42743416454539,41.40618809928423]]]},"properties":{"source_county":"Cuyahoga","jurisdiction":"BENTLEYVILLE","parcel_id":"94104012","owner_name":"KRUCHKO, MATTHEW A. & KIERSTEN C.","property_address":"30  BERKSHIRE PARK DR, BENTLEYVILLE, OH, 44022","property_city":"BENTLEYVILLE","property_zip":"44022"}},{"type":"Feature","geometry":{"type":"Polygon","coordinates":[[[-81.42747499926325,41.40887399840919],[-81.42759582087234,41.408875956983636],[-81.42759764445236,41.408786968114896],[-81.42761500619187,41.4079404227378],[-81.42761343503842,41.40789823292854],[-81.42762419146564,41.407497187504916],[-81.42747051487336,41.40753725995303],[-81.4273603562667,41.40756598494878],[-81.42733054387736,41.40749764498689],[-81.42728097663662,41.40739987177572],[-81.42726401464742,41.4073279836177],[-81.42725799952828,41.40726999978441],[-81.42726401644404,41.407231983490846],[-81.42727099994707,41.407197998964556],[-81.4273199374688,41.40711730316117],[-81.4271990619608,41.40711588152239],[-81.42678541831519,41.40711101426229],[-81.42662372785226,41.406514454791626],[-81.42656244298693,41.4059537151177],[-81.42663964510078,41.40574688622892],[-81.42682724207818,41.40524428733142],[-81.42659615586125,41.40524152549955],[-81.42621269560915,41.40523694513008],[-81.42616627426854,41.407474437371434],[-81.4268952328671,41.40748581446046],[-81.42686904068836,41.40877560203367],[-81.42686723058306,41.408864762049014],[-81.42747499926325,41.40887399840919]]]},"properties":{"source_county":"Cuyahoga","jurisdiction":"BENTLEYVILLE","parcel_id":"94104009","owner_name":"BERKSHIRE HOMEOWNER'S","property_address":"0  BERKSHIRE PARK DR, BENTLEYVILLE, OH, 44022","property_city":"BENTLEYVILLE","property_zip":"44022"}},{"type":"Feature","geometry":{"type":"Polygon","coordinates":[[[-81.42656157251943,41.40320835886112],[-81.42741512834618,41.403443262997634],[-81.42741584879506,41.403381765193615],[-81.42741976634801,41.4030477455958],[-81.42742125575477,41.40292064974557],[-81.4272956218707,41.402811704664565],[-81.4265568392962,41.403065836573994],[-81.42656189860787,41.40307508453943],[-81.42656864765061,41.403091305703406],[-81.42657349226494,41.40310790688879],[-81.42657639741657,41.40312476209403],[-81.42657733795266,41.40314174464378],[-81.42657631297492,41.40315872516765],[-81.42657332427997,41.40317557294784],[-81.42656839971559,41.40319215928804],[-81.42656157251943,41.40320835886112]]]},"properties":{"source_county":"Cuyahoga","jurisdiction":"BENTLEYVILLE","parcel_id":"94102043","owner_name":"JONES, RICHARD L","property_address":"35450  PHEASANT CT, BENTLEYVILLE, OH, 44139","property_city":"BENTLEYVILLE","property_zip":"44139"}},{"type":"Feature","geometry":{"type":"Polygon","coordinates":[[[-81.42856274408797,41.403293501896464],[-81.42936456773415,41.403305234137385],[-81.42937005823718,41.40312391916541],[-81.42937168598448,41.40307015633416],[-81.42937588740506,41.402931352478525],[-81.42857410957293,41.40291824830111],[-81.42856274408797,41.403293501896464]]]},"properties":{"source_county":"Cuyahoga","jurisdiction":"BENTLEYVILLE","parcel_id":"94102010","owner_name":"COLLINGWOOD, SCOTT J. & BENDALL, AMY L.","property_address":"35261  QUARTERMANE CIR, BENTLEYVILLE, OH, 44139","property_city":"BENTLEYVILLE","property_zip":"44139"}},{"type":"Feature","geometry":{"type":"Polygon","coordinates":[[[-81.42759582087234,41.408875956983636],[-81.42846127398674,41.4088899789464],[-81.42846312721117,41.40880046390207],[-81.4284898422094,41.4075106849075],[-81.42807092455475,41.407504152146124],[-81.42762419146564,41.407497187504916],[-81.42761343503842,41.40789823292854],[-81.42761500619187,41.4079404227378],[-81.42759764445236,41.408786968114896],[-81.42759582087234,41.408875956983636]]]},"properties":{"source_county":"Cuyahoga","jurisdiction":"BENTLEYVILLE","parcel_id":"94104001","owner_name":"CARROL, ANNE M.","property_address":"35036  CANNON RD, BENTLEYVILLE, OH, 44022","property_city":"BENTLEYVILLE","property_zip":"44022"}},{"type":"Feature","geometry":{"type":"Polygon","coordinates":[[[-81.4283970255793,41.40252215429135],[-81.42843858703424,41.40256183293385],[-81.42847512241516,41.40260421487486],[-81.42850633078645,41.4026489456856],[-81.42852715014146,41.402686914125006],[-81.42939101413612,41.40243179696968],[-81.42939166810964,41.402410160894064],[-81.42939349079137,41.40229838898805],[-81.42906293681796,41.40201108484962],[-81.42833864406899,41.4024714096339],[-81.4283970255793,41.40252215429135]]]},"properties":{"source_county":"Cuyahoga","jurisdiction":"BENTLEYVILLE","parcel_id":"94102008","owner_name":"CHIMPLES, THOMAS TR","property_address":"35209  QUARTERMANE CIR, BENTLEYVILLE, OH, 44139","property_city":"BENTLEYVILLE","property_zip":"44139"}},{"type":"Feature","geometry":{"type":"Polygon","coordinates":[[[-81.42659615586125,41.40524152549955],[-81.42682724207818,41.40524428733142],[-81.42713917846733,41.40524801469257],[-81.42713599932954,41.404589223197604],[-81.42678981916177,41.404585088156544],[-81.42669495527113,41.404580945703515],[-81.42659615586125,41.40524152549955]]]},"properties":{"source_county":"Cuyahoga","jurisdiction":"BENTLEYVILLE","parcel_id":"94102018","owner_name":"CANTY, MICHELE A.","property_address":"35469  QUARTERMANE CIR, BENTLEYVILLE, OH, 44139","property_city":"BENTLEYVILLE","property_zip":"44139"}},{"type":"Feature","geometry":{"type":"Polygon","coordinates":[[[-81.42741584879506,41.403381765193615],[-81.42834094734938,41.40339313558742],[-81.42835096805636,41.40306238332608],[-81.42741976634801,41.4030477455958],[-81.42741584879506,41.403381765193615]]]},"properties":{"source_county":"Cuyahoga","jurisdiction":"BENTLEYVILLE","parcel_id":"94102034","owner_name":"PAUL, SHEILA S.","property_address":"35276  QUARTERMANE CIR, BENTLEYVILLE, OH, 44139","property_city":"BENTLEYVILLE","property_zip":"44139"}},{"type":"Feature","geometry":{"type":"Polygon","coordinates":[[[-81.4284898422094,41.4075106849075],[-81.42894221402355,41.40751773713586],[-81.42856629333167,41.407027426558535],[-81.42816603817703,41.40675050585444],[-81.4280858150289,41.406695000967694],[-81.42807435252588,41.406687070058034],[-81.42804899937362,41.40671199942851],[-81.42795800003533,41.406760999089016],[-81.42790683828497,41.40677252924784],[-81.42790773749856,41.406775176474476],[-81.42793482170438,41.40685487418279],[-81.42807724869435,41.407273989796096],[-81.42807092455475,41.407504152146124],[-81.4284898422094,41.4075106849075]]]},"properties":{"source_county":"Cuyahoga","jurisdiction":"BENTLEYVILLE","parcel_id":"94104013","owner_name":"TAHIR, MOHAMMAD I. & AZHAR, ZARA","property_address":"100  BERKSHIRE PARK DR, BENTLEYVILLE, OH, 44022","property_city":"BENTLEYVILLE","property_zip":"44022"}},{"type":"Feature","geometry":{"type":"Polygon","coordinates":[[[-81.42781415909708,41.404432627787976],[-81.42805589574004,41.40443551363168],[-81.4280780499916,41.40443505410672],[-81.4281000676992,41.40443314660648],[-81.4281217844712,41.40442981067077],[-81.4281430314243,41.404425068534415],[-81.42816365135332,41.40441895523421],[-81.428183492443,41.4044115159138],[-81.42820239748816,41.404402811887586],[-81.42822022994486,41.40439290379626],[-81.42823685416752,41.40438186979896],[-81.4282521407987,41.40436979142391],[-81.42826598114229,41.40435675828468],[-81.4282782665021,41.40434287077557],[-81.42828890255507,41.40432823333369],[-81.428297814741,41.40431295578663],[-81.42830492939805,41.404297154026004],[-81.42831019981382,41.40428094596511],[-81.42831357837761,41.404264456255056],[-81.42831504981805,41.40424780348311],[-81.4283310389318,41.40372021801085],[-81.42781700855318,41.4037171771619],[-81.42781415909708,41.404432627787976]]]},"properties":{"source_county":"Cuyahoga","jurisdiction":"BENTLEYVILLE","parcel_id":"94102036","owner_name":"DAI, TEHUI AND XIE, SHU ","property_address":"35354  QUARTERMANE CIR, BENTLEYVILLE, OH, 44139","property_city":"BENTLEYVILLE","property_zip":"44139"}},{"type":"Feature","geometry":{"type":"Polygon","coordinates":[[[-81.42758504108895,41.406019385864155],[-81.42764966678878,41.40608548573766],[-81.4276522710048,41.40608814916284],[-81.42766701774849,41.40607943323329],[-81.42771700001092,41.40606399978256],[-81.42782401631071,41.40604798418777],[-81.4278269493101,41.406048200469066],[-81.42782706159952,41.40604277457067],[-81.4278287585171,41.405960437365565],[-81.42784335703878,41.40525642281539],[-81.42759474558895,41.405253454132996],[-81.42713917846733,41.40524801469257],[-81.42682724207818,41.40524428733142],[-81.42758504108895,41.406019385864155]]]},"properties":{"source_county":"Cuyahoga","jurisdiction":"BENTLEYVILLE","parcel_id":"94104015","owner_name":"BANKHURST, AARON J.  &  BANKHURST, DANA MICHELLE","property_address":"40  BERKSHIRE PARK DR, BENTLEYVILLE, OH, 44022","property_city":"BENTLEYVILLE","property_zip":"44022"}},{"type":"Feature","geometry":{"type":"Polygon","coordinates":[[[-81.42805574122983,41.40525895690847],[-81.42898872699234,41.405270090476435],[-81.4283288236863,41.4045370368979],[-81.42832451087462,41.40453943423979],[-81.42828939483185,41.40455560180894],[-81.42825255312542,41.40456941313439],[-81.42821425794486,41.40458076445433],[-81.42817479675107,41.404589575589114],[-81.42813446688636,41.404595771075456],[-81.42809357826958,41.404599311160574],[-81.42805898235136,41.40460003076673],[-81.42805574122983,41.40525895690847]]]},"properties":{"source_county":"Cuyahoga","jurisdiction":"BENTLEYVILLE","parcel_id":"94102015","owner_name":"NEWSTEAD, SARA S -TR-ETAL","property_address":"35391  QUARTERMANE CIR, BENTLEYVILLE, OH, 44139","property_city":"BENTLEYVILLE","property_zip":"44139"}},{"type":"Feature","geometry":{"type":"Polygon","coordinates":[[[-81.42662372785226,41.406514454791626],[-81.42678541831519,41.40711101426229],[-81.4271990619608,41.40711588152239],[-81.4273199374688,41.40711730316117],[-81.42732801511983,41.40710398422391],[-81.42759999983504,41.40675199892039],[-81.42756399985002,41.406718998516006],[-81.42752999951485,41.40659599894367],[-81.42753140088668,41.406525134698256],[-81.42752541002207,41.4065250646263],[-81.42741604911936,41.40652377840208],[-81.42662372785226,41.406514454791626]]]},"properties":{"source_county":"Cuyahoga","jurisdiction":"BENTLEYVILLE","parcel_id":"94104010","owner_name":"BEECH, STELLA AND BEECH, MARK ","property_address":"10  BERKSHIRE PARK DR, BENTLEYVILLE, OH, 44022","property_city":"BENTLEYVILLE","property_zip":"44022"}},{"type":"Feature","geometry":{"type":"Polygon","coordinates":[[[-81.42741512834618,41.403443262997634],[-81.4274119429202,41.40371477776825],[-81.42781700855318,41.4037171771619],[-81.4283310389318,41.40372021801085],[-81.42834094734938,41.40339313558742],[-81.42741584879506,41.403381765193615],[-81.42741512834618,41.403443262997634]]]},"properties":{"source_county":"Cuyahoga","jurisdiction":"BENTLEYVILLE","parcel_id":"94102035","owner_name":"MITCHELL, MATTHEW C. & ANNE","property_address":"35302  QUARTERMANE CIR, BENTLEYVILLE, OH, 44139","property_city":"BENTLEYVILLE","property_zip":"44139"}},{"type":"Feature","geometry":{"type":"Polygon","coordinates":[[[-81.4272956218707,41.402811704664565],[-81.42742125575477,41.40292064974557],[-81.42816126902119,41.40256874622076],[-81.42783694576259,41.40228685062338],[-81.42718298391384,41.40271402749472],[-81.4272956218707,41.402811704664565]]]},"properties":{"source_county":"Cuyahoga","jurisdiction":"BENTLEYVILLE","parcel_id":"94102033","owner_name":"PEREZ, MICHELLE","property_address":"35172  QUARTERMANE CIR, BENTLEYVILLE, OH, 44139","property_city":"BENTLEYVILLE","property_zip":"44139"}},{"type":"Feature","geometry":{"type":"Polygon","coordinates":[[[-81.42611888184909,41.4041836139643],[-81.42617144586964,41.40422559596239],[-81.42622850955144,41.40426410723081],[-81.42628966775428,41.40429887152099],[-81.42635449018519,41.404329644252826],[-81.42642251870333,41.40435620779739],[-81.42644649024669,41.404363719893595],[-81.42674604515629,41.40371083268252],[-81.42659403404052,41.403584600592],[-81.42592698014485,41.40401681026371],[-81.42611888184909,41.4041836139643]]]},"properties":{"source_county":"Cuyahoga","jurisdiction":"BENTLEYVILLE","parcel_id":"94102040","owner_name":"CLYDE, SAMUEL THOMAS & VALERIE MARIE- TRUSTEES","property_address":"35536  QUARTERMANE CIR, BENTLEYVILLE, OH, 44139","property_city":"BENTLEYVILLE","property_zip":"44139"}},{"type":"Feature","geometry":{"type":"Polygon","coordinates":[[[-81.42559086739645,41.4018728379997],[-81.42555717248847,41.401843817376644],[-81.42490878917762,41.40183177761118],[-81.42523217369677,41.40211085122677],[-81.42524113169678,41.4021032546433],[-81.42559086739645,41.4018728379997]]]},"properties":{"source_county":"Cuyahoga","jurisdiction":"BENTLEYVILLE","parcel_id":"94102029","owner_name":"JONES, KEVIN & COURTNEY","property_address":"35781  QUARTERMANE CIR, BENTLEYVILLE, OH, 44139","property_city":"BENTLEYVILLE","property_zip":"44139"}},{"type":"Feature","geometry":{"type":"Polygon","coordinates":[[[-81.42490150114574,41.4052211806522],[-81.4254865163981,41.4052282088729],[-81.425837799895,41.40523242809581],[-81.42587854208641,41.40523291726152],[-81.42632932747576,41.404505412594325],[-81.42625790512245,41.40447826021848],[-81.42618941307364,41.404447088673315],[-81.42612393038101,41.404412445070896],[-81.42606176786165,41.404374493810664],[-81.42547292668449,41.40488020019748],[-81.42490150114574,41.4052211806522]]]},"properties":{"source_county":"Cuyahoga","jurisdiction":"BENTLEYVILLE","parcel_id":"94102047","owner_name":"FISHMAN, NICKYTA & DIANA","property_address":"35521  QUARTERMANE CIR, BENTLEYVILLE, OH, 44139","property_city":"BENTLEYVILLE","property_zip":"44139"}},{"type":"Feature","geometry":{"type":"Polygon","coordinates":[[[-81.42740358140153,41.40442772596353],[-81.42781415909708,41.404432627787976],[-81.42781700855318,41.4037171771619],[-81.4274119429202,41.40371477776825],[-81.42740358140153,41.40442772596353]]]},"properties":{"source_county":"Cuyahoga","jurisdiction":"BENTLEYVILLE","parcel_id":"94102037","owner_name":"HOWELL, RACHEL O & ROBERT S","property_address":"35432  QUARTERMANE CIR, BENTLEYVILLE, OH, 44139","property_city":"BENTLEYVILLE","property_zip":"44139"}},{"type":"Feature","geometry":{"type":"Polygon","coordinates":[[[-81.42778539414337,41.40199053482471],[-81.42806112213837,41.402230194419936],[-81.42858673449595,41.40190196911577],[-81.42835775033677,41.40189924218024],[-81.42828485654303,41.401898374304544],[-81.42824840650206,41.40189793969283],[-81.4281755109117,41.401897071143296],[-81.42813905997242,41.401896637879226],[-81.42806616797532,41.40189576865584],[-81.42802971973099,41.40189533404418],[-81.427956822344,41.40189446616842],[-81.4279396663187,41.401894262001946],[-81.42793895485299,41.40189425256855],[-81.42778539414337,41.40199053482471]]]},"properties":{"source_county":"Cuyahoga","jurisdiction":"BENTLEYVILLE","parcel_id":"94102006","owner_name":"WICKBOLDT, THOMAS T. & OLSON, LUCY A.","property_address":"35157  QUARTERMANE CIR, BENTLEYVILLE, OH, 44139","property_city":"BENTLEYVILLE","property_zip":"44139"}},{"type":"Feature","geometry":{"type":"Polygon","coordinates":[[[-81.42713917846733,41.40524801469257],[-81.42759474558895,41.405253454132996],[-81.42759698149568,41.40459472872448],[-81.42713599932954,41.404589223197604],[-81.42713917846733,41.40524801469257]]]},"properties":{"source_county":"Cuyahoga","jurisdiction":"BENTLEYVILLE","parcel_id":"94102017","owner_name":"POTASH, LOREE ELLEN - TRUSTEE","property_address":"35443  QUARTERMANE CIR, BENTLEYVILLE, OH, 44139","property_city":"BENTLEYVILLE","property_zip":"44139"}},{"type":"Feature","geometry":{"type":"Polygon","coordinates":[[[-81.42560040211487,41.40373294739509],[-81.42592698014485,41.40401681026371],[-81.42659403404052,41.403584600592],[-81.42646211374611,41.40330334479663],[-81.42644755205536,41.40331030449702],[-81.42560040211487,41.40373294739509]]]},"properties":{"source_county":"Cuyahoga","jurisdiction":"BENTLEYVILLE","parcel_id":"94102041","owner_name":"SCHOPLER, FRANCIS C. & MICHAEL, HILARY V. ","property_address":"35588  QUARTERMANE CIR, BENTLEYVILLE, OH, 44139","property_city":"BENTLEYVILLE","property_zip":"44139"}},{"type":"Feature","geometry":{"type":"Polygon","coordinates":[[[-81.42613766921495,41.408853108292526],[-81.42681601583209,41.40886398454806],[-81.42686723058306,41.408864762049014],[-81.42686904068836,41.40877560203367],[-81.4268952328671,41.40748581446046],[-81.42616627426854,41.407474437371434],[-81.42613951345623,41.40876421641182],[-81.42613766921495,41.408853108292526]]]},"properties":{"source_county":"Cuyahoga","jurisdiction":"BENTLEYVILLE","parcel_id":"94104004","owner_name":"BEATTY, SHAWN & MARGARET","property_address":"35048  CANNON RD, BENTLEYVILLE, OH, 44022","property_city":"BENTLEYVILLE","property_zip":"44022"}},{"type":"Feature","geometry":{"type":"Polygon","coordinates":[[[-81.42886206992716,41.40667355496636],[-81.42924795922376,41.40707504207226],[-81.42924800593615,41.40707509125692],[-81.42925762060464,41.40677421837923],[-81.42926276884954,41.40660704738782],[-81.42927600372862,41.406188798659684],[-81.42835541381871,41.406338435178085],[-81.42824893021988,41.406355743666566],[-81.42822991468194,41.40635883492477],[-81.4282362190586,41.406405967835504],[-81.42823300039494,41.4064489988042],[-81.42821546797555,41.40650094640175],[-81.4282361121591,41.40650645715679],[-81.42833881924047,41.40653387549742],[-81.42886206992716,41.40667355496636]]]},"properties":{"source_county":"Cuyahoga","jurisdiction":"BENTLEYVILLE","parcel_id":"94104020","owner_name":"TELERMAN ROMAN & REGINA","property_address":"80  BERKSHIRE PARK DR, BENTLEYVILLE, OH, 44022","property_city":"BENTLEYVILLE","property_zip":"44022"}},{"type":"Feature","geometry":{"type":"Polygon","coordinates":[[[-81.42799717825982,41.40609037396161],[-81.42802633128574,41.406107956067935],[-81.42807300056138,41.40614199843506],[-81.42810667211316,41.406174931081516],[-81.42812534179973,41.40616568086216],[-81.42821654236063,41.406120498349374],[-81.42929507675872,41.40558615593666],[-81.42930094365585,41.40540079656249],[-81.42930496182012,41.40527386095814],[-81.42915915806297,41.40527212260171],[-81.42845158565639,41.40550413550297],[-81.42806013309325,41.40600915595537],[-81.4280051058922,41.40608014878044],[-81.42799717825982,41.40609037396161]]]},"properties":{"source_county":"Cuyahoga","jurisdiction":"BENTLEYVILLE","parcel_id":"94104019","owner_name":"GUYURON, GREGORY P. AND GUYURON, SHAWN E. ","property_address":"60  BERKSHIRE PARK DR, BENTLEYVILLE, OH, 44022","property_city":"BENTLEYVILLE","property_zip":"44022"}},{"type":"Feature","geometry":{"type":"Polygon","coordinates":[[[-81.43350964328842,41.42448153578201],[-81.43354992733902,41.424628729522944],[-81.43422726694472,41.42454696955852],[-81.4342340420386,41.42454598882362],[-81.43424068148686,41.424544574302075],[-81.43424713228892,41.42454273609763],[-81.43425335491888,41.4245404849875],[-81.43425929008797,41.42453784454709],[-81.43426490815175,41.424534827574334],[-81.43427015880458,41.424531458318114],[-81.43427500701219,41.42452776506888],[-81.43427941414697,41.424523770054705],[-81.43428335325949,41.424519505607556],[-81.43428678841714,41.42451500338563],[-81.4342896953654,41.424510292352984],[-81.43429205703627,41.42450541494521],[-81.43429385187021,41.42450040012635],[-81.43429506908741,41.424495290331954],[-81.43429570060304,41.42449011924124],[-81.43429574102726,41.42448492726901],[-81.4342954149388,41.42448133976954],[-81.43350964328842,41.42448153578201]]]},"properties":{"source_county":"Cuyahoga","jurisdiction":"MORELAND HILLS","parcel_id":"91131007","owner_name":"FLIGIEL  KENNETH J..","property_address":"34400  COUNTRY VIEW LN, MORELAND HILLS, OH, 44139","property_city":"MORELAND HILLS","property_zip":"44139"}},{"type":"Feature","geometry":{"type":"Polygon","coordinates":[[[-81.42932635070702,41.42448249833115],[-81.42929854605234,41.42512768730998],[-81.4306943707987,41.424976704481274],[-81.43068713936066,41.424949784962664],[-81.43057692955003,41.42448221812093],[-81.42932635070702,41.42448249833115]]]},"properties":{"source_county":"Cuyahoga","jurisdiction":"MORELAND HILLS","parcel_id":"91132006","owner_name":"BLAKE, BRUCE R (TRS)","property_address":"34800  MILES AVE, MORELAND HILLS, OH, 44022","property_city":"MORELAND HILLS","property_zip":"44022"}},{"type":"Feature","geometry":{"type":"Polygon","coordinates":[[[-81.42782071410373,41.42448071468513],[-81.42779000609404,41.42525508256643],[-81.42828568209478,41.42524550703323],[-81.42889226320217,41.42517924411613],[-81.42892130124373,41.42448255423848],[-81.42857922458016,41.424482640457015],[-81.42782071410373,41.42448071468513]]]},"properties":{"source_county":"Cuyahoga","jurisdiction":"MORELAND HILLS","parcel_id":"91132004","owner_name":"KAWALEK, MARYANN J","property_address":"35100  MILES AVE, MORELAND HILLS, OH, 44022","property_city":"MORELAND HILLS","property_zip":"44022"}},{"type":"Feature","geometry":{"type":"Polygon","coordinates":[[[-81.44422140626455,41.42512290424923],[-81.44482646113427,41.42513246902327],[-81.4448270980398,41.42460147711105],[-81.44432530900356,41.42460114368838],[-81.44431746311787,41.42460139358698],[-81.44430967741931,41.42460215136568],[-81.44430200580678,41.42460340692085],[-81.44429450577248,41.42460515621089],[-81.44428723570688,41.4246073871113],[-81.44428024501734,41.42461007604674],[-81.4442735902977,41.424613210219114],[-81.44426731646378,41.424616766053006],[-81.44426147202454,41.424620711216434],[-81.44425610009914,41.42462502415478],[-81.44425124470501,41.42462966512671],[-81.44424693548659,41.42463460449458],[-81.44424320568156,41.42463980453779],[-81.44424008762918,41.42464522753574],[-81.44423759749921,41.424650831052894],[-81.44423575864785,41.42465657871581],[-81.44423458544809,41.42466241933229],[-81.44423408239152,41.424668316528965],[-81.44422140626455,41.42512290424923]]]},"properties":{"source_county":"Cuyahoga","jurisdiction":"MORELAND HILLS","parcel_id":"91122014","owner_name":"VILLAGE OF MORELAND HILLS","property_address":"4970  SOM CENTER RD, MORELAND HILLS, OH, 44022","property_city":"MORELAND HILLS","property_zip":"44022"}},{"type":"Feature","geometry":{"type":"Polygon","coordinates":[[[-81.43724798054666,41.424485494425326],[-81.43724767601778,41.42457290783604],[-81.43724266970669,41.42601097673765],[-81.43791729280697,41.426011256267756],[-81.43792228564332,41.424573060065455],[-81.43792257400253,41.42449023981245],[-81.43724798054666,41.424485494425326]]]},"properties":{"source_county":"Cuyahoga","jurisdiction":"MORELAND HILLS","parcel_id":"91128004","owner_name":"KIEFER, MARISSA & CHRISTOPHER D","property_address":"35425  MILES RD, MORELAND HILLS, OH, 44022","property_city":"MORELAND HILLS","property_zip":"44022"}},{"type":"Feature","geometry":{"type":"Polygon","coordinates":[[[-81.42892130124373,41.42448255423848],[-81.42889226320217,41.42517924411613],[-81.42917611106901,41.42514823540519],[-81.42929854605234,41.42512768730998],[-81.42932635070702,41.42448249833115],[-81.42892130124373,41.42448255423848]]]},"properties":{"source_county":"Cuyahoga","jurisdiction":"MORELAND HILLS","parcel_id":"91132005","owner_name":"VAN CLEEF, JACQUELYNN M & JAMES E ","property_address":"34950  MILES RD, MORELAND HILLS, OH, 44022","property_city":"MORELAND HILLS","property_zip":"44022"}},{"type":"Feature","geometry":{"type":"Polygon","coordinates":[[[-81.432186852473,41.4244818523657],[-81.43216809475155,41.42478370883274],[-81.43280820996848,41.42471191804755],[-81.4327831020563,41.42448171158701],[-81.432186852473,41.4244818523657]]]},"properties":{"source_county":"Cuyahoga","jurisdiction":"MORELAND HILLS","parcel_id":"91131008","owner_name":"SLUDER, PATRICK J. & JACKSON, JENNIFER L.","property_address":"0  ASPENWOOD DR, MORELAND HILLS, OH, 44139","property_city":"MORELAND HILLS","property_zip":"44139"}},{"type":"Feature","geometry":{"type":"Polygon","coordinates":[[[-81.4327831020563,41.42448171158701],[-81.43280820996848,41.42471191804755],[-81.43354992733902,41.424628729522944],[-81.43350964328842,41.42448153578201],[-81.4327831020563,41.42448171158701]]]},"properties":{"source_county":"Cuyahoga","jurisdiction":"MORELAND HILLS","parcel_id":"91131005","owner_name":"STAURSKY, GREGORY C.","property_address":"0  ASPENWOOD DR, MORELAND HILLS, OH, 44139","property_city":"MORELAND HILLS","property_zip":"44139"}},{"type":"Feature","geometry":{"type":"Polygon","coordinates":[[[-81.43529979610516,41.42462668722588],[-81.43523078123681,41.42535421242313],[-81.43589005033225,41.4253401340663],[-81.4359261823696,41.42457259798857],[-81.43578227495604,41.4245725622888],[-81.43529979610516,41.42462668722588]]]},"properties":{"source_county":"Cuyahoga","jurisdiction":"MORELAND HILLS","parcel_id":"91131001","owner_name":"35755 MILES ROAD,  LLC","property_address":"35755  MILES AVE, MORELAND HILLS, OH, 44022","property_city":"MORELAND HILLS","property_zip":"44022"}},{"type":"Feature","geometry":{"type":"Polygon","coordinates":[[[-81.44290331902793,41.42449615117001],[-81.44287328834798,41.425401563260976],[-81.44407661490872,41.42540218160082],[-81.4441066285207,41.424496768844904],[-81.44290331902793,41.42449615117001]]]},"properties":{"source_county":"Cuyahoga","jurisdiction":"MORELAND HILLS","parcel_id":"91127012","owner_name":"AMM MORELAND HILLS, LLC.","property_address":"4975  SOM CENTER RD, MORELAND HILLS, OH, 44022","property_city":"MORELAND HILLS","property_zip":"44022"}},{"type":"Feature","geometry":{"type":"Polygon","coordinates":[[[-81.43127572811125,41.42448206184979],[-81.43122522482595,41.42488944586354],[-81.43216809475155,41.42478370883274],[-81.432186852473,41.4244818523657],[-81.43127572811125,41.42448206184979]]]},"properties":{"source_county":"Cuyahoga","jurisdiction":"MORELAND HILLS","parcel_id":"91131004","owner_name":"TETTAU SCOTT B. & MEGAN A. ","property_address":"0  MILES DR, MORELAND HILLS, OH, 44139","property_city":"MORELAND HILLS","property_zip":"44139"}},{"type":"Feature","geometry":{"type":"Polygon","coordinates":[[[-81.43057692955003,41.42448221812093],[-81.43068713936066,41.424949784962664],[-81.43122522482595,41.42488944586354],[-81.43127572811125,41.42448206184979],[-81.43057692955003,41.42448221812093]]]},"properties":{"source_county":"Cuyahoga","jurisdiction":"MORELAND HILLS","parcel_id":"91132007","owner_name":"RALLS, BERNARD L. TRUSTEE","property_address":"0  MILES AVE, MORELAND HILLS, OH, 44139","property_city":"MORELAND HILLS","property_zip":"44139"}}]}