{"type":"FeatureCollection","features":[{"type":"Feature","geometry":{"type":"Polygon","coordinates":[[[-81.2437064439413,41.4999727009875],[-81.2437448297754,41.4999723044388],[-81.2437299094684,41.5000302652406],[-81.2430646385663,41.5000353685821],[-81.2420152623438,41.5000434101268],[-81.242014294072,41.4999901822946],[-81.2430641076479,41.4999793395237],[-81.2437064439413,41.4999727009875]]]},"properties":{"source_county":"Geauga","jurisdiction":"Munson Township","parcel_id":"21-085700","owner_name":"INGOLD JOHN L TRUSTEE","property_address":" AUBURN RD","property_city":"CHARDON","property_zip":"44024"}},{"type":"Feature","geometry":{"type":"Polygon","coordinates":[[[-81.243706443943,41.4999727009904],[-81.243744829777,41.4999723044417],[-81.2437299094701,41.5000302652434],[-81.243064638568,41.5000353685849],[-81.2420152623454,41.5000434101296],[-81.2420142940736,41.4999901822975],[-81.2430641076496,41.4999793395265],[-81.243706443943,41.4999727009904]]]},"properties":{"source_county":"Geauga","jurisdiction":"Munson Township","parcel_id":"21-085700","owner_name":"INGOLD JOHN L TRUSTEE","property_address":" AUBURN RD","property_city":"CHARDON","property_zip":"44024"}}]}