{"type":"FeatureCollection","features":[{"type":"Feature","geometry":{"type":"Polygon","coordinates":[[[-81.236021852357,41.3474938061907],[-81.2403012887864,41.3474917717197],[-81.2400701038953,41.351761730056],[-81.2400710002822,41.35280537468],[-81.2338752076749,41.3528038275665],[-81.2339356334342,41.3505680038314],[-81.2339841526758,41.3487725975239],[-81.2345659959048,41.3487723411415],[-81.2351123249852,41.3487720971282],[-81.2351121517305,41.348551182761],[-81.2351744843559,41.3485319727199],[-81.2360222852249,41.3480284535676],[-81.236021852357,41.3474938061907]]]},"properties":{"source_county":"Geauga","jurisdiction":"Auburn Township","parcel_id":"01-000600","owner_name":"ROWLEY ANDREW & TIFFANY","property_address":"11272 CRACKEL RD","property_city":"AUBURN TOWNSHIP","property_zip":"44023"}},{"type":"Feature","geometry":{"type":"Polygon","coordinates":[[[-81.2455221194179,41.3474891195804],[-81.2465783355035,41.3474887407525],[-81.2465783477367,41.3475713705134],[-81.2465551534502,41.3485724681435],[-81.2456608515097,41.348571314976],[-81.2455510777106,41.3485730113902],[-81.2455221194179,41.3474891195804]]]},"properties":{"source_county":"Geauga","jurisdiction":"Auburn Township","parcel_id":"01-013700","owner_name":"DAVIS GREGORY W & SUSAN K TRUSTEES","property_address":"19186 AUBURN RD","property_city":"AUBURN TOWNSHIP","property_zip":"44023"}},{"type":"Feature","geometry":{"type":"Polygon","coordinates":[[[-81.2422539738991,41.3474908351667],[-81.2442067219449,41.3474898213243],[-81.2442068745436,41.3474955315457],[-81.2442378664747,41.34865642019],[-81.244266805296,41.3497403120052],[-81.2443004316652,41.3509997941619],[-81.2443208794048,41.3517708687772],[-81.2421993254676,41.3517663493411],[-81.2422539074732,41.3474959918774],[-81.2422539738991,41.3474908351667]]]},"properties":{"source_county":"Geauga","jurisdiction":"Auburn Township","parcel_id":"01-013800","owner_name":"KUCIA KENNETH JOSHUA & BOEHM LORRIE","property_address":"11098 CRACKEL RD","property_city":"AUBURN TOWNSHIP","property_zip":"44023"}},{"type":"Feature","geometry":{"type":"Polygon","coordinates":[[[-81.2332902316963,41.3474950675537],[-81.234018685861,41.3474947049547],[-81.2339841526758,41.3487725975239],[-81.2339356334342,41.3505680038314],[-81.2332071452035,41.3505683659073],[-81.2332901201793,41.3474991791373],[-81.2332902316963,41.3474950675537]]]},"properties":{"source_county":"Geauga","jurisdiction":"Auburn Township","parcel_id":"01-114300","owner_name":"FRYGIER BRENDA A","property_address":"11378 CRACKEL RD","property_city":"AUBURN TOWNSHIP","property_zip":"44023"}},{"type":"Feature","geometry":{"type":"Polygon","coordinates":[[[-81.2282782137771,41.3474971312152],[-81.2304949033868,41.34749624552],[-81.2304949055036,41.3474998477381],[-81.2304968099921,41.3501301121341],[-81.2281836110696,41.3501414464214],[-81.2282228740258,41.3490440127975],[-81.2282781275854,41.3474995473417],[-81.2282782137771,41.3474971312152]]]},"properties":{"source_county":"Geauga","jurisdiction":"Auburn Township","parcel_id":"01-114400","owner_name":"HEAD WILLIAM F & BEVERLY LINERT CO TRUSTEES","property_address":"11484 CRACKEL RD","property_city":"AUBURN TOWNSHIP","property_zip":"44023"}},{"type":"Feature","geometry":{"type":"Polygon","coordinates":[[[-81.2238891028111,41.3474987608795],[-81.2282782137771,41.3474971312152],[-81.2282781275854,41.3474995473417],[-81.2282228740258,41.3490440127975],[-81.2251020943394,41.34905651812],[-81.2251323775303,41.3482112026247],[-81.2238645346378,41.3481854031294],[-81.2238284126875,41.3481846680036],[-81.2238529990208,41.3474987716126],[-81.2238891028111,41.3474987608795]]]},"properties":{"source_county":"Geauga","jurisdiction":"Auburn Township","parcel_id":"01-117332","owner_name":"ECKARD AARON B & LAURIE L","property_address":"11530 CRACKEL RD","property_city":"AUBURN TOWNSHIP","property_zip":"44023"}},{"type":"Feature","geometry":{"type":"Polygon","coordinates":[[[-81.2351113216032,41.3474942186027],[-81.236021852357,41.3474938061907],[-81.2360222852249,41.3480284535676],[-81.2351744843559,41.3485319727199],[-81.2351121517305,41.348551182761],[-81.2351113216032,41.3474942186027]]]},"properties":{"source_county":"Geauga","jurisdiction":"Auburn Township","parcel_id":"01-117447","owner_name":"ROWLEY ANDREW & TIFFANY","property_address":" CRACKEL RD","property_city":"AUBURN TOWNSHIP","property_zip":"44023"}},{"type":"Feature","geometry":{"type":"Polygon","coordinates":[[[-81.2345650043228,41.3474944635248],[-81.2351113216032,41.3474942186027],[-81.2351121517305,41.348551182761],[-81.2351123249852,41.3487720971282],[-81.2345659959048,41.3487723411415],[-81.2345650043228,41.3474944635248]]]},"properties":{"source_county":"Geauga","jurisdiction":"Auburn Township","parcel_id":"01-117448","owner_name":"MILSTEIN SHELLEY R","property_address":"11328 CRACKEL RD","property_city":"AUBURN TOWNSHIP","property_zip":"44023"}},{"type":"Feature","geometry":{"type":"Polygon","coordinates":[[[-81.234018685861,41.3474947049547],[-81.2345650043228,41.3474944635248],[-81.2345659959048,41.3487723411415],[-81.2339841526758,41.3487725975239],[-81.234018685861,41.3474947049547]]]},"properties":{"source_county":"Geauga","jurisdiction":"Auburn Township","parcel_id":"01-117449","owner_name":"MOLLOHAN LISA","property_address":"11344 CRACKEL RD","property_city":"AUBURN TOWNSHIP","property_zip":"44023"}},{"type":"Feature","geometry":{"type":"Polygon","coordinates":[[[-81.2403012887864,41.3474917717197],[-81.2422539738991,41.3474908351667],[-81.2422539074732,41.3474959918774],[-81.2421993254676,41.3517663493411],[-81.2400701038953,41.351761730056],[-81.2403012887864,41.3474917717197]]]},"properties":{"source_county":"Geauga","jurisdiction":"Auburn Township","parcel_id":"01-117688","owner_name":"DER PAUL A","property_address":"11152 CRACKEL RD","property_city":"CHAGRIN FALLS","property_zip":"44023"}},{"type":"Feature","geometry":{"type":"Polygon","coordinates":[[[-81.2455134696122,41.3474891239767],[-81.2455221194179,41.3474891195804],[-81.2455510777106,41.3485730113902],[-81.2455532786044,41.3486553595805],[-81.2442378664747,41.34865642019],[-81.2442068745436,41.3474955315457],[-81.2442067219449,41.3474898213243],[-81.2455134696122,41.3474891239767]]]},"properties":{"source_county":"Geauga","jurisdiction":"Auburn Township","parcel_id":"01-118193","owner_name":"MC COY DANIEL P & KRISTEN M","property_address":"11060 CRACKEL RD","property_city":"AUBURN TOWNSHIP","property_zip":"44023"}},{"type":"Feature","geometry":{"type":"Polygon","coordinates":[[[-81.2442378664747,41.34865642019],[-81.2455532786044,41.3486553595805],[-81.2455793173299,41.3496299291386],[-81.2455822379077,41.3497392519544],[-81.244266805296,41.3497403120052],[-81.2442378664747,41.34865642019]]]},"properties":{"source_county":"Geauga","jurisdiction":"Auburn Township","parcel_id":"01-118225","owner_name":"TITTERINGTON SAMANTHA R & CHRISTOPHER J","property_address":"19141 AUBURN RD","property_city":"AUBURN TOWNSHIP","property_zip":"44023"}},{"type":"Feature","geometry":{"type":"Polygon","coordinates":[[[-81.2325618070669,41.3474953808639],[-81.2332902316963,41.3474950675537],[-81.2332901201793,41.3474991791373],[-81.2332071452035,41.3505683659073],[-81.2324786865095,41.3505686786942],[-81.2325616951744,41.3474995095536],[-81.2325618070669,41.3474953808639]]]},"properties":{"source_county":"Geauga","jurisdiction":"Auburn Township","parcel_id":"01-118227","owner_name":"KUZNIAKOWSKI JOSEPH E TRUSTEE","property_address":"11400 CRACKEL RD","property_city":"AUBURN TOWNSHIP","property_zip":"44023"}},{"type":"Feature","geometry":{"type":"Polygon","coordinates":[[[-81.2360218523587,41.3474938061935],[-81.2403012887881,41.3474917717226],[-81.240070103897,41.3517617300588],[-81.2400710002838,41.3528053746828],[-81.2338752076765,41.3528038275693],[-81.2339356334358,41.3505680038343],[-81.2339841526775,41.3487725975268],[-81.2345659959065,41.3487723411443],[-81.2351123249869,41.348772097131],[-81.2351121517322,41.3485511827638],[-81.2351744843576,41.3485319727228],[-81.2360222852266,41.3480284535704],[-81.2360218523587,41.3474938061935]]]},"properties":{"source_county":"Geauga","jurisdiction":"Auburn Township","parcel_id":"01-000600","owner_name":"ROWLEY ANDREW & TIFFANY","property_address":"11272 CRACKEL RD","property_city":"AUBURN TOWNSHIP","property_zip":"44023"}},{"type":"Feature","geometry":{"type":"Polygon","coordinates":[[[-81.2455221194196,41.3474891195833],[-81.2465783355052,41.3474887407554],[-81.2465783477384,41.3475713705162],[-81.2465551534519,41.3485724681464],[-81.2456608515114,41.3485713149788],[-81.2455510777123,41.348573011393],[-81.2455221194196,41.3474891195833]]]},"properties":{"source_county":"Geauga","jurisdiction":"Auburn Township","parcel_id":"01-013700","owner_name":"DAVIS GREGORY W & SUSAN K TRUSTEES","property_address":"19186 AUBURN RD","property_city":"AUBURN TOWNSHIP","property_zip":"44023"}},{"type":"Feature","geometry":{"type":"Polygon","coordinates":[[[-81.2422539739009,41.3474908351696],[-81.2442067219466,41.3474898213271],[-81.2442068745452,41.3474955315485],[-81.2442378664764,41.3486564201928],[-81.2442668052977,41.3497403120081],[-81.2443004316668,41.3509997941647],[-81.2443208794065,41.35177086878],[-81.2421993254693,41.351766349344],[-81.2422539074749,41.3474959918802],[-81.2422539739009,41.3474908351696]]]},"properties":{"source_county":"Geauga","jurisdiction":"Auburn Township","parcel_id":"01-013800","owner_name":"KUCIA KENNETH JOSHUA & BOEHM LORRIE","property_address":"11098 CRACKEL RD","property_city":"AUBURN TOWNSHIP","property_zip":"44023"}},{"type":"Feature","geometry":{"type":"Polygon","coordinates":[[[-81.233290231698,41.3474950675566],[-81.2340186858627,41.3474947049575],[-81.2339841526775,41.3487725975268],[-81.2339356334358,41.3505680038343],[-81.2332071452052,41.3505683659101],[-81.2332901201809,41.3474991791401],[-81.233290231698,41.3474950675566]]]},"properties":{"source_county":"Geauga","jurisdiction":"Auburn Township","parcel_id":"01-114300","owner_name":"FRYGIER BRENDA A","property_address":"11378 CRACKEL RD","property_city":"AUBURN TOWNSHIP","property_zip":"44023"}},{"type":"Feature","geometry":{"type":"Polygon","coordinates":[[[-81.2282782137788,41.3474971312181],[-81.2304949033885,41.3474962455228],[-81.2304949055053,41.347499847741],[-81.2304968099939,41.3501301121369],[-81.2281836110712,41.3501414464243],[-81.2282228740275,41.3490440128004],[-81.2282781275871,41.3474995473446],[-81.2282782137788,41.3474971312181]]]},"properties":{"source_county":"Geauga","jurisdiction":"Auburn Township","parcel_id":"01-114400","owner_name":"HEAD WILLIAM F & BEVERLY LINERT CO TRUSTEES","property_address":"11484 CRACKEL RD","property_city":"AUBURN TOWNSHIP","property_zip":"44023"}},{"type":"Feature","geometry":{"type":"Polygon","coordinates":[[[-81.2238891028128,41.3474987608824],[-81.2282782137788,41.3474971312181],[-81.2282781275871,41.3474995473446],[-81.2282228740275,41.3490440128004],[-81.2251020943411,41.3490565181228],[-81.225132377532,41.3482112026276],[-81.2238645346395,41.3481854031322],[-81.2238284126892,41.3481846680065],[-81.2238529990225,41.3474987716154],[-81.2238891028128,41.3474987608824]]]},"properties":{"source_county":"Geauga","jurisdiction":"Auburn Township","parcel_id":"01-117332","owner_name":"ECKARD AARON B & LAURIE L","property_address":"11530 CRACKEL RD","property_city":"AUBURN TOWNSHIP","property_zip":"44023"}},{"type":"Feature","geometry":{"type":"Polygon","coordinates":[[[-81.2351113216049,41.3474942186055],[-81.2360218523587,41.3474938061935],[-81.2360222852266,41.3480284535704],[-81.2351744843576,41.3485319727228],[-81.2351121517322,41.3485511827638],[-81.2351113216049,41.3474942186055]]]},"properties":{"source_county":"Geauga","jurisdiction":"Auburn Township","parcel_id":"01-117447","owner_name":"ROWLEY ANDREW & TIFFANY","property_address":" CRACKEL RD","property_city":"AUBURN TOWNSHIP","property_zip":"44023"}},{"type":"Feature","geometry":{"type":"Polygon","coordinates":[[[-81.2345650043245,41.3474944635277],[-81.2351113216049,41.3474942186055],[-81.2351121517322,41.3485511827638],[-81.2351123249869,41.348772097131],[-81.2345659959065,41.3487723411443],[-81.2345650043245,41.3474944635277]]]},"properties":{"source_county":"Geauga","jurisdiction":"Auburn Township","parcel_id":"01-117448","owner_name":"MILSTEIN SHELLEY R","property_address":"11328 CRACKEL RD","property_city":"AUBURN TOWNSHIP","property_zip":"44023"}},{"type":"Feature","geometry":{"type":"Polygon","coordinates":[[[-81.2340186858627,41.3474947049575],[-81.2345650043245,41.3474944635277],[-81.2345659959065,41.3487723411443],[-81.2339841526775,41.3487725975268],[-81.2340186858627,41.3474947049575]]]},"properties":{"source_county":"Geauga","jurisdiction":"Auburn Township","parcel_id":"01-117449","owner_name":"MOLLOHAN LISA","property_address":"11344 CRACKEL RD","property_city":"AUBURN TOWNSHIP","property_zip":"44023"}},{"type":"Feature","geometry":{"type":"Polygon","coordinates":[[[-81.2403012887881,41.3474917717226],[-81.2422539739009,41.3474908351696],[-81.2422539074749,41.3474959918802],[-81.2421993254693,41.351766349344],[-81.240070103897,41.3517617300588],[-81.2403012887881,41.3474917717226]]]},"properties":{"source_county":"Geauga","jurisdiction":"Auburn Township","parcel_id":"01-117688","owner_name":"DER PAUL A","property_address":"11152 CRACKEL RD","property_city":"CHAGRIN FALLS","property_zip":"44023"}},{"type":"Feature","geometry":{"type":"Polygon","coordinates":[[[-81.2455134696138,41.3474891239795],[-81.2455221194196,41.3474891195833],[-81.2455510777123,41.348573011393],[-81.2455532786061,41.3486553595833],[-81.2442378664764,41.3486564201928],[-81.2442068745452,41.3474955315485],[-81.2442067219466,41.3474898213271],[-81.2455134696138,41.3474891239795]]]},"properties":{"source_county":"Geauga","jurisdiction":"Auburn Township","parcel_id":"01-118193","owner_name":"MC COY DANIEL P & KRISTEN M","property_address":"11060 CRACKEL RD","property_city":"AUBURN TOWNSHIP","property_zip":"44023"}},{"type":"Feature","geometry":{"type":"Polygon","coordinates":[[[-81.2442378664764,41.3486564201928],[-81.2455532786061,41.3486553595833],[-81.2455793173316,41.3496299291415],[-81.2455822379094,41.3497392519573],[-81.2442668052977,41.3497403120081],[-81.2442378664764,41.3486564201928]]]},"properties":{"source_county":"Geauga","jurisdiction":"Auburn Township","parcel_id":"01-118225","owner_name":"TITTERINGTON SAMANTHA R & CHRISTOPHER J","property_address":"19141 AUBURN RD","property_city":"AUBURN TOWNSHIP","property_zip":"44023"}},{"type":"Feature","geometry":{"type":"Polygon","coordinates":[[[-81.2325618070686,41.3474953808668],[-81.233290231698,41.3474950675566],[-81.2332901201809,41.3474991791401],[-81.2332071452052,41.3505683659101],[-81.2324786865112,41.350568678697],[-81.232561695176,41.3474995095564],[-81.2325618070686,41.3474953808668]]]},"properties":{"source_county":"Geauga","jurisdiction":"Auburn Township","parcel_id":"01-118227","owner_name":"KUZNIAKOWSKI JOSEPH E TRUSTEE","property_address":"11400 CRACKEL RD","property_city":"AUBURN TOWNSHIP","property_zip":"44023"}}]}