{"type":"FeatureCollection","features":[{"type":"Feature","geometry":{"type":"Polygon","coordinates":[[[-81.2557556016689,41.6252469479916],[-81.2569471720044,41.62524734694],[-81.2569465868358,41.6256151220295],[-81.2563512554704,41.6256149289707],[-81.2557550098034,41.6256147230752],[-81.2557556016689,41.6252469479916]]]},"properties":{"source_county":"Geauga","jurisdiction":"Chardon Township","parcel_id":"06-029100","owner_name":"POWELL THOMAS","property_address":"9001 MOUNTAIN VIEW DR","property_city":"CHARDON","property_zip":"44024"}},{"type":"Feature","geometry":{"type":"Polygon","coordinates":[[[-81.253162434207,41.6256140437208],[-81.2537486192466,41.6256143261317],[-81.2537484725645,41.6265198880158],[-81.253155235822,41.6265197308507],[-81.253162434207,41.6256140437208]]]},"properties":{"source_county":"Geauga","jurisdiction":"Chardon Township","parcel_id":"06-032800","owner_name":"LIDDY ROBERT M SR & DEBORAH A","property_address":"10815 CLARK RD","property_city":"CHARDON","property_zip":"44024"}},{"type":"Feature","geometry":{"type":"Polygon","coordinates":[[[-81.2571660657671,41.625615067555],[-81.2577623114416,41.6256152662124],[-81.2577612160818,41.6265208758981],[-81.2570560767204,41.6265207123214],[-81.2570564550901,41.6256150750602],[-81.2571660657671,41.625615067555]]]},"properties":{"source_county":"Geauga","jurisdiction":"Chardon Township","parcel_id":"06-033500","owner_name":"SCHNEIDER JONATHAN D & HEIDI E","property_address":"10707 CLARK RD","property_city":"CHARDON","property_zip":"44024"}},{"type":"Feature","geometry":{"type":"Polygon","coordinates":[[[-81.2531683361911,41.6248723684131],[-81.2543443566795,41.6248726273057],[-81.2543446058885,41.6252438423179],[-81.2531658358297,41.6252435540036],[-81.2531683361911,41.6248723684131]]]},"properties":{"source_county":"Geauga","jurisdiction":"Chardon Township","parcel_id":"06-034200","owner_name":"ERICKSON DAVID C & MEGAN D","property_address":"9019 MOUNTAIN VIEW DR","property_city":"CHARDON","property_zip":"44024"}},{"type":"Feature","geometry":{"type":"Polygon","coordinates":[[[-81.255755275963,41.6248793350285],[-81.2569468428714,41.6248795620255],[-81.2569471720044,41.62524734694],[-81.2557556016689,41.6252469479916],[-81.255755275963,41.6248793350285]]]},"properties":{"source_county":"Geauga","jurisdiction":"Chardon Township","parcel_id":"06-054800","owner_name":"KOFOL STEVEN M TOD","property_address":"9017 MOUNTAIN VIEW DR","property_city":"CHARDON","property_zip":"44024"}},{"type":"Feature","geometry":{"type":"Polygon","coordinates":[[[-81.258359803829,41.6252476965681],[-81.2583600486536,41.6252476964821],[-81.2583594746884,41.6256152996239],[-81.2583591506535,41.6256152997642],[-81.2577623114416,41.6256152662124],[-81.2571660657671,41.625615067555],[-81.2571666497023,41.6252472924643],[-81.258359803829,41.6252476965681]]]},"properties":{"source_county":"Geauga","jurisdiction":"Chardon Township","parcel_id":"06-055200","owner_name":"GRANT JUDY RUTH TOD","property_address":"9000 MOUNTAIN VIEW DR","property_city":"CHARDON","property_zip":"44024"}},{"type":"Feature","geometry":{"type":"Polygon","coordinates":[[[-81.25456342953,41.6256144829601],[-81.2551596751911,41.6256146949679],[-81.2551595493385,41.6265202514647],[-81.2544537319147,41.626520072043],[-81.2544541451339,41.625614432977],[-81.25456342953,41.6256144829601]]]},"properties":{"source_county":"Geauga","jurisdiction":"Chardon Township","parcel_id":"06-056250","owner_name":"FORBES MELVIN L IV & LYNN M","property_address":"10777 CLARK RD","property_city":"CHARDON","property_zip":"44024"}},{"type":"Feature","geometry":{"type":"Polygon","coordinates":[[[-81.2569465868358,41.6256151220295],[-81.2570564550901,41.6256150750602],[-81.2570560767204,41.6265207123214],[-81.2563501392801,41.626520544032],[-81.2563512554704,41.6256149289707],[-81.2569465868358,41.6256151220295]]]},"properties":{"source_county":"Geauga","jurisdiction":"Chardon Township","parcel_id":"06-064600","owner_name":"MATARAZA CHERYL L TRUSTEE","property_address":"10727 CLARK RD","property_city":"CHARDON","property_zip":"44024"}},{"type":"Feature","geometry":{"type":"Polygon","coordinates":[[[-81.2583591506535,41.6256152997642],[-81.2583594746884,41.6256152996239],[-81.2583593561048,41.6256662639995],[-81.2583582577532,41.6261407489359],[-81.2583573775474,41.626521011084],[-81.2577612160818,41.6265208758981],[-81.2577623114416,41.6256152662124],[-81.2583591506535,41.6256152997642]]]},"properties":{"source_county":"Geauga","jurisdiction":"Chardon Township","parcel_id":"06-065600","owner_name":"CONN STEVE MC KINLEY","property_address":"10689 CLARK RD","property_city":"CHARDON","property_zip":"44024"}},{"type":"Feature","geometry":{"type":"Polygon","coordinates":[[[-81.2584162190116,41.6336423381399],[-81.2583962088297,41.6312207312737],[-81.2583862254905,41.6300124468121],[-81.2583720501778,41.6282969293344],[-81.2617326424571,41.6283225009471],[-81.262625678898,41.6313811780008],[-81.2659645056953,41.6308807323361],[-81.2681376708372,41.6305549470547],[-81.2683220101671,41.6305273102668],[-81.2683026065475,41.6322874944038],[-81.2704748656953,41.6323250860567],[-81.2704475316758,41.6336164147873],[-81.2625692801986,41.6336334864249],[-81.2584162190116,41.6336423381399]]]},"properties":{"source_county":"Geauga","jurisdiction":"Chardon Township","parcel_id":"06-068400","owner_name":"STABLE PROPERTY LLC","property_address":"8754 HERMITAGE RD","property_city":"CONCORD TOWNSHIP","property_zip":"44077"}},{"type":"Feature","geometry":{"type":"Polygon","coordinates":[[[-81.2583573775474,41.626521011084],[-81.2612068686308,41.6265215698466],[-81.2617326424571,41.6283225009471],[-81.2583720501778,41.6282969293344],[-81.258369086351,41.6279382267895],[-81.2583573775474,41.626521011084]]]},"properties":{"source_county":"Geauga","jurisdiction":"Chardon Township","parcel_id":"06-068600","owner_name":"STOCKHAM PARTNERS LLC","property_address":" HERMITAGE RD","property_city":"CONCORD TOWNSHIP","property_zip":"44077"}},{"type":"Feature","geometry":{"type":"Polygon","coordinates":[[[-81.2673940084015,41.6289586499313],[-81.2681413774838,41.628275924918],[-81.2681402431677,41.6289678566418],[-81.2681376708372,41.6305549470547],[-81.2659645056953,41.6308807323361],[-81.2658037158473,41.6304113257281],[-81.2673940084015,41.6289586499313]]]},"properties":{"source_county":"Geauga","jurisdiction":"Chardon Township","parcel_id":"06-068700","owner_name":"MC MILLAN S STERLING IV","property_address":" GRISWOLD RD","property_city":"MENTOR","property_zip":"44060"}},{"type":"Feature","geometry":{"type":"Polygon","coordinates":[[[-81.2705698359757,41.62899628039],[-81.2705700917631,41.6288362675592],[-81.2700163586082,41.6289904249314],[-81.2699368398306,41.6290125624511],[-81.2699314124273,41.6289895260183],[-81.2698209215961,41.6285205248267],[-81.2699380908968,41.6266719830137],[-81.269482317979,41.6265795442078],[-81.2692968719584,41.6262568001811],[-81.2684965054381,41.6248638351179],[-81.2718772918518,41.6252412039163],[-81.2730706621138,41.6262959220892],[-81.2728699068282,41.6262942628923],[-81.2727783199747,41.6298591092127],[-81.2727462975174,41.629863911877],[-81.2705679571033,41.6301905656018],[-81.2705698359757,41.62899628039]]]},"properties":{"source_county":"Geauga","jurisdiction":"Chardon Township","parcel_id":"06-068800","owner_name":"GREEN GLEN HOLDINGS LLC","property_address":" GRISWOLD RD","property_city":"MENTOR","property_zip":"44060"}},{"type":"Feature","geometry":{"type":"Polygon","coordinates":[[[-81.2705679571033,41.6301905656018],[-81.2727462975174,41.629863911877],[-81.2727059203034,41.6314846742686],[-81.271383099836,41.6314917196583],[-81.2713461400744,41.6336159831454],[-81.2713202520898,41.635103852909],[-81.2704293982722,41.6350969008398],[-81.2704475316758,41.6336164147873],[-81.2704748656953,41.6323250860567],[-81.2683026065475,41.6322874944038],[-81.2683220101671,41.6305273102668],[-81.2699348221963,41.6302854992885],[-81.2705679571033,41.6301905656018]]]},"properties":{"source_county":"Geauga","jurisdiction":"Chardon Township","parcel_id":"06-069000","owner_name":"MC MILLAN S STERLING IV","property_address":" GRISWOLD RD","property_city":"CONCORD TOWNSHIP","property_zip":"44077"}},{"type":"Feature","geometry":{"type":"Polygon","coordinates":[[[-81.2625692801986,41.6336334864249],[-81.2704475316758,41.6336164147873],[-81.2704293982722,41.6350969008398],[-81.2625322047783,41.6351140119163],[-81.2625692801986,41.6336334864249]]]},"properties":{"source_county":"Geauga","jurisdiction":"Chardon Township","parcel_id":"06-069100","owner_name":"FARRAND A BRADY TOD & MC MILLAN ELIZABETH HADLEY TRUSTEE & JEFFERY KATHARINE MC MILLAN TOD","property_address":" HERMITAGE RD","property_city":"CONCORD TOWNSHIP","property_zip":"44077"}},{"type":"Feature","geometry":{"type":"Polygon","coordinates":[[[-81.2584162190116,41.6336423381399],[-81.2625692801986,41.6336334864249],[-81.2625322047783,41.6351140119163],[-81.2624913189812,41.6367466476453],[-81.2583780147631,41.6367399688614],[-81.2584162190116,41.6336423381399]]]},"properties":{"source_county":"Geauga","jurisdiction":"Chardon Township","parcel_id":"06-069300","owner_name":"MC MILLAN STERLING III & JUDITH K","property_address":"8585 HERMITAGE RD","property_city":"CONCORD TOWNSHIP","property_zip":"44077"}},{"type":"Feature","geometry":{"type":"Polygon","coordinates":[[[-81.2730706621138,41.6262959220892],[-81.2741395436901,41.6263050886355],[-81.2741395428974,41.6263051309491],[-81.2740439010498,41.6296693083709],[-81.2729675467293,41.6298307314877],[-81.2727783199747,41.6298591092127],[-81.2728699068282,41.6262942628923],[-81.2730706621138,41.6262959220892]]]},"properties":{"source_county":"Geauga","jurisdiction":"Chardon Township","parcel_id":"06-069700","owner_name":"MCMILLAN SAMUEL S IV & CLAIRE","property_address":" GRISWOLD RD","property_city":"MENTOR","property_zip":"44060"}},{"type":"Feature","geometry":{"type":"Polygon","coordinates":[[[-81.2577612160818,41.6265208758981],[-81.2583573775474,41.626521011084],[-81.258369086351,41.6279382267895],[-81.2583720501778,41.6282969293344],[-81.2583862254905,41.6300124468121],[-81.2583962088297,41.6312207312737],[-81.258065690691,41.63122198099],[-81.2525532303093,41.6312426803446],[-81.2524617919464,41.6312430218105],[-81.2524616963094,41.6312383437529],[-81.2523656185184,41.626518233663],[-81.2526989376491,41.6265196067065],[-81.2530638026452,41.6265197062844],[-81.253155235822,41.6265197308507],[-81.2537484725645,41.6265198880158],[-81.2544537319147,41.626520072043],[-81.2551595493385,41.6265202514647],[-81.2557548887125,41.6265203992979],[-81.2563501392801,41.626520544032],[-81.2570560767204,41.6265207123214],[-81.2577612160818,41.6265208758981]]]},"properties":{"source_county":"Geauga","jurisdiction":"Chardon Township","parcel_id":"06-069900","owner_name":"STOCKHAM PARTNERS LLC","property_address":" CLARK RD","property_city":"CONCORD TOWNSHIP","property_zip":"44077"}},{"type":"Feature","geometry":{"type":"Polygon","coordinates":[[[-81.2531658358297,41.6252435540036],[-81.2543446058885,41.6252438423179],[-81.2543448681599,41.6256143712648],[-81.2537486192466,41.6256143261317],[-81.253162434207,41.6256140437208],[-81.2531658358297,41.6252435540036]]]},"properties":{"source_county":"Geauga","jurisdiction":"Chardon Township","parcel_id":"06-092600","owner_name":"PLANTAN JEFFREY B AKA JEFFREY","property_address":"9003 MOUNTAIN VIEW DR","property_city":"CHARDON","property_zip":"44024"}},{"type":"Feature","geometry":{"type":"Polygon","coordinates":[[[-81.2543448681599,41.6256143712648],[-81.2544541451339,41.625614432977],[-81.2544537319147,41.626520072043],[-81.2537484725645,41.6265198880158],[-81.2537486192466,41.6256143261317],[-81.2543448681599,41.6256143712648]]]},"properties":{"source_county":"Geauga","jurisdiction":"Chardon Township","parcel_id":"06-093900","owner_name":"SASS DAVID","property_address":"10799 CLARK RD","property_city":"CHARDON","property_zip":"44024"}},{"type":"Feature","geometry":{"type":"Polygon","coordinates":[[[-81.2557550098034,41.6256147230752],[-81.2563512554704,41.6256149289707],[-81.2563501392801,41.626520544032],[-81.2557548887125,41.6265203992979],[-81.2557550098034,41.6256147230752]]]},"properties":{"source_county":"Geauga","jurisdiction":"Chardon Township","parcel_id":"06-111100","owner_name":"VIELAND JENNIFER J","property_address":"10745 CLARK RD","property_city":"CHARDON","property_zip":"44024"}},{"type":"Feature","geometry":{"type":"Polygon","coordinates":[[[-81.2545646266308,41.6248789336588],[-81.255755275963,41.6248793350285],[-81.2557556016689,41.6252469479916],[-81.2545640280752,41.6252467087829],[-81.2545646266308,41.6248789336588]]]},"properties":{"source_county":"Geauga","jurisdiction":"Chardon Township","parcel_id":"06-112900","owner_name":"CHRISTEL MARTIN W TOD","property_address":" MOUNTAIN VIEW DR","property_city":"CHARDON","property_zip":"44024"}},{"type":"Feature","geometry":{"type":"Polygon","coordinates":[[[-81.2545640280752,41.6252467087829],[-81.2557556016689,41.6252469479916],[-81.2557550098034,41.6256147230752],[-81.2551596751911,41.6256146949679],[-81.25456342953,41.6256144829601],[-81.2545640280752,41.6252467087829]]]},"properties":{"source_county":"Geauga","jurisdiction":"Chardon Township","parcel_id":"06-113000","owner_name":"SOEDER KEVIN J","property_address":"9002 MOUNTAIN VIEW DR","property_city":"CHARDON","property_zip":"44024"}},{"type":"Feature","geometry":{"type":"Polygon","coordinates":[[[-81.2583604566605,41.6248799213322],[-81.2583606258753,41.6248799213389],[-81.2583600486536,41.6252476964821],[-81.258359803829,41.6252476965681],[-81.2571666497023,41.6252472924643],[-81.2571663160698,41.6248796795052],[-81.2583604566605,41.6248799213322]]]},"properties":{"source_county":"Geauga","jurisdiction":"Chardon Township","parcel_id":"06-119000","owner_name":"SKITZKI JESSICA & SUDNICK KYLE","property_address":"9016 MOUNTAIN VIEW DR","property_city":"CHARDON","property_zip":"44024"}},{"type":"Feature","geometry":{"type":"Polygon","coordinates":[[[-81.2551596751911,41.6256146949679],[-81.2557550098034,41.6256147230752],[-81.2557548887125,41.6265203992979],[-81.2551595493385,41.6265202514647],[-81.2551596751911,41.6256146949679]]]},"properties":{"source_county":"Geauga","jurisdiction":"Chardon Township","parcel_id":"06-119150","owner_name":"PRATHER KEVEN P & CATHLEEN M CO TRUSTEES","property_address":"10761 CLARK RD","property_city":"CHARDON","property_zip":"44024"}},{"type":"Feature","geometry":{"type":"Polygon","coordinates":[[[-81.2635478328154,41.626196293447],[-81.2629017521369,41.6241428700663],[-81.2626128448762,41.6233947403543],[-81.2629070252481,41.6233654514629],[-81.2646364098319,41.6243633882994],[-81.2653536461888,41.624350187948],[-81.2663379122128,41.6247475947788],[-81.2668151257705,41.624685686701],[-81.2682836091816,41.6248412790266],[-81.2684965054381,41.6248638351179],[-81.2692968719584,41.6262568001811],[-81.269482317979,41.6265795442078],[-81.269128548145,41.6268543938861],[-81.2688835828643,41.626982279873],[-81.2688106469634,41.6273833280911],[-81.2680088101386,41.6278941438106],[-81.2683024687742,41.6281287660015],[-81.2681413774838,41.628275924918],[-81.2673940084015,41.6289586499313],[-81.2658037158473,41.6304113257281],[-81.2659645056953,41.6308807323361],[-81.262625678898,41.6313811780008],[-81.2617326424571,41.6283225009471],[-81.2612068686308,41.6265215698466],[-81.2611488763497,41.6263355525315],[-81.2635498729522,41.6262027760078],[-81.2635478328154,41.626196293447]]]},"properties":{"source_county":"Geauga","jurisdiction":"Chardon Township","parcel_id":"06-120209","owner_name":"GLENMOUNT INVESTMENT COMPANY","property_address":" GRISWOLD RD","property_city":"CONCORD TOWNSHIP","property_zip":"44077"}},{"type":"Feature","geometry":{"type":"Polygon","coordinates":[[[-81.269128548145,41.6268543938861],[-81.269482317979,41.6265795442078],[-81.2699380908968,41.6266719830137],[-81.2698209215961,41.6285205248267],[-81.2699314124273,41.6289895260183],[-81.2699368398306,41.6290125624511],[-81.2699348221963,41.6302854992885],[-81.2683220101671,41.6305273102668],[-81.2681376708372,41.6305549470547],[-81.2681402431677,41.6289678566418],[-81.2681413774838,41.628275924918],[-81.2683024687742,41.6281287660015],[-81.2680088101386,41.6278941438106],[-81.2688106469634,41.6273833280911],[-81.2688835828643,41.626982279873],[-81.269128548145,41.6268543938861]]]},"properties":{"source_county":"Geauga","jurisdiction":"Chardon Township","parcel_id":"06-120226","owner_name":"MC MILLAN S STERLING IV & CLAIRE F","property_address":"10401 GRISWOLD RD","property_city":"MENTOR","property_zip":"44060"}},{"type":"Feature","geometry":{"type":"Polygon","coordinates":[[[-81.2700163586082,41.6289904249314],[-81.2705700917631,41.6288362675592],[-81.2705698359757,41.62899628039],[-81.2705679571033,41.6301905656018],[-81.2699348221963,41.6302854992885],[-81.2699368398306,41.6290125624511],[-81.2700163586082,41.6289904249314]]]},"properties":{"source_county":"Geauga","jurisdiction":"Chardon Township","parcel_id":"06-120545","owner_name":"MC MILLAN S STERLING IV & CLAIRE F","property_address":" GRISWOLD RD","property_city":"MENTOR","property_zip":"44060"}},{"type":"Feature","geometry":{"type":"Polygon","coordinates":[[[-81.2583780147631,41.6367399688614],[-81.2624913189812,41.6367466476453],[-81.2624764473696,41.6373404512182],[-81.2583706903591,41.637333791685],[-81.2583780147631,41.6367399688614]]]},"properties":{"source_county":"Geauga","jurisdiction":"Chardon Township","parcel_id":"06-120620","owner_name":"STOCKHAM PARTNERS L L C","property_address":" HERMITAGE RD","property_city":"CONCORD TOWNSHIP","property_zip":"44077"}},{"type":"Feature","geometry":{"type":"Polygon","coordinates":[[[-81.2705007851666,41.6384239976534],[-81.2704979025913,41.6373315889508],[-81.26247666388,41.6373317973559],[-81.2624913189812,41.6367466476453],[-81.2625322047783,41.6351140119163],[-81.2704293982722,41.6350969008398],[-81.2713202520898,41.635103852909],[-81.271318011034,41.6369480025409],[-81.2713162249245,41.6384186374376],[-81.2705007851666,41.6384239976534]]]},"properties":{"source_county":"Geauga","jurisdiction":"Chardon Township","parcel_id":"06-707200","owner_name":"HOLDEN ARBORETUM THE","property_address":" HERMITAGE RD","property_city":"CONCORD TOWNSHIP","property_zip":"44077"}},{"type":"Feature","geometry":{"type":"Polygon","coordinates":[[[-81.2624063008579,41.6401412631278],[-81.2656256240595,41.6401243243125],[-81.2656029207785,41.6410325416928],[-81.2623835528795,41.6410494798734],[-81.2624063008579,41.6401412631278]]]},"properties":{"source_county":"Geauga","jurisdiction":"Chardon Township","parcel_id":"07-000700","owner_name":"CHAPPELL MICHAEL & GENA","property_address":"8400 HERMITAGE RD","property_city":"PAINESVILLE","property_zip":"44077"}},{"type":"Feature","geometry":{"type":"Polygon","coordinates":[[[-81.2656496375363,41.6391636829573],[-81.2705027371526,41.6391637343043],[-81.2705076052249,41.6410065646253],[-81.2656029207785,41.6410325416928],[-81.2656256240595,41.6401243243125],[-81.2656496375363,41.6391636829573]]]},"properties":{"source_county":"Geauga","jurisdiction":"Chardon Township","parcel_id":"07-000800","owner_name":"CHAPPELL MICHAEL & GENA","property_address":" HERMITAGE RD","property_city":"PAINESVILLE","property_zip":"44077"}},{"type":"Feature","geometry":{"type":"Polygon","coordinates":[[[-81.2543501288106,41.6382851239672],[-81.2538565590534,41.6379989790504],[-81.2523867017614,41.6379972359445],[-81.2523863221886,41.6377641084233],[-81.2523859426358,41.6375309799828],[-81.2523851759335,41.63706002343],[-81.2523848218958,41.6368244873592],[-81.2523847261473,41.6367656210449],[-81.2523844077571,41.6365882005353],[-81.2523842157191,41.6364702445745],[-81.2523840224988,41.6363522876957],[-81.2523836123505,41.636099930249],[-81.2525606748096,41.63610014563],[-81.2526521293444,41.6361002562217],[-81.2526023309127,41.6336544192967],[-81.2584162190116,41.6336423381399],[-81.2583780147631,41.6367399688614],[-81.2583706903591,41.637333791685],[-81.258362196694,41.638022483006],[-81.2583580502735,41.6382861137961],[-81.2543501288106,41.6382851239672]]]},"properties":{"source_county":"Geauga","jurisdiction":"Chardon Township","parcel_id":"07-001521","owner_name":"STOCKHAM PARTNERS LLC","property_address":" HERMITAGE RD","property_city":"PAINESVILLE","property_zip":"44077"}},{"type":"Feature","geometry":{"type":"Polygon","coordinates":[[[-81.258065690691,41.63122198099],[-81.2583962088297,41.6312207312737],[-81.2584162190116,41.6336423381399],[-81.2526023309127,41.6336544192967],[-81.2525532303093,41.6312426803446],[-81.258065690691,41.63122198099]]]},"properties":{"source_county":"Geauga","jurisdiction":"Chardon Township","parcel_id":"07-001523","owner_name":"STOCKHAM PARTNERS L L C","property_address":" HERMITAGE RD","property_city":"PAINESVILLE","property_zip":"44077"}},{"type":"Feature","geometry":{"type":"Polygon","coordinates":[[[-81.2498980253569,41.6344799193079],[-81.2525277020469,41.6344806318215],[-81.2525606748096,41.63610014563],[-81.2523836123505,41.636099930249],[-81.2499942696701,41.636096999314],[-81.2499284592509,41.6360969174693],[-81.2499236736189,41.6358426245587],[-81.2498980253569,41.6344799193079]]]},"properties":{"source_county":"Geauga","jurisdiction":"Chardon Township","parcel_id":"07-001524","owner_name":"STOCKHAM PARTNERS L L C","property_address":" AUBURN RD","property_city":"CHARDON","property_zip":"44024"}},{"type":"Feature","geometry":{"type":"Polygon","coordinates":[[[-81.2498738362619,41.6331942379999],[-81.2525014495528,41.6331911159924],[-81.2525277020469,41.6344806318215],[-81.2498980253569,41.6344799193079],[-81.2498738362619,41.6331942379999]]]},"properties":{"source_county":"Geauga","jurisdiction":"Chardon Township","parcel_id":"07-001529","owner_name":"STOCKHAM PARTNERS L L C","property_address":" AUBURN RD","property_city":"CHARDON","property_zip":"44024"}},{"type":"Feature","geometry":{"type":"Polygon","coordinates":[[[-81.258362196694,41.638022483006],[-81.2624591997366,41.6380291347326],[-81.2624063008579,41.6401412631278],[-81.2623835528795,41.6410494798734],[-81.2584719530724,41.6410628474909],[-81.2583242858367,41.6410634630743],[-81.25832428667,41.641063355928],[-81.2583243058275,41.6410618406514],[-81.2583580502735,41.6382861137961],[-81.258362196694,41.638022483006]]]},"properties":{"source_county":"Geauga","jurisdiction":"Chardon Township","parcel_id":"07-001532","owner_name":"STOCKHAM PARTNERS LLC","property_address":" HERMITAGE RD","property_city":"PAINESVILLE","property_zip":"44077"}},{"type":"Feature","geometry":{"type":"Polygon","coordinates":[[[-81.2583706903591,41.637333791685],[-81.2624764473696,41.6373404512182],[-81.2624591997366,41.6380291347326],[-81.258362196694,41.638022483006],[-81.2583706903591,41.637333791685]]]},"properties":{"source_county":"Geauga","jurisdiction":"Chardon Township","parcel_id":"07-001535","owner_name":"STOCKHAM PARTNERS L L C","property_address":" HERMITAGE RD","property_city":"PAINESVILLE","property_zip":"44077"}},{"type":"Feature","geometry":{"type":"Polygon","coordinates":[[[-81.2524617919464,41.6312430218105],[-81.2525532303093,41.6312426803446],[-81.2526023309127,41.6336544192967],[-81.2526521293444,41.6361002562217],[-81.2525606748096,41.63610014563],[-81.2525277020469,41.6344806318215],[-81.2525014495528,41.6331911159924],[-81.252494616495,41.6328554096016],[-81.2524617919464,41.6312430218105]]]},"properties":{"source_county":"Geauga","jurisdiction":"Chardon Township","parcel_id":"07-002900","owner_name":"STOCKHAM PARTNERS L L C","property_address":" HERMITAGE RD","property_city":"PAINESVILLE","property_zip":"44077"}},{"type":"Feature","geometry":{"type":"Polygon","coordinates":[[[-81.2523917306474,41.6410844485133],[-81.2523867017614,41.6379972359445],[-81.2538565590534,41.6379989790504],[-81.2543501288106,41.6382851239672],[-81.2583580502735,41.6382861137961],[-81.2583243058275,41.6410618406514],[-81.25832428667,41.641063355928],[-81.2583242858367,41.6410634630743],[-81.2523917306474,41.6410844485133]]]},"properties":{"source_county":"Geauga","jurisdiction":"Chardon Township","parcel_id":"07-002950","owner_name":"STOCKHAM PARTNERS L L C","property_address":" GIRDLED RD","property_city":"PAINESVILLE","property_zip":"44077"}},{"type":"Feature","geometry":{"type":"Polygon","coordinates":[[[-81.2489636075915,41.6379931053272],[-81.2523867017614,41.6379972359445],[-81.2523917306474,41.6410844485133],[-81.2523910139638,41.6410844507273],[-81.2490208141572,41.6410892762888],[-81.2490004715416,41.6410893050204],[-81.2489428372492,41.6379930799098],[-81.2489636075915,41.6379931053272]]]},"properties":{"source_county":"Geauga","jurisdiction":"Chardon Township","parcel_id":"07-003000","owner_name":"OFFUTT THOMAS W IV","property_address":" GIRDLED RD","property_city":"PAINESVILLE","property_zip":"44077"}},{"type":"Feature","geometry":{"type":"Polygon","coordinates":[[[-81.2740439010498,41.6296693083709],[-81.2750607969562,41.6295263710411],[-81.2749998921871,41.6321591703284],[-81.2729284175869,41.6314015582968],[-81.2729675467293,41.6298307314877],[-81.2740439010498,41.6296693083709]]]},"properties":{"source_county":"Geauga","jurisdiction":"Chardon Township","parcel_id":"09-700001","owner_name":"HOLDEN ARBORETUM THE","property_address":" GRISWOLD RD","property_city":"MENTOR","property_zip":"44060"}},{"type":"Feature","geometry":{"type":"Polygon","coordinates":[[[-81.2727783199747,41.6298591092127],[-81.2729675467293,41.6298307314877],[-81.2729284175869,41.6314015582968],[-81.2749998921871,41.6321591703284],[-81.2765773437908,41.6327360639217],[-81.2765789423821,41.6327366489392],[-81.2765773313285,41.632736666201],[-81.2755492141172,41.6327477790244],[-81.2754592206164,41.6336139167447],[-81.2753927893246,41.6342532675557],[-81.2752361158401,41.6357610757405],[-81.2751154027504,41.6369227619653],[-81.2749673771836,41.6369237477935],[-81.271318011034,41.6369480025409],[-81.2713202520898,41.635103852909],[-81.2713461400744,41.6336159831454],[-81.271383099836,41.6314917196583],[-81.2727059203034,41.6314846742686],[-81.2727462975174,41.629863911877],[-81.2727783199747,41.6298591092127]]]},"properties":{"source_county":"Geauga","jurisdiction":"Chardon Township","parcel_id":"09-700002","owner_name":"HOLDEN ARBORETUM THE","property_address":" GRISWOLD RD","property_city":"CONCORD TOWNSHIP","property_zip":"44077"}},{"type":"Feature","geometry":{"type":"Polygon","coordinates":[[[-81.2749673771836,41.6369237477935],[-81.2751154027504,41.6369227619653],[-81.2749657092309,41.6383632865642],[-81.2745594819662,41.639109903554],[-81.2735419456283,41.6409799804095],[-81.2705076052249,41.6410065646253],[-81.2705027371526,41.6391637343043],[-81.2705007851666,41.6384239976534],[-81.2713162249245,41.6384186374376],[-81.271318011034,41.6369480025409],[-81.2749673771836,41.6369237477935]]]},"properties":{"source_county":"Geauga","jurisdiction":"Chardon Township","parcel_id":"09-700004","owner_name":"HOLDEN ARBORETUM THE","property_address":" GRISWOLD RD","property_city":"CONCORD TOWNSHIP","property_zip":"44077"}},{"type":"Feature","geometry":{"type":"Polygon","coordinates":[[[-81.2624560490346,41.6381549555092],[-81.2705000749455,41.6381548912077],[-81.2705007851666,41.6384239976534],[-81.2705027371526,41.6391637343043],[-81.2656496375363,41.6391636829573],[-81.2656256240595,41.6401243243125],[-81.2624063008579,41.6401412631278],[-81.2624560490346,41.6381549555092]]]},"properties":{"source_county":"Geauga","jurisdiction":"Chardon Township","parcel_id":"07-000900","owner_name":"CHAPPELL MICHAEL & GENA","property_address":" HERMITAGE RD","property_city":"PAINESVILLE","property_zip":"44077"}},{"type":"Feature","geometry":{"type":"Polygon","coordinates":[[[-81.2705000749455,41.6381548912077],[-81.2624560490346,41.6381549555092],[-81.2624591997366,41.6380291347326],[-81.26247666388,41.6373317973559],[-81.2704979025913,41.6373315889508],[-81.2705000749455,41.6381548912077]]]},"properties":{"source_county":"Geauga","jurisdiction":"Chardon Township","parcel_id":"07-001537","owner_name":"RUNYON CLYDE C & AMY K TRUSTEES","property_address":"8530 HERMITAGE RD","property_city":"PAINESVILLE","property_zip":"44077"}},{"type":"Feature","geometry":{"type":"Polygon","coordinates":[[[-81.2557556016706,41.6252469479944],[-81.2569471720062,41.6252473469428],[-81.2569465868374,41.6256151220323],[-81.2563512554721,41.6256149289735],[-81.2557550098051,41.625614723078],[-81.2557556016706,41.6252469479944]]]},"properties":{"source_county":"Geauga","jurisdiction":"Chardon Township","parcel_id":"06-029100","owner_name":"POWELL THOMAS","property_address":"9001 MOUNTAIN VIEW DR","property_city":"CHARDON","property_zip":"44024"}},{"type":"Feature","geometry":{"type":"Polygon","coordinates":[[[-81.2531624342086,41.6256140437237],[-81.2537486192483,41.6256143261345],[-81.2537484725661,41.6265198880186],[-81.2531552358237,41.6265197308535],[-81.2531624342086,41.6256140437237]]]},"properties":{"source_county":"Geauga","jurisdiction":"Chardon Township","parcel_id":"06-032800","owner_name":"LIDDY ROBERT M SR & DEBORAH A","property_address":"10815 CLARK RD","property_city":"CHARDON","property_zip":"44024"}},{"type":"Feature","geometry":{"type":"Polygon","coordinates":[[[-81.2571660657688,41.6256150675578],[-81.2577623114433,41.6256152662153],[-81.2577612160835,41.626520875901],[-81.2570560767221,41.6265207123242],[-81.2570564550917,41.6256150750631],[-81.2571660657688,41.6256150675578]]]},"properties":{"source_county":"Geauga","jurisdiction":"Chardon Township","parcel_id":"06-033500","owner_name":"SCHNEIDER JONATHAN D & HEIDI E","property_address":"10707 CLARK RD","property_city":"CHARDON","property_zip":"44024"}},{"type":"Feature","geometry":{"type":"Polygon","coordinates":[[[-81.2531683361927,41.6248723684159],[-81.2543443566812,41.6248726273086],[-81.2543446058902,41.6252438423207],[-81.2531658358314,41.6252435540064],[-81.2531683361927,41.6248723684159]]]},"properties":{"source_county":"Geauga","jurisdiction":"Chardon Township","parcel_id":"06-034200","owner_name":"ERICKSON DAVID C & MEGAN D","property_address":"9019 MOUNTAIN VIEW DR","property_city":"CHARDON","property_zip":"44024"}},{"type":"Feature","geometry":{"type":"Polygon","coordinates":[[[-81.2557552759647,41.6248793350313],[-81.256946842873,41.6248795620283],[-81.2569471720062,41.6252473469428],[-81.2557556016706,41.6252469479944],[-81.2557552759647,41.6248793350313]]]},"properties":{"source_county":"Geauga","jurisdiction":"Chardon Township","parcel_id":"06-054800","owner_name":"KOFOL STEVEN M TOD","property_address":"9017 MOUNTAIN VIEW DR","property_city":"CHARDON","property_zip":"44024"}},{"type":"Feature","geometry":{"type":"Polygon","coordinates":[[[-81.2583598038307,41.6252476965709],[-81.2583600486553,41.6252476964849],[-81.2583594746901,41.6256152996268],[-81.2583591506552,41.6256152997671],[-81.2577623114433,41.6256152662153],[-81.2571660657688,41.6256150675578],[-81.257166649704,41.6252472924672],[-81.2583598038307,41.6252476965709]]]},"properties":{"source_county":"Geauga","jurisdiction":"Chardon Township","parcel_id":"06-055200","owner_name":"GRANT JUDY RUTH TOD","property_address":"9000 MOUNTAIN VIEW DR","property_city":"CHARDON","property_zip":"44024"}},{"type":"Feature","geometry":{"type":"Polygon","coordinates":[[[-81.2545634295317,41.6256144829629],[-81.2551596751928,41.6256146949707],[-81.2551595493402,41.6265202514676],[-81.2544537319164,41.6265200720458],[-81.2544541451355,41.6256144329798],[-81.2545634295317,41.6256144829629]]]},"properties":{"source_county":"Geauga","jurisdiction":"Chardon Township","parcel_id":"06-056250","owner_name":"FORBES MELVIN L IV & LYNN M","property_address":"10777 CLARK RD","property_city":"CHARDON","property_zip":"44024"}},{"type":"Feature","geometry":{"type":"Polygon","coordinates":[[[-81.2569465868374,41.6256151220323],[-81.2570564550917,41.6256150750631],[-81.2570560767221,41.6265207123242],[-81.2563501392817,41.6265205440348],[-81.2563512554721,41.6256149289735],[-81.2569465868374,41.6256151220323]]]},"properties":{"source_county":"Geauga","jurisdiction":"Chardon Township","parcel_id":"06-064600","owner_name":"MATARAZA CHERYL L TRUSTEE","property_address":"10727 CLARK RD","property_city":"CHARDON","property_zip":"44024"}},{"type":"Feature","geometry":{"type":"Polygon","coordinates":[[[-81.2583591506552,41.6256152997671],[-81.2583594746901,41.6256152996268],[-81.2583593561065,41.6256662640023],[-81.2583582577549,41.6261407489387],[-81.258357377549,41.6265210110868],[-81.2577612160835,41.626520875901],[-81.2577623114433,41.6256152662153],[-81.2583591506552,41.6256152997671]]]},"properties":{"source_county":"Geauga","jurisdiction":"Chardon Township","parcel_id":"06-065600","owner_name":"CONN STEVE MC KINLEY","property_address":"10689 CLARK RD","property_city":"CHARDON","property_zip":"44024"}},{"type":"Feature","geometry":{"type":"Polygon","coordinates":[[[-81.2584162190133,41.6336423381427],[-81.2583962088313,41.6312207312765],[-81.2583862254922,41.630012446815],[-81.2583720501795,41.6282969293372],[-81.2617326424587,41.6283225009499],[-81.2626256788997,41.6313811780037],[-81.2659645056969,41.630880732339],[-81.2681376708389,41.6305549470575],[-81.2683220101688,41.6305273102697],[-81.2683026065491,41.6322874944066],[-81.270474865697,41.6323250860595],[-81.2704475316774,41.6336164147902],[-81.2625692802003,41.6336334864277],[-81.2584162190133,41.6336423381427]]]},"properties":{"source_county":"Geauga","jurisdiction":"Chardon Township","parcel_id":"06-068400","owner_name":"STABLE PROPERTY LLC","property_address":"8754 HERMITAGE RD","property_city":"CONCORD TOWNSHIP","property_zip":"44077"}},{"type":"Feature","geometry":{"type":"Polygon","coordinates":[[[-81.258357377549,41.6265210110868],[-81.2612068686325,41.6265215698494],[-81.2617326424587,41.6283225009499],[-81.2583720501795,41.6282969293372],[-81.2583690863526,41.6279382267924],[-81.258357377549,41.6265210110868]]]},"properties":{"source_county":"Geauga","jurisdiction":"Chardon Township","parcel_id":"06-068600","owner_name":"STOCKHAM PARTNERS LLC","property_address":" HERMITAGE RD","property_city":"CONCORD TOWNSHIP","property_zip":"44077"}},{"type":"Feature","geometry":{"type":"Polygon","coordinates":[[[-81.2673940084031,41.6289586499342],[-81.2681413774855,41.6282759249208],[-81.2681402431694,41.6289678566446],[-81.2681376708389,41.6305549470575],[-81.2659645056969,41.630880732339],[-81.265803715849,41.6304113257309],[-81.2673940084031,41.6289586499342]]]},"properties":{"source_county":"Geauga","jurisdiction":"Chardon Township","parcel_id":"06-068700","owner_name":"MC MILLAN S STERLING IV","property_address":" GRISWOLD RD","property_city":"MENTOR","property_zip":"44060"}},{"type":"Feature","geometry":{"type":"Polygon","coordinates":[[[-81.2705698359774,41.6289962803929],[-81.2705700917647,41.628836267562],[-81.2700163586099,41.6289904249342],[-81.2699368398322,41.6290125624539],[-81.2699314124289,41.6289895260211],[-81.2698209215978,41.6285205248296],[-81.2699380908984,41.6266719830165],[-81.2694823179807,41.6265795442106],[-81.2692968719601,41.6262568001839],[-81.2684965054398,41.6248638351208],[-81.2718772918535,41.6252412039191],[-81.2730706621155,41.6262959220921],[-81.2728699068298,41.6262942628951],[-81.2727783199764,41.6298591092155],[-81.2727462975191,41.6298639118798],[-81.270567957105,41.6301905656046],[-81.2705698359774,41.6289962803929]]]},"properties":{"source_county":"Geauga","jurisdiction":"Chardon Township","parcel_id":"06-068800","owner_name":"GREEN GLEN HOLDINGS LLC","property_address":" GRISWOLD RD","property_city":"MENTOR","property_zip":"44060"}},{"type":"Feature","geometry":{"type":"Polygon","coordinates":[[[-81.270567957105,41.6301905656046],[-81.2727462975191,41.6298639118798],[-81.2727059203051,41.6314846742714],[-81.2713830998377,41.6314917196611],[-81.2713461400761,41.6336159831482],[-81.2713202520914,41.6351038529118],[-81.2704293982739,41.6350969008426],[-81.2704475316774,41.6336164147902],[-81.270474865697,41.6323250860595],[-81.2683026065491,41.6322874944066],[-81.2683220101688,41.6305273102697],[-81.269934822198,41.6302854992913],[-81.270567957105,41.6301905656046]]]},"properties":{"source_county":"Geauga","jurisdiction":"Chardon Township","parcel_id":"06-069000","owner_name":"MC MILLAN S STERLING IV","property_address":" GRISWOLD RD","property_city":"CONCORD TOWNSHIP","property_zip":"44077"}},{"type":"Feature","geometry":{"type":"Polygon","coordinates":[[[-81.2625692802003,41.6336334864277],[-81.2704475316774,41.6336164147902],[-81.2704293982739,41.6350969008426],[-81.26253220478,41.6351140119191],[-81.2625692802003,41.6336334864277]]]},"properties":{"source_county":"Geauga","jurisdiction":"Chardon Township","parcel_id":"06-069100","owner_name":"FARRAND A BRADY TOD & MC MILLAN ELIZABETH HADLEY TRUSTEE & JEFFERY KATHARINE MC MILLAN TOD","property_address":" HERMITAGE RD","property_city":"CONCORD TOWNSHIP","property_zip":"44077"}},{"type":"Feature","geometry":{"type":"Polygon","coordinates":[[[-81.2584162190133,41.6336423381427],[-81.2625692802003,41.6336334864277],[-81.26253220478,41.6351140119191],[-81.2624913189829,41.6367466476481],[-81.2583780147647,41.6367399688643],[-81.2584162190133,41.6336423381427]]]},"properties":{"source_county":"Geauga","jurisdiction":"Chardon Township","parcel_id":"06-069300","owner_name":"MC MILLAN STERLING III & JUDITH K","property_address":"8585 HERMITAGE RD","property_city":"CONCORD TOWNSHIP","property_zip":"44077"}},{"type":"Feature","geometry":{"type":"Polygon","coordinates":[[[-81.2730706621155,41.6262959220921],[-81.2741395436918,41.6263050886383],[-81.2741395428991,41.6263051309519],[-81.2740439010515,41.6296693083737],[-81.2729675467309,41.6298307314906],[-81.2727783199764,41.6298591092155],[-81.2728699068298,41.6262942628951],[-81.2730706621155,41.6262959220921]]]},"properties":{"source_county":"Geauga","jurisdiction":"Chardon Township","parcel_id":"06-069700","owner_name":"MCMILLAN SAMUEL S IV & CLAIRE","property_address":" GRISWOLD RD","property_city":"MENTOR","property_zip":"44060"}},{"type":"Feature","geometry":{"type":"Polygon","coordinates":[[[-81.2577612160835,41.626520875901],[-81.258357377549,41.6265210110868],[-81.2583690863526,41.6279382267924],[-81.2583720501795,41.6282969293372],[-81.2583862254922,41.630012446815],[-81.2583962088313,41.6312207312765],[-81.2580656906927,41.6312219809928],[-81.252553230311,41.6312426803474],[-81.2524617919481,41.6312430218134],[-81.2524616963111,41.6312383437557],[-81.2523656185201,41.6265182336658],[-81.2526989376507,41.6265196067094],[-81.2530638026469,41.6265197062872],[-81.2531552358237,41.6265197308535],[-81.2537484725661,41.6265198880186],[-81.2544537319164,41.6265200720458],[-81.2551595493402,41.6265202514676],[-81.2557548887143,41.6265203993007],[-81.2563501392817,41.6265205440348],[-81.2570560767221,41.6265207123242],[-81.2577612160835,41.626520875901]]]},"properties":{"source_county":"Geauga","jurisdiction":"Chardon Township","parcel_id":"06-069900","owner_name":"STOCKHAM PARTNERS LLC","property_address":" CLARK RD","property_city":"CONCORD TOWNSHIP","property_zip":"44077"}},{"type":"Feature","geometry":{"type":"Polygon","coordinates":[[[-81.2531658358314,41.6252435540064],[-81.2543446058902,41.6252438423207],[-81.2543448681616,41.6256143712676],[-81.2537486192483,41.6256143261345],[-81.2531624342086,41.6256140437237],[-81.2531658358314,41.6252435540064]]]},"properties":{"source_county":"Geauga","jurisdiction":"Chardon Township","parcel_id":"06-092600","owner_name":"PLANTAN JEFFREY B AKA JEFFREY","property_address":"9003 MOUNTAIN VIEW DR","property_city":"CHARDON","property_zip":"44024"}},{"type":"Feature","geometry":{"type":"Polygon","coordinates":[[[-81.2543448681616,41.6256143712676],[-81.2544541451355,41.6256144329798],[-81.2544537319164,41.6265200720458],[-81.2537484725661,41.6265198880186],[-81.2537486192483,41.6256143261345],[-81.2543448681616,41.6256143712676]]]},"properties":{"source_county":"Geauga","jurisdiction":"Chardon Township","parcel_id":"06-093900","owner_name":"SASS DAVID","property_address":"10799 CLARK RD","property_city":"CHARDON","property_zip":"44024"}},{"type":"Feature","geometry":{"type":"Polygon","coordinates":[[[-81.2557550098051,41.625614723078],[-81.2563512554721,41.6256149289735],[-81.2563501392817,41.6265205440348],[-81.2557548887143,41.6265203993007],[-81.2557550098051,41.625614723078]]]},"properties":{"source_county":"Geauga","jurisdiction":"Chardon Township","parcel_id":"06-111100","owner_name":"VIELAND JENNIFER J","property_address":"10745 CLARK RD","property_city":"CHARDON","property_zip":"44024"}},{"type":"Feature","geometry":{"type":"Polygon","coordinates":[[[-81.2545646266325,41.6248789336616],[-81.2557552759647,41.6248793350313],[-81.2557556016706,41.6252469479944],[-81.2545640280769,41.6252467087857],[-81.2545646266325,41.6248789336616]]]},"properties":{"source_county":"Geauga","jurisdiction":"Chardon Township","parcel_id":"06-112900","owner_name":"CHRISTEL MARTIN W TOD","property_address":" MOUNTAIN VIEW DR","property_city":"CHARDON","property_zip":"44024"}},{"type":"Feature","geometry":{"type":"Polygon","coordinates":[[[-81.2545640280769,41.6252467087857],[-81.2557556016706,41.6252469479944],[-81.2557550098051,41.625614723078],[-81.2551596751928,41.6256146949707],[-81.2545634295317,41.6256144829629],[-81.2545640280769,41.6252467087857]]]},"properties":{"source_county":"Geauga","jurisdiction":"Chardon Township","parcel_id":"06-113000","owner_name":"SOEDER KEVIN J","property_address":"9002 MOUNTAIN VIEW DR","property_city":"CHARDON","property_zip":"44024"}},{"type":"Feature","geometry":{"type":"Polygon","coordinates":[[[-81.2583604566622,41.624879921335],[-81.258360625877,41.6248799213418],[-81.2583600486553,41.6252476964849],[-81.2583598038307,41.6252476965709],[-81.257166649704,41.6252472924672],[-81.2571663160714,41.6248796795081],[-81.2583604566622,41.624879921335]]]},"properties":{"source_county":"Geauga","jurisdiction":"Chardon Township","parcel_id":"06-119000","owner_name":"SKITZKI JESSICA & SUDNICK KYLE","property_address":"9016 MOUNTAIN VIEW DR","property_city":"CHARDON","property_zip":"44024"}},{"type":"Feature","geometry":{"type":"Polygon","coordinates":[[[-81.2551596751928,41.6256146949707],[-81.2557550098051,41.625614723078],[-81.2557548887143,41.6265203993007],[-81.2551595493402,41.6265202514676],[-81.2551596751928,41.6256146949707]]]},"properties":{"source_county":"Geauga","jurisdiction":"Chardon Township","parcel_id":"06-119150","owner_name":"PRATHER KEVEN P & CATHLEEN M CO TRUSTEES","property_address":"10761 CLARK RD","property_city":"CHARDON","property_zip":"44024"}},{"type":"Feature","geometry":{"type":"Polygon","coordinates":[[[-81.263547832817,41.6261962934498],[-81.2629017521385,41.6241428700691],[-81.2626128448778,41.6233947403572],[-81.2629070252497,41.6233654514658],[-81.2646364098336,41.6243633883022],[-81.2653536461905,41.6243501879509],[-81.2663379122145,41.6247475947816],[-81.2668151257722,41.6246856867038],[-81.2682836091832,41.6248412790295],[-81.2684965054398,41.6248638351208],[-81.2692968719601,41.6262568001839],[-81.2694823179807,41.6265795442106],[-81.2691285481467,41.6268543938889],[-81.268883582866,41.6269822798758],[-81.268810646965,41.6273833280939],[-81.2680088101402,41.6278941438134],[-81.2683024687759,41.6281287660043],[-81.2681413774855,41.6282759249208],[-81.2673940084031,41.6289586499342],[-81.265803715849,41.6304113257309],[-81.2659645056969,41.630880732339],[-81.2626256788997,41.6313811780037],[-81.2617326424587,41.6283225009499],[-81.2612068686325,41.6265215698494],[-81.2611488763514,41.6263355525343],[-81.2635498729539,41.6262027760106],[-81.263547832817,41.6261962934498]]]},"properties":{"source_county":"Geauga","jurisdiction":"Chardon Township","parcel_id":"06-120209","owner_name":"GLENMOUNT INVESTMENT COMPANY","property_address":" GRISWOLD RD","property_city":"CONCORD TOWNSHIP","property_zip":"44077"}},{"type":"Feature","geometry":{"type":"Polygon","coordinates":[[[-81.2691285481467,41.6268543938889],[-81.2694823179807,41.6265795442106],[-81.2699380908984,41.6266719830165],[-81.2698209215978,41.6285205248296],[-81.2699314124289,41.6289895260211],[-81.2699368398322,41.6290125624539],[-81.269934822198,41.6302854992913],[-81.2683220101688,41.6305273102697],[-81.2681376708389,41.6305549470575],[-81.2681402431694,41.6289678566446],[-81.2681413774855,41.6282759249208],[-81.2683024687759,41.6281287660043],[-81.2680088101402,41.6278941438134],[-81.268810646965,41.6273833280939],[-81.268883582866,41.6269822798758],[-81.2691285481467,41.6268543938889]]]},"properties":{"source_county":"Geauga","jurisdiction":"Chardon Township","parcel_id":"06-120226","owner_name":"MC MILLAN S STERLING IV & CLAIRE F","property_address":"10401 GRISWOLD RD","property_city":"MENTOR","property_zip":"44060"}},{"type":"Feature","geometry":{"type":"Polygon","coordinates":[[[-81.2700163586099,41.6289904249342],[-81.2705700917647,41.628836267562],[-81.2705698359774,41.6289962803929],[-81.270567957105,41.6301905656046],[-81.269934822198,41.6302854992913],[-81.2699368398322,41.6290125624539],[-81.2700163586099,41.6289904249342]]]},"properties":{"source_county":"Geauga","jurisdiction":"Chardon Township","parcel_id":"06-120545","owner_name":"MC MILLAN S STERLING IV & CLAIRE F","property_address":" GRISWOLD RD","property_city":"MENTOR","property_zip":"44060"}},{"type":"Feature","geometry":{"type":"Polygon","coordinates":[[[-81.2583780147647,41.6367399688643],[-81.2624913189829,41.6367466476481],[-81.2624764473713,41.6373404512211],[-81.2583706903608,41.6373337916878],[-81.2583780147647,41.6367399688643]]]},"properties":{"source_county":"Geauga","jurisdiction":"Chardon Township","parcel_id":"06-120620","owner_name":"STOCKHAM PARTNERS L L C","property_address":" HERMITAGE RD","property_city":"CONCORD TOWNSHIP","property_zip":"44077"}},{"type":"Feature","geometry":{"type":"Polygon","coordinates":[[[-81.2705007851683,41.6384239976562],[-81.270497902593,41.6373315889536],[-81.2624766638816,41.6373317973587],[-81.2624913189829,41.6367466476481],[-81.26253220478,41.6351140119191],[-81.2704293982739,41.6350969008426],[-81.2713202520914,41.6351038529118],[-81.2713180110357,41.6369480025438],[-81.2713162249261,41.6384186374404],[-81.2705007851683,41.6384239976562]]]},"properties":{"source_county":"Geauga","jurisdiction":"Chardon Township","parcel_id":"06-707200","owner_name":"HOLDEN ARBORETUM THE","property_address":" HERMITAGE RD","property_city":"CONCORD TOWNSHIP","property_zip":"44077"}},{"type":"Feature","geometry":{"type":"Polygon","coordinates":[[[-81.2624063008596,41.6401412631306],[-81.2656256240611,41.6401243243154],[-81.2656029207801,41.6410325416956],[-81.2623835528812,41.6410494798763],[-81.2624063008596,41.6401412631306]]]},"properties":{"source_county":"Geauga","jurisdiction":"Chardon Township","parcel_id":"07-000700","owner_name":"CHAPPELL MICHAEL & GENA","property_address":"8400 HERMITAGE RD","property_city":"PAINESVILLE","property_zip":"44077"}},{"type":"Feature","geometry":{"type":"Polygon","coordinates":[[[-81.265649637538,41.6391636829602],[-81.2705027371543,41.6391637343071],[-81.2705076052266,41.6410065646281],[-81.2656029207801,41.6410325416956],[-81.2656256240611,41.6401243243154],[-81.265649637538,41.6391636829602]]]},"properties":{"source_county":"Geauga","jurisdiction":"Chardon Township","parcel_id":"07-000800","owner_name":"CHAPPELL MICHAEL & GENA","property_address":" HERMITAGE RD","property_city":"PAINESVILLE","property_zip":"44077"}},{"type":"Feature","geometry":{"type":"Polygon","coordinates":[[[-81.2543501288123,41.63828512397],[-81.2538565590551,41.6379989790533],[-81.252386701763,41.6379972359473],[-81.2523863221903,41.6377641084261],[-81.2523859426374,41.6375309799856],[-81.2523851759352,41.6370600234328],[-81.2523848218975,41.636824487362],[-81.2523847261489,41.6367656210477],[-81.2523844077588,41.6365882005381],[-81.2523842157208,41.6364702445773],[-81.2523840225005,41.6363522876985],[-81.2523836123522,41.6360999302518],[-81.2525606748112,41.6361001456328],[-81.2526521293461,41.6361002562246],[-81.2526023309144,41.6336544192995],[-81.2584162190133,41.6336423381427],[-81.2583780147647,41.6367399688643],[-81.2583706903608,41.6373337916878],[-81.2583621966957,41.6380224830088],[-81.2583580502751,41.638286113799],[-81.2543501288123,41.63828512397]]]},"properties":{"source_county":"Geauga","jurisdiction":"Chardon Township","parcel_id":"07-001521","owner_name":"STOCKHAM PARTNERS LLC","property_address":" HERMITAGE RD","property_city":"PAINESVILLE","property_zip":"44077"}},{"type":"Feature","geometry":{"type":"Polygon","coordinates":[[[-81.2580656906927,41.6312219809928],[-81.2583962088313,41.6312207312765],[-81.2584162190133,41.6336423381427],[-81.2526023309144,41.6336544192995],[-81.252553230311,41.6312426803474],[-81.2580656906927,41.6312219809928]]]},"properties":{"source_county":"Geauga","jurisdiction":"Chardon Township","parcel_id":"07-001523","owner_name":"STOCKHAM PARTNERS L L C","property_address":" HERMITAGE RD","property_city":"PAINESVILLE","property_zip":"44077"}},{"type":"Feature","geometry":{"type":"Polygon","coordinates":[[[-81.2498980253586,41.6344799193107],[-81.2525277020485,41.6344806318243],[-81.2525606748112,41.6361001456328],[-81.2523836123522,41.6360999302518],[-81.2499942696718,41.6360969993168],[-81.2499284592526,41.6360969174722],[-81.2499236736206,41.6358426245615],[-81.2498980253586,41.6344799193107]]]},"properties":{"source_county":"Geauga","jurisdiction":"Chardon Township","parcel_id":"07-001524","owner_name":"STOCKHAM PARTNERS L L C","property_address":" AUBURN RD","property_city":"CHARDON","property_zip":"44024"}},{"type":"Feature","geometry":{"type":"Polygon","coordinates":[[[-81.2498738362636,41.6331942380027],[-81.2525014495545,41.6331911159952],[-81.2525277020485,41.6344806318243],[-81.2498980253586,41.6344799193107],[-81.2498738362636,41.6331942380027]]]},"properties":{"source_county":"Geauga","jurisdiction":"Chardon Township","parcel_id":"07-001529","owner_name":"STOCKHAM PARTNERS L L C","property_address":" AUBURN RD","property_city":"CHARDON","property_zip":"44024"}},{"type":"Feature","geometry":{"type":"Polygon","coordinates":[[[-81.2583621966957,41.6380224830088],[-81.2624591997383,41.6380291347354],[-81.2624063008596,41.6401412631306],[-81.2623835528812,41.6410494798763],[-81.2584719530741,41.6410628474937],[-81.2583242858384,41.6410634630771],[-81.2583242866717,41.6410633559308],[-81.2583243058292,41.6410618406543],[-81.2583580502751,41.638286113799],[-81.2583621966957,41.6380224830088]]]},"properties":{"source_county":"Geauga","jurisdiction":"Chardon Township","parcel_id":"07-001532","owner_name":"STOCKHAM PARTNERS LLC","property_address":" HERMITAGE RD","property_city":"PAINESVILLE","property_zip":"44077"}},{"type":"Feature","geometry":{"type":"Polygon","coordinates":[[[-81.2583706903608,41.6373337916878],[-81.2624764473713,41.6373404512211],[-81.2624591997383,41.6380291347354],[-81.2583621966957,41.6380224830088],[-81.2583706903608,41.6373337916878]]]},"properties":{"source_county":"Geauga","jurisdiction":"Chardon Township","parcel_id":"07-001535","owner_name":"STOCKHAM PARTNERS L L C","property_address":" HERMITAGE RD","property_city":"PAINESVILLE","property_zip":"44077"}},{"type":"Feature","geometry":{"type":"Polygon","coordinates":[[[-81.2524617919481,41.6312430218134],[-81.252553230311,41.6312426803474],[-81.2526023309144,41.6336544192995],[-81.2526521293461,41.6361002562246],[-81.2525606748112,41.6361001456328],[-81.2525277020485,41.6344806318243],[-81.2525014495545,41.6331911159952],[-81.2524946164966,41.6328554096044],[-81.2524617919481,41.6312430218134]]]},"properties":{"source_county":"Geauga","jurisdiction":"Chardon Township","parcel_id":"07-002900","owner_name":"STOCKHAM PARTNERS L L C","property_address":" HERMITAGE RD","property_city":"PAINESVILLE","property_zip":"44077"}},{"type":"Feature","geometry":{"type":"Polygon","coordinates":[[[-81.2523917306491,41.6410844485161],[-81.252386701763,41.6379972359473],[-81.2538565590551,41.6379989790533],[-81.2543501288123,41.63828512397],[-81.2583580502751,41.638286113799],[-81.2583243058292,41.6410618406543],[-81.2583242866717,41.6410633559308],[-81.2583242858384,41.6410634630771],[-81.2523917306491,41.6410844485161]]]},"properties":{"source_county":"Geauga","jurisdiction":"Chardon Township","parcel_id":"07-002950","owner_name":"STOCKHAM PARTNERS L L C","property_address":" GIRDLED RD","property_city":"PAINESVILLE","property_zip":"44077"}},{"type":"Feature","geometry":{"type":"Polygon","coordinates":[[[-81.2489636075931,41.6379931053301],[-81.252386701763,41.6379972359473],[-81.2523917306491,41.6410844485161],[-81.2523910139655,41.6410844507302],[-81.2490208141588,41.6410892762917],[-81.2490004715433,41.6410893050232],[-81.2489428372509,41.6379930799126],[-81.2489636075931,41.6379931053301]]]},"properties":{"source_county":"Geauga","jurisdiction":"Chardon Township","parcel_id":"07-003000","owner_name":"OFFUTT THOMAS W IV","property_address":" GIRDLED RD","property_city":"PAINESVILLE","property_zip":"44077"}},{"type":"Feature","geometry":{"type":"Polygon","coordinates":[[[-81.2740439010515,41.6296693083737],[-81.2750607969579,41.6295263710439],[-81.2749998921888,41.6321591703312],[-81.2729284175886,41.6314015582996],[-81.2729675467309,41.6298307314906],[-81.2740439010515,41.6296693083737]]]},"properties":{"source_county":"Geauga","jurisdiction":"Chardon Township","parcel_id":"09-700001","owner_name":"HOLDEN ARBORETUM THE","property_address":" GRISWOLD RD","property_city":"MENTOR","property_zip":"44060"}},{"type":"Feature","geometry":{"type":"Polygon","coordinates":[[[-81.2727783199764,41.6298591092155],[-81.2729675467309,41.6298307314906],[-81.2729284175886,41.6314015582996],[-81.2749998921888,41.6321591703312],[-81.2765773437924,41.6327360639245],[-81.2765789423838,41.632736648942],[-81.2765773313302,41.6327366662038],[-81.2755492141188,41.6327477790272],[-81.2754592206181,41.6336139167475],[-81.2753927893263,41.6342532675585],[-81.2752361158418,41.6357610757433],[-81.2751154027521,41.6369227619681],[-81.2749673771853,41.6369237477963],[-81.2713180110357,41.6369480025438],[-81.2713202520914,41.6351038529118],[-81.2713461400761,41.6336159831482],[-81.2713830998377,41.6314917196611],[-81.2727059203051,41.6314846742714],[-81.2727462975191,41.6298639118798],[-81.2727783199764,41.6298591092155]]]},"properties":{"source_county":"Geauga","jurisdiction":"Chardon Township","parcel_id":"09-700002","owner_name":"HOLDEN ARBORETUM THE","property_address":" GRISWOLD RD","property_city":"CONCORD TOWNSHIP","property_zip":"44077"}},{"type":"Feature","geometry":{"type":"Polygon","coordinates":[[[-81.2749673771853,41.6369237477963],[-81.2751154027521,41.6369227619681],[-81.2749657092325,41.638363286567],[-81.2745594819678,41.6391099035568],[-81.2735419456299,41.6409799804124],[-81.2705076052266,41.6410065646281],[-81.2705027371543,41.6391637343071],[-81.2705007851683,41.6384239976562],[-81.2713162249261,41.6384186374404],[-81.2713180110357,41.6369480025438],[-81.2749673771853,41.6369237477963]]]},"properties":{"source_county":"Geauga","jurisdiction":"Chardon Township","parcel_id":"09-700004","owner_name":"HOLDEN ARBORETUM THE","property_address":" GRISWOLD RD","property_city":"CONCORD TOWNSHIP","property_zip":"44077"}},{"type":"Feature","geometry":{"type":"Polygon","coordinates":[[[-81.2624560490362,41.638154955512],[-81.2705000749472,41.6381548912105],[-81.2705007851683,41.6384239976562],[-81.2705027371543,41.6391637343071],[-81.265649637538,41.6391636829602],[-81.2656256240611,41.6401243243154],[-81.2624063008596,41.6401412631306],[-81.2624560490362,41.638154955512]]]},"properties":{"source_county":"Geauga","jurisdiction":"Chardon Township","parcel_id":"07-000900","owner_name":"CHAPPELL MICHAEL & GENA","property_address":" HERMITAGE RD","property_city":"PAINESVILLE","property_zip":"44077"}},{"type":"Feature","geometry":{"type":"Polygon","coordinates":[[[-81.2705000749472,41.6381548912105],[-81.2624560490362,41.638154955512],[-81.2624591997383,41.6380291347354],[-81.2624766638816,41.6373317973587],[-81.270497902593,41.6373315889536],[-81.2705000749472,41.6381548912105]]]},"properties":{"source_county":"Geauga","jurisdiction":"Chardon Township","parcel_id":"07-001537","owner_name":"RUNYON CLYDE C & AMY K TRUSTEES","property_address":"8530 HERMITAGE RD","property_city":"PAINESVILLE","property_zip":"44077"}}]}