{"type":"FeatureCollection","features":[{"type":"Feature","geometry":{"type":"Polygon","coordinates":[[[-81.47612749184479,41.5005029310617],[-81.47606454509621,41.50050788954702],[-81.47600208074292,41.50051555535108],[-81.4759985063464,41.50074440078127],[-81.47612371442902,41.50074550550349],[-81.47612749184479,41.5005029310617]]]},"properties":{"source_county":"Cuyahoga","jurisdiction":"PEPPER PIKE","parcel_id":"87105055","owner_name":"CBT PEPPER PIKE 2 LLC","property_address":"28575  ADDISON CT, PEPPER PIKE, OH, 44124","property_city":"PEPPER PIKE","property_zip":"44124"}},{"type":"Feature","geometry":{"type":"Polygon","coordinates":[[[-81.47596619933553,41.500521149624774],[-81.47589203352737,41.500535873696975],[-81.47581940743157,41.50055443873891],[-81.47581526979137,41.50082046711884],[-81.47596150384153,41.50082175820255],[-81.47596619933553,41.500521149624774]]]},"properties":{"source_county":"Cuyahoga","jurisdiction":"PEPPER PIKE","parcel_id":"87105056","owner_name":"CBT PEPPER PIKE 3 LLC","property_address":"28625  ADDISON CT, PEPPER PIKE, OH, 44124","property_city":"PEPPER PIKE","property_zip":"44124"}},{"type":"Feature","geometry":{"type":"Polygon","coordinates":[[[-81.47522387650051,41.500674307396324],[-81.47514146415801,41.5006754141381],[-81.47509864955327,41.500675038720544],[-81.4750953015322,41.50088925648024],[-81.47522131630193,41.50089036994625],[-81.47522387650051,41.500674307396324]]]},"properties":{"source_county":"Cuyahoga","jurisdiction":"PEPPER PIKE","parcel_id":"87105061","owner_name":"CBT PEPPER PIKE 8 LLC","property_address":"28745  ADDISON CT, PEPPER PIKE, OH, 44124","property_city":"PEPPER PIKE","property_zip":"44124"}},{"type":"Feature","geometry":{"type":"Polygon","coordinates":[[[-81.47597465966888,41.50012416019584],[-81.47597066036923,41.50038022827708],[-81.47603316155343,41.50037251267018],[-81.47609609392897,41.50036712156764],[-81.47609986595485,41.50012526492864],[-81.47597465966888,41.50012416019584]]]},"properties":{"source_county":"Cuyahoga","jurisdiction":"PEPPER PIKE","parcel_id":"87105092","owner_name":"CBT PEPPER PIKE 39 LLC","property_address":"28600  ADDISON CT, PEPPER PIKE, OH, 44124","property_city":"PEPPER PIKE","property_zip":"44124"}},{"type":"Feature","geometry":{"type":"Polygon","coordinates":[[[-81.47609986595485,41.50012526492864],[-81.47609609392897,41.50036712156764],[-81.47615863463908,41.5003640892825],[-81.47622129752003,41.50036335660917],[-81.47622507403747,41.500126370334186],[-81.47609986595485,41.50012526492864]]]},"properties":{"source_county":"Cuyahoga","jurisdiction":"PEPPER PIKE","parcel_id":"87105093","owner_name":"CBT PEPPER PIKE 40 LLC","property_address":"28550  ADDISON CT, PEPPER PIKE, OH, 44124","property_city":"PEPPER PIKE","property_zip":"44124"}},{"type":"Feature","geometry":{"type":"Polygon","coordinates":[[[-81.47542566955435,41.50012100881422],[-81.4754013341933,41.50012079419192],[-81.47539784154348,41.50034426067735],[-81.47552304962609,41.50034536607915],[-81.4755265413776,41.50012189959759],[-81.47542566955435,41.50012100881422]]]},"properties":{"source_county":"Cuyahoga","jurisdiction":"PEPPER PIKE","parcel_id":"87105088","owner_name":"CBT PEPPER PIKE 35 LLC","property_address":"28680  ADDISON CT, PEPPER PIKE, OH, 44124","property_city":"PEPPER PIKE","property_zip":"44124"}},{"type":"Feature","geometry":{"type":"Polygon","coordinates":[[[-81.47657264389899,41.500056646319145],[-81.47656090920644,41.50060755367544],[-81.47646150882363,41.50099155869659],[-81.47588827407789,41.501056216961764],[-81.475225493468,41.50107487200804],[-81.4734826558156,41.501063091503006],[-81.47348095799973,41.50118044905401],[-81.47665774130587,41.50120398512609],[-81.4766753932012,41.50041823442275],[-81.47668349870001,41.500057400525435],[-81.47657264389899,41.500056646319145]]]},"properties":{"source_county":"Cuyahoga","jurisdiction":"PEPPER PIKE","parcel_id":"87105095","owner_name":"CBT PEPPER PIKE PHASE 1 COMMON AREAS LLC","property_address":"0  ADDISON CT, PEPPER PIKE, OH, 44122","property_city":"PEPPER PIKE","property_zip":"44122"}},{"type":"Feature","geometry":{"type":"Polygon","coordinates":[[[-81.47524042616297,41.500119372571596],[-81.47523693351316,41.50034283906193],[-81.47536214159577,41.50034394513656],[-81.47536563424559,41.500120478650096],[-81.47524042616297,41.500119372571596]]]},"properties":{"source_county":"Cuyahoga","jurisdiction":"PEPPER PIKE","parcel_id":"87105087","owner_name":"CBT PEPPER PIKE 34 LLC","property_address":"28710  ADDISON CT, PEPPER PIKE, OH, 44124","property_city":"PEPPER PIKE","property_zip":"44124"}},{"type":"Feature","geometry":{"type":"Polygon","coordinates":[[[-81.4780659484301,41.501050727016356],[-81.47806254471348,41.50120636140574],[-81.4785490920343,41.50120021954353],[-81.47868226458021,41.501201050434084],[-81.47868923101524,41.501051322433256],[-81.47871865353576,41.5004189408565],[-81.47807976631579,41.500418722198404],[-81.4780659484301,41.501050727016356]]]},"properties":{"source_county":"Cuyahoga","jurisdiction":"PEPPER PIKE","parcel_id":"87103003","owner_name":"GEMSTONE DEVELOPMENT COMPANY LLC","property_address":"28230  CEDAR RD, PEPPER PIKE, OH, 44124","property_city":"PEPPER PIKE","property_zip":"44124"}},{"type":"Feature","geometry":{"type":"Polygon","coordinates":[[[-81.47742698395501,41.50105011343419],[-81.47742338979556,41.50121442743465],[-81.47806254471348,41.50120636140574],[-81.4780659484301,41.501050727016356],[-81.47807976631579,41.500418722198404],[-81.47744079914575,41.500418500849186],[-81.47742698395501,41.50105011343419]]]},"properties":{"source_county":"Cuyahoga","jurisdiction":"PEPPER PIKE","parcel_id":"87103002","owner_name":"GEMSTONE DEVELOPMENT COMPANY LLC","property_address":"28350  CEDAR RD, PEPPER PIKE, OH, 44124","property_city":"PEPPER PIKE","property_zip":"44124"}},{"type":"Feature","geometry":{"type":"Polygon","coordinates":[[[-81.47934708256916,41.5009366887695],[-81.47934582223282,41.500419150095425],[-81.47871865353576,41.5004189408565],[-81.47868923101524,41.501051322433256],[-81.47868226458021,41.501201050434084],[-81.47934773564438,41.50120519950457],[-81.47934708256916,41.5009366887695]]]},"properties":{"source_county":"Cuyahoga","jurisdiction":"PEPPER PIKE","parcel_id":"87103004","owner_name":"GEMSTONE DEVELOPMENT COMPANY LLC","property_address":"28230  CEDAR RD, PEPPER PIKE, OH, 44124","property_city":"PEPPER PIKE","property_zip":"44124"}},{"type":"Feature","geometry":{"type":"Polygon","coordinates":[[[-81.47581940743157,41.50055443873891],[-81.47574570066251,41.50057778598391],[-81.47574566742486,41.50057780280369],[-81.47567243676288,41.50060149989218],[-81.47566903574122,41.50081917603511],[-81.47581526979137,41.50082046711884],[-81.47581940743157,41.50055443873891]]]},"properties":{"source_county":"Cuyahoga","jurisdiction":"PEPPER PIKE","parcel_id":"87105057","owner_name":"CBT PEPPER PIKE 4 LLC","property_address":"28645  ADDISON CT, PEPPER PIKE, OH, 44124","property_city":"PEPPER PIKE","property_zip":"44124"}},{"type":"Feature","geometry":{"type":"Polygon","coordinates":[[[-81.47511522077531,41.500118266493125],[-81.47511172722716,41.50034173298723],[-81.47523693351316,41.50034283906193],[-81.47524042616297,41.500119372571596],[-81.47511522077531,41.500118266493125]]]},"properties":{"source_county":"Cuyahoga","jurisdiction":"PEPPER PIKE","parcel_id":"87105086","owner_name":" CBT PEPPER PIKE 33. LLC ","property_address":"28720  ADDISON CT, PEPPER PIKE, OH, 44124","property_city":"PEPPER PIKE","property_zip":"44124"}},{"type":"Feature","geometry":{"type":"Polygon","coordinates":[[[-81.4767960917411,41.50001307928405],[-81.47668448415189,41.50001349843733],[-81.47668349870001,41.500057400525435],[-81.4766753932012,41.50041823442275],[-81.47678722536924,41.50041827411762],[-81.47744079914575,41.500418500849186],[-81.47807976631579,41.500418722198404],[-81.47871865353576,41.5004189408565],[-81.47934582223282,41.500419150095425],[-81.47934349200297,41.50001572001706],[-81.4767960917411,41.50001307928405]]]},"properties":{"source_county":"Cuyahoga","jurisdiction":"PEPPER PIKE","parcel_id":"87103006","owner_name":"GEMSTONE DEVELOPMENT COMPANY LLC","property_address":"2426  BRAINARD RD, PEPPER PIKE, OH, 44124","property_city":"PEPPER PIKE","property_zip":"44124"}},{"type":"Feature","geometry":{"type":"Polygon","coordinates":[[[-81.47742698395501,41.50105011343419],[-81.47744079914575,41.500418500849186],[-81.47678722536924,41.50041827411762],[-81.4766753932012,41.50041823442275],[-81.47665774130587,41.50120398512609],[-81.47742338979556,41.50121442743465],[-81.47742698395501,41.50105011343419]]]},"properties":{"source_county":"Cuyahoga","jurisdiction":"PEPPER PIKE","parcel_id":"87103001","owner_name":"TUASON,  MARINA","property_address":"28400  CEDAR RD, PEPPER PIKE, OH, 44124","property_city":"PEPPER PIKE","property_zip":"44124"}},{"type":"Feature","geometry":{"type":"Polygon","coordinates":[[[-81.4755112313902,41.50064127131346],[-81.47544877422344,41.500652423507866],[-81.4753857008124,41.50066140460221],[-81.47538222253563,41.500883964993506],[-81.47550824269526,41.500885078459596],[-81.4755112313902,41.50064127131346]]]},"properties":{"source_county":"Cuyahoga","jurisdiction":"PEPPER PIKE","parcel_id":"87105059","owner_name":"CBT PEPPER PIKE 6 LLC","property_address":"28695  ADDISON CT, PEPPER PIKE, OH, 44124","property_city":"PEPPER PIKE","property_zip":"44124"}},{"type":"Feature","geometry":{"type":"Polygon","coordinates":[[[-81.47563692815633,41.50061168730971],[-81.47557454375313,41.50062759345657],[-81.4755112313902,41.50064127131346],[-81.47550824269526,41.500885078459596],[-81.47563263959918,41.500886177124315],[-81.47563692815633,41.50061168730971]]]},"properties":{"source_county":"Cuyahoga","jurisdiction":"PEPPER PIKE","parcel_id":"87105058","owner_name":"CBT PEPPER PIKE 5 LLC","property_address":"28675  ADDISON CT, PEPPER PIKE, OH, 44124","property_city":"PEPPER PIKE","property_zip":"44124"}},{"type":"Feature","geometry":{"type":"Polygon","coordinates":[[[-81.47622850829681,41.50050065836645],[-81.47612749184479,41.5005029310617],[-81.47612371442902,41.50074550550349],[-81.47624892340995,41.500746610898446],[-81.47625275921622,41.50050094363071],[-81.47622850829681,41.50050065836645]]]},"properties":{"source_county":"Cuyahoga","jurisdiction":"PEPPER PIKE","parcel_id":"87105054","owner_name":"CBT PEPPER PIKE 1 LLC","property_address":"28525  ADDISON CT, PEPPER PIKE, OH, 44124","property_city":"PEPPER PIKE","property_zip":"44124"}},{"type":"Feature","geometry":{"type":"Polygon","coordinates":[[[-81.47568822465401,41.50012160827642],[-81.47568309886701,41.500448414610126],[-81.47574536289598,41.5004288100712],[-81.47580891241411,41.500411690154934],[-81.47581343273663,41.50012271435488],[-81.47568822465401,41.50012160827642]]]},"properties":{"source_county":"Cuyahoga","jurisdiction":"PEPPER PIKE","parcel_id":"87105090","owner_name":"CBT PEPPER PIKE 37 LLC","property_address":"28650  ADDISON CT, PEPPER PIKE, OH, 44124","property_city":"PEPPER PIKE","property_zip":"44124"}},{"type":"Feature","geometry":{"type":"Polygon","coordinates":[[[-81.47581343273663,41.50012271435488],[-81.47580891241411,41.500411690154934],[-81.47587129322407,41.50039756955096],[-81.47593454539985,41.50038584341904],[-81.47593863812429,41.500123819087705],[-81.47581343273663,41.50012271435488]]]},"properties":{"source_county":"Cuyahoga","jurisdiction":"PEPPER PIKE","parcel_id":"87105091","owner_name":"CBT PEPPER PIKE 38 LLC","property_address":"28640  ADDISON CT, PEPPER PIKE, OH, 44124","property_city":"PEPPER PIKE","property_zip":"44124"}},{"type":"Feature","geometry":{"type":"Polygon","coordinates":[[[-81.4753492480765,41.500665559762396],[-81.47528669389168,41.50067099793553],[-81.47522387650051,41.500674307396324],[-81.47522131630193,41.50089036994625],[-81.47534571769742,41.50089146861088],[-81.4753492480765,41.500665559762396]]]},"properties":{"source_county":"Cuyahoga","jurisdiction":"PEPPER PIKE","parcel_id":"87105060","owner_name":"CBT PEPPER PIKE 7 LLC","property_address":"28725  ADDISON CT, PEPPER PIKE, OH, 44124","property_city":"PEPPER PIKE","property_zip":"44124"}},{"type":"Feature","geometry":{"type":"Polygon","coordinates":[[[-81.4755265413776,41.50012189959759],[-81.47552304962609,41.50034536607915],[-81.47564825591208,41.500346472153794],[-81.47565174766359,41.50012300567599],[-81.4755265413776,41.50012189959759]]]},"properties":{"source_county":"Cuyahoga","jurisdiction":"PEPPER PIKE","parcel_id":"87105089","owner_name":"CBT PEPPER PIKE 36 LLC","property_address":"28670  ADDISON CT, PEPPER PIKE, OH, 44124","property_city":"PEPPER PIKE","property_zip":"44124"}}]}